{"type":"FeatureCollection","features":[{"type":"Feature","id":"898c106a0d3ffff","geometry":{"type":"Polygon","coordinates":[[[106.796343,-6.181506],[106.795927,-6.17977],[106.794151,-6.179334],[106.792792,-6.180632],[106.793209,-6.182368],[106.794984,-6.182804],[106.796343,-6.181506]]]},"properties":{"h3_index":"898c106a0d3ffff","kawasan":"Tanah Abang","tingkat_keyakinan":"RENDAH","n_titik_misi":0,"data_source":"predicted","zona_izin_komersial":true,"indeks_churn":null,"harga_sewa_median":null,"harga_sewa_per_m2":null,"belanja_per_jam":null,"njop_m2":null,"opportunity_score":46.9,"hidden_gem_score":null,"kuadran":"HIDDEN_GEM"}},{"type":"Feature","id":"898c106a0dbffff","geometry":{"type":"Polygon","coordinates":[[[106.797286,-6.178472],[106.796869,-6.176736],[106.795093,-6.1763],[106.793734,-6.177598],[106.794151,-6.179334],[106.795927,-6.17977],[106.797286,-6.178472]]]},"properties":{"h3_index":"898c106a0dbffff","kawasan":"Tanah Abang","tingkat_keyakinan":"RENDAH","n_titik_misi":0,"data_source":"predicted","zona_izin_komersial":true,"indeks_churn":null,"harga_sewa_median":null,"harga_sewa_per_m2":null,"belanja_per_jam":null,"njop_m2":null,"opportunity_score":58.4,"hidden_gem_score":null,"kuadran":"HIDDEN_GEM"}},{"type":"Feature","id":"898c106a403ffff","geometry":{"type":"Polygon","coordinates":[[[106.801035,-6.194088],[106.800619,-6.192353],[106.798843,-6.191917],[106.797484,-6.193215],[106.797901,-6.19495],[106.799677,-6.195387],[106.801035,-6.194088]]]},"properties":{"h3_index":"898c106a403ffff","kawasan":"Tanah Abang","tingkat_keyakinan":"RENDAH","n_titik_misi":0,"data_source":"predicted","zona_izin_komersial":true,"indeks_churn":null,"harga_sewa_median":null,"harga_sewa_per_m2":null,"belanja_per_jam":null,"njop_m2":null,"opportunity_score":53.3,"hidden_gem_score":null,"kuadran":"PEMENANG_JELAS"}},{"type":"Feature","id":"898c106a407ffff","geometry":{"type":"Polygon","coordinates":[[[106.797901,-6.19495],[106.797484,-6.193215],[106.795709,-6.192779],[106.79435,-6.194077],[106.794766,-6.195812],[106.796542,-6.196249],[106.797901,-6.19495]]]},"properties":{"h3_index":"898c106a407ffff","kawasan":"Tanah Abang","tingkat_keyakinan":"RENDAH","n_titik_misi":0,"data_source":"predicted","zona_izin_komersial":true,"indeks_churn":null,"harga_sewa_median":null,"harga_sewa_per_m2":null,"belanja_per_jam":null,"njop_m2":null,"opportunity_score":46.2,"hidden_gem_score":0.493720722954459,"kuadran":"HIDDEN_GEM"}},{"type":"Feature","id":"898c106a40bffff","geometry":{"type":"Polygon","coordinates":[[[106.801978,-6.191055],[106.801561,-6.18932],[106.799786,-6.188883],[106.798427,-6.190182],[106.798843,-6.191917],[106.800619,-6.192353],[106.801978,-6.191055]]]},"properties":{"h3_index":"898c106a40bffff","kawasan":"Tanah Abang","tingkat_keyakinan":"RENDAH","n_titik_misi":0,"data_source":"predicted","zona_izin_komersial":true,"indeks_churn":null,"harga_sewa_median":null,"harga_sewa_per_m2":null,"belanja_per_jam":null,"njop_m2":null,"opportunity_score":57.0,"hidden_gem_score":null,"kuadran":"PEMENANG_JELAS"}},{"type":"Feature","id":"898c106a40fffff","geometry":{"type":"Polygon","coordinates":[[[106.798843,-6.191917],[106.798427,-6.190182],[106.796651,-6.189745],[106.795292,-6.191044],[106.795709,-6.192779],[106.797484,-6.193215],[106.798843,-6.191917]]]},"properties":{"h3_index":"898c106a40fffff","kawasan":"Tanah Abang","tingkat_keyakinan":"RENDAH","n_titik_misi":0,"data_source":"predicted","zona_izin_komersial":true,"indeks_churn":null,"harga_sewa_median":null,"harga_sewa_per_m2":null,"belanja_per_jam":null,"njop_m2":null,"opportunity_score":49.9,"hidden_gem_score":null,"kuadran":"PEMENANG_JELAS"}},{"type":"Feature","id":"898c106a413ffff","geometry":{"type":"Polygon","coordinates":[[[106.803228,-6.19626],[106.802811,-6.194525],[106.801035,-6.194088],[106.799677,-6.195387],[106.800093,-6.197122],[106.801869,-6.197558],[106.803228,-6.19626]]]},"properties":{"h3_index":"898c106a413ffff","kawasan":"Tanah Abang","tingkat_keyakinan":"RENDAH","n_titik_misi":0,"data_source":"predicted","zona_izin_komersial":true,"indeks_churn":null,"harga_sewa_median":null,"harga_sewa_per_m2":null,"belanja_per_jam":null,"njop_m2":null,"opportunity_score":45.2,"hidden_gem_score":null,"kuadran":"PEMENANG_JELAS"}},{"type":"Feature","id":"898c106a417ffff","geometry":{"type":"Polygon","coordinates":[[[106.800093,-6.197122],[106.799677,-6.195387],[106.797901,-6.19495],[106.796542,-6.196249],[106.796959,-6.197984],[106.798734,-6.19842],[106.800093,-6.197122]]]},"properties":{"h3_index":"898c106a417ffff","kawasan":"Tanah Abang","tingkat_keyakinan":"RENDAH","n_titik_misi":0,"data_source":"predicted","zona_izin_komersial":true,"indeks_churn":null,"harga_sewa_median":null,"harga_sewa_per_m2":null,"belanja_per_jam":null,"njop_m2":null,"opportunity_score":25.8,"hidden_gem_score":null,"kuadran":"JEBAKAN_GENGSI"}},{"type":"Feature","id":"898c106a41bffff","geometry":{"type":"Polygon","coordinates":[[[106.80417,-6.193226],[106.803753,-6.191491],[106.801978,-6.191055],[106.800619,-6.192353],[106.801035,-6.194088],[106.802811,-6.194525],[106.80417,-6.193226]]]},"properties":{"h3_index":"898c106a41bffff","kawasan":"Tanah Abang","tingkat_keyakinan":"RENDAH","n_titik_misi":0,"data_source":"predicted","zona_izin_komersial":null,"indeks_churn":null,"harga_sewa_median":null,"harga_sewa_per_m2":null,"belanja_per_jam":null,"njop_m2":null,"opportunity_score":50.7,"hidden_gem_score":null,"kuadran":"PEMENANG_JELAS"}},{"type":"Feature","id":"898c106a42bffff","geometry":{"type":"Polygon","coordinates":[[[106.793516,-6.190607],[106.7931,-6.188872],[106.791324,-6.188435],[106.789965,-6.189734],[106.790382,-6.191469],[106.792157,-6.191906],[106.793516,-6.190607]]]},"properties":{"h3_index":"898c106a42bffff","kawasan":"Tanah Abang","tingkat_keyakinan":"RENDAH","n_titik_misi":0,"data_source":"predicted","zona_izin_komersial":true,"indeks_churn":null,"harga_sewa_median":null,"harga_sewa_per_m2":null,"belanja_per_jam":null,"njop_m2":null,"opportunity_score":45.3,"hidden_gem_score":null,"kuadran":"PEMENANG_JELAS"}},{"type":"Feature","id":"898c106a43bffff","geometry":{"type":"Polygon","coordinates":[[[106.795709,-6.192779],[106.795292,-6.191044],[106.793516,-6.190607],[106.792157,-6.191906],[106.792574,-6.193641],[106.79435,-6.194077],[106.795709,-6.192779]]]},"properties":{"h3_index":"898c106a43bffff","kawasan":"Tanah Abang","tingkat_keyakinan":"RENDAH","n_titik_misi":0,"data_source":"predicted","zona_izin_komersial":null,"indeks_churn":null,"harga_sewa_median":null,"harga_sewa_per_m2":null,"belanja_per_jam":null,"njop_m2":null,"opportunity_score":45.0,"hidden_gem_score":null,"kuadran":"PEMENANG_JELAS"}},{"type":"Feature","id":"898c106a443ffff","geometry":{"type":"Polygon","coordinates":[[[106.806055,-6.187159],[106.805638,-6.185424],[106.803862,-6.184988],[106.802503,-6.186286],[106.80292,-6.188021],[106.804696,-6.188458],[106.806055,-6.187159]]]},"properties":{"h3_index":"898c106a443ffff","kawasan":"Tanah Abang","tingkat_keyakinan":"RENDAH","n_titik_misi":0,"data_source":"predicted","zona_izin_komersial":true,"indeks_churn":null,"harga_sewa_median":null,"harga_sewa_per_m2":null,"belanja_per_jam":null,"njop_m2":null,"opportunity_score":50.0,"hidden_gem_score":null,"kuadran":"HIDDEN_GEM"}},{"type":"Feature","id":"898c106a447ffff","geometry":{"type":"Polygon","coordinates":[[[106.80292,-6.188021],[106.802503,-6.186286],[106.800728,-6.18585],[106.799369,-6.187148],[106.799786,-6.188883],[106.801561,-6.18932],[106.80292,-6.188021]]]},"properties":{"h3_index":"898c106a447ffff","kawasan":"Tanah Abang","tingkat_keyakinan":"RENDAH","n_titik_misi":0,"data_source":"predicted","zona_izin_komersial":true,"indeks_churn":null,"harga_sewa_median":null,"harga_sewa_per_m2":null,"belanja_per_jam":null,"njop_m2":null,"opportunity_score":53.8,"hidden_gem_score":null,"kuadran":"PEMENANG_JELAS"}},{"type":"Feature","id":"898c106a44bffff","geometry":{"type":"Polygon","coordinates":[[[106.806997,-6.184126],[106.80658,-6.18239],[106.804805,-6.181954],[106.803446,-6.183252],[106.803862,-6.184988],[106.805638,-6.185424],[106.806997,-6.184126]]]},"properties":{"h3_index":"898c106a44bffff","kawasan":"Tanah Abang","tingkat_keyakinan":"RENDAH","n_titik_misi":0,"data_source":"predicted","zona_izin_komersial":null,"indeks_churn":null,"harga_sewa_median":null,"harga_sewa_per_m2":null,"belanja_per_jam":null,"njop_m2":null,"opportunity_score":46.5,"hidden_gem_score":null,"kuadran":"PEMENANG_JELAS"}},{"type":"Feature","id":"898c106a44fffff","geometry":{"type":"Polygon","coordinates":[[[106.803862,-6.184988],[106.803446,-6.183252],[106.80167,-6.182816],[106.800311,-6.184114],[106.800728,-6.18585],[106.802503,-6.186286],[106.803862,-6.184988]]]},"properties":{"h3_index":"898c106a44fffff","kawasan":"Tanah Abang","tingkat_keyakinan":"RENDAH","n_titik_misi":0,"data_source":"predicted","zona_izin_komersial":true,"indeks_churn":null,"harga_sewa_median":null,"harga_sewa_per_m2":null,"belanja_per_jam":null,"njop_m2":null,"opportunity_score":44.2,"hidden_gem_score":null,"kuadran":"PEMENANG_JELAS"}},{"type":"Feature","id":"898c106a453ffff","geometry":{"type":"Polygon","coordinates":[[[106.808247,-6.189331],[106.80783,-6.187596],[106.806055,-6.187159],[106.804696,-6.188458],[106.805112,-6.190193],[106.806888,-6.190629],[106.808247,-6.189331]]]},"properties":{"h3_index":"898c106a453ffff","kawasan":"Tanah Abang","tingkat_keyakinan":"RENDAH","n_titik_misi":0,"data_source":"predicted","zona_izin_komersial":true,"indeks_churn":null,"harga_sewa_median":null,"harga_sewa_per_m2":null,"belanja_per_jam":null,"njop_m2":null,"opportunity_score":67.6,"hidden_gem_score":null,"kuadran":"HIDDEN_GEM"}},{"type":"Feature","id":"898c106a457ffff","geometry":{"type":"Polygon","coordinates":[[[106.805112,-6.190193],[106.804696,-6.188458],[106.80292,-6.188021],[106.801561,-6.18932],[106.801978,-6.191055],[106.803753,-6.191491],[106.805112,-6.190193]]]},"properties":{"h3_index":"898c106a457ffff","kawasan":"Tanah Abang","tingkat_keyakinan":"RENDAH","n_titik_misi":0,"data_source":"predicted","zona_izin_komersial":true,"indeks_churn":null,"harga_sewa_median":null,"harga_sewa_per_m2":null,"belanja_per_jam":null,"njop_m2":null,"opportunity_score":49.4,"hidden_gem_score":null,"kuadran":"HIDDEN_GEM"}},{"type":"Feature","id":"898c106a45bffff","geometry":{"type":"Polygon","coordinates":[[[106.809189,-6.186297],[106.808772,-6.184562],[106.806997,-6.184126],[106.805638,-6.185424],[106.806055,-6.187159],[106.80783,-6.187596],[106.809189,-6.186297]]]},"properties":{"h3_index":"898c106a45bffff","kawasan":"Tanah Abang","tingkat_keyakinan":"RENDAH","n_titik_misi":0,"data_source":"predicted","zona_izin_komersial":true,"indeks_churn":null,"harga_sewa_median":null,"harga_sewa_per_m2":null,"belanja_per_jam":null,"njop_m2":null,"opportunity_score":81.0,"hidden_gem_score":null,"kuadran":"PEMENANG_JELAS"}},{"type":"Feature","id":"898c106a463ffff","geometry":{"type":"Polygon","coordinates":[[[106.797593,-6.186711],[106.797177,-6.184976],[106.795401,-6.18454],[106.794042,-6.185838],[106.794459,-6.187573],[106.796234,-6.18801],[106.797593,-6.186711]]]},"properties":{"h3_index":"898c106a463ffff","kawasan":"Tanah Abang","tingkat_keyakinan":"RENDAH","n_titik_misi":0,"data_source":"predicted","zona_izin_komersial":true,"indeks_churn":null,"harga_sewa_median":null,"harga_sewa_per_m2":null,"belanja_per_jam":null,"njop_m2":null,"opportunity_score":32.5,"hidden_gem_score":null,"kuadran":"JEBAKAN_GENGSI"}},{"type":"Feature","id":"898c106a467ffff","geometry":{"type":"Polygon","coordinates":[[[106.794459,-6.187573],[106.794042,-6.185838],[106.792266,-6.185402],[106.790907,-6.1867],[106.791324,-6.188435],[106.7931,-6.188872],[106.794459,-6.187573]]]},"properties":{"h3_index":"898c106a467ffff","kawasan":"Tanah Abang","tingkat_keyakinan":"RENDAH","n_titik_misi":0,"data_source":"predicted","zona_izin_komersial":null,"indeks_churn":null,"harga_sewa_median":null,"harga_sewa_per_m2":null,"belanja_per_jam":null,"njop_m2":null,"opportunity_score":42.9,"hidden_gem_score":null,"kuadran":"JEBAKAN_GENGSI"}},{"type":"Feature","id":"898c106a46bffff","geometry":{"type":"Polygon","coordinates":[[[106.798536,-6.183678],[106.798119,-6.181942],[106.796343,-6.181506],[106.794984,-6.182804],[106.795401,-6.18454],[106.797177,-6.184976],[106.798536,-6.183678]]]},"properties":{"h3_index":"898c106a46bffff","kawasan":"Tanah Abang","tingkat_keyakinan":"RENDAH","n_titik_misi":0,"data_source":"predicted","zona_izin_komersial":true,"indeks_churn":null,"harga_sewa_median":null,"harga_sewa_per_m2":null,"belanja_per_jam":null,"njop_m2":null,"opportunity_score":49.8,"hidden_gem_score":0.523826656042548,"kuadran":"HIDDEN_GEM"}},{"type":"Feature","id":"898c106a46fffff","geometry":{"type":"Polygon","coordinates":[[[106.795401,-6.18454],[106.794984,-6.182804],[106.793209,-6.182368],[106.79185,-6.183666],[106.792266,-6.185402],[106.794042,-6.185838],[106.795401,-6.18454]]]},"properties":{"h3_index":"898c106a46fffff","kawasan":"Tanah Abang","tingkat_keyakinan":"RENDAH","n_titik_misi":0,"data_source":"predicted","zona_izin_komersial":true,"indeks_churn":null,"harga_sewa_median":null,"harga_sewa_per_m2":null,"belanja_per_jam":null,"njop_m2":null,"opportunity_score":43.2,"hidden_gem_score":null,"kuadran":"HINDARI"}},{"type":"Feature","id":"898c106a473ffff","geometry":{"type":"Polygon","coordinates":[[[106.799786,-6.188883],[106.799369,-6.187148],[106.797593,-6.186711],[106.796234,-6.18801],[106.796651,-6.189745],[106.798427,-6.190182],[106.799786,-6.188883]]]},"properties":{"h3_index":"898c106a473ffff","kawasan":"Tanah Abang","tingkat_keyakinan":"RENDAH","n_titik_misi":0,"data_source":"predicted","zona_izin_komersial":true,"indeks_churn":null,"harga_sewa_median":null,"harga_sewa_per_m2":null,"belanja_per_jam":null,"njop_m2":null,"opportunity_score":43.6,"hidden_gem_score":null,"kuadran":"JEBAKAN_GENGSI"}},{"type":"Feature","id":"898c106a477ffff","geometry":{"type":"Polygon","coordinates":[[[106.796651,-6.189745],[106.796234,-6.18801],[106.794459,-6.187573],[106.7931,-6.188872],[106.793516,-6.190607],[106.795292,-6.191044],[106.796651,-6.189745]]]},"properties":{"h3_index":"898c106a477ffff","kawasan":"Tanah Abang","tingkat_keyakinan":"RENDAH","n_titik_misi":0,"data_source":"predicted","zona_izin_komersial":true,"indeks_churn":null,"harga_sewa_median":null,"harga_sewa_per_m2":null,"belanja_per_jam":null,"njop_m2":null,"opportunity_score":43.6,"hidden_gem_score":null,"kuadran":"JEBAKAN_GENGSI"}},{"type":"Feature","id":"898c106a47bffff","geometry":{"type":"Polygon","coordinates":[[[106.800728,-6.18585],[106.800311,-6.184114],[106.798536,-6.183678],[106.797177,-6.184976],[106.797593,-6.186711],[106.799369,-6.187148],[106.800728,-6.18585]]]},"properties":{"h3_index":"898c106a47bffff","kawasan":"Tanah Abang","tingkat_keyakinan":"RENDAH","n_titik_misi":0,"data_source":"predicted","zona_izin_komersial":null,"indeks_churn":null,"harga_sewa_median":null,"harga_sewa_per_m2":null,"belanja_per_jam":null,"njop_m2":null,"opportunity_score":57.5,"hidden_gem_score":null,"kuadran":"PEMENANG_JELAS"}},{"type":"Feature","id":"898c106a483ffff","geometry":{"type":"Polygon","coordinates":[[[106.804477,-6.201465],[106.804061,-6.19973],[106.802285,-6.199293],[106.800926,-6.200592],[106.801343,-6.202327],[106.803119,-6.202763],[106.804477,-6.201465]]]},"properties":{"h3_index":"898c106a483ffff","kawasan":"Tanah Abang","tingkat_keyakinan":"RENDAH","n_titik_misi":0,"data_source":"predicted","zona_izin_komersial":true,"indeks_churn":null,"harga_sewa_median":null,"harga_sewa_per_m2":null,"belanja_per_jam":null,"njop_m2":null,"opportunity_score":53.0,"hidden_gem_score":null,"kuadran":"PEMENANG_JELAS"}},{"type":"Feature","id":"898c106a48bffff","geometry":{"type":"Polygon","coordinates":[[[106.80542,-6.198431],[106.805003,-6.196696],[106.803228,-6.19626],[106.801869,-6.197558],[106.802285,-6.199293],[106.804061,-6.19973],[106.80542,-6.198431]]]},"properties":{"h3_index":"898c106a48bffff","kawasan":"Tanah Abang","tingkat_keyakinan":"RENDAH","n_titik_misi":0,"data_source":"predicted","zona_izin_komersial":true,"indeks_churn":null,"harga_sewa_median":null,"harga_sewa_per_m2":null,"belanja_per_jam":null,"njop_m2":null,"opportunity_score":42.7,"hidden_gem_score":null,"kuadran":"JEBAKAN_GENGSI"}},{"type":"Feature","id":"898c106a48fffff","geometry":{"type":"Polygon","coordinates":[[[106.802285,-6.199293],[106.801869,-6.197558],[106.800093,-6.197122],[106.798734,-6.19842],[106.799151,-6.200155],[106.800926,-6.200592],[106.802285,-6.199293]]]},"properties":{"h3_index":"898c106a48fffff","kawasan":"Tanah Abang","tingkat_keyakinan":"RENDAH","n_titik_misi":0,"data_source":"predicted","zona_izin_komersial":true,"indeks_churn":null,"harga_sewa_median":null,"harga_sewa_per_m2":null,"belanja_per_jam":null,"njop_m2":null,"opportunity_score":60.5,"hidden_gem_score":null,"kuadran":"PEMENANG_JELAS"}},{"type":"Feature","id":"898c106a49bffff","geometry":{"type":"Polygon","coordinates":[[[106.807612,-6.200603],[106.807195,-6.198868],[106.80542,-6.198431],[106.804061,-6.19973],[106.804477,-6.201465],[106.806253,-6.201901],[106.807612,-6.200603]]]},"properties":{"h3_index":"898c106a49bffff","kawasan":"Tanah Abang","tingkat_keyakinan":"RENDAH","n_titik_misi":0,"data_source":"predicted","zona_izin_komersial":null,"indeks_churn":null,"harga_sewa_median":null,"harga_sewa_per_m2":null,"belanja_per_jam":null,"njop_m2":null,"opportunity_score":28.2,"hidden_gem_score":null,"kuadran":"JEBAKAN_GENGSI"}},{"type":"Feature","id":"898c106a4c3ffff","geometry":{"type":"Polygon","coordinates":[[[106.809496,-6.194536],[106.80908,-6.192801],[106.807304,-6.192365],[106.805945,-6.193663],[106.806362,-6.195398],[106.808137,-6.195834],[106.809496,-6.194536]]]},"properties":{"h3_index":"898c106a4c3ffff","kawasan":"Tanah Abang","tingkat_keyakinan":"RENDAH","n_titik_misi":0,"data_source":"predicted","zona_izin_komersial":null,"indeks_churn":null,"harga_sewa_median":null,"harga_sewa_per_m2":null,"belanja_per_jam":null,"njop_m2":null,"opportunity_score":27.4,"hidden_gem_score":null,"kuadran":"JEBAKAN_GENGSI"}},{"type":"Feature","id":"898c106a4c7ffff","geometry":{"type":"Polygon","coordinates":[[[106.806362,-6.195398],[106.805945,-6.193663],[106.80417,-6.193226],[106.802811,-6.194525],[106.803228,-6.19626],[106.805003,-6.196696],[106.806362,-6.195398]]]},"properties":{"h3_index":"898c106a4c7ffff","kawasan":"Tanah Abang","tingkat_keyakinan":"RENDAH","n_titik_misi":0,"data_source":"predicted","zona_izin_komersial":true,"indeks_churn":null,"harga_sewa_median":null,"harga_sewa_per_m2":null,"belanja_per_jam":null,"njop_m2":null,"opportunity_score":45.7,"hidden_gem_score":null,"kuadran":"PEMENANG_JELAS"}},{"type":"Feature","id":"898c106a4cbffff","geometry":{"type":"Polygon","coordinates":[[[106.810439,-6.191503],[106.810022,-6.189767],[106.808247,-6.189331],[106.806888,-6.190629],[106.807304,-6.192365],[106.80908,-6.192801],[106.810439,-6.191503]]]},"properties":{"h3_index":"898c106a4cbffff","kawasan":"Tanah Abang","tingkat_keyakinan":"RENDAH","n_titik_misi":0,"data_source":"predicted","zona_izin_komersial":null,"indeks_churn":null,"harga_sewa_median":null,"harga_sewa_per_m2":null,"belanja_per_jam":null,"njop_m2":null,"opportunity_score":63.6,"hidden_gem_score":null,"kuadran":"PEMENANG_JELAS"}},{"type":"Feature","id":"898c106a4cfffff","geometry":{"type":"Polygon","coordinates":[[[106.807304,-6.192365],[106.806888,-6.190629],[106.805112,-6.190193],[106.803753,-6.191491],[106.80417,-6.193226],[106.805945,-6.193663],[106.807304,-6.192365]]]},"properties":{"h3_index":"898c106a4cfffff","kawasan":"Tanah Abang","tingkat_keyakinan":"RENDAH","n_titik_misi":0,"data_source":"predicted","zona_izin_komersial":true,"indeks_churn":null,"harga_sewa_median":null,"harga_sewa_per_m2":null,"belanja_per_jam":null,"njop_m2":null,"opportunity_score":55.7,"hidden_gem_score":null,"kuadran":"PEMENANG_JELAS"}},{"type":"Feature","id":"898c106a4d3ffff","geometry":{"type":"Polygon","coordinates":[[[106.811688,-6.196707],[106.811272,-6.194972],[106.809496,-6.194536],[106.808137,-6.195834],[106.808554,-6.197569],[106.810329,-6.198006],[106.811688,-6.196707]]]},"properties":{"h3_index":"898c106a4d3ffff","kawasan":"Tanah Abang","tingkat_keyakinan":"RENDAH","n_titik_misi":0,"data_source":"predicted","zona_izin_komersial":true,"indeks_churn":null,"harga_sewa_median":null,"harga_sewa_per_m2":null,"belanja_per_jam":null,"njop_m2":null,"opportunity_score":23.6,"hidden_gem_score":null,"kuadran":"JEBAKAN_GENGSI"}},{"type":"Feature","id":"898c106a4d7ffff","geometry":{"type":"Polygon","coordinates":[[[106.808554,-6.197569],[106.808137,-6.195834],[106.806362,-6.195398],[106.805003,-6.196696],[106.80542,-6.198431],[106.807195,-6.198868],[106.808554,-6.197569]]]},"properties":{"h3_index":"898c106a4d7ffff","kawasan":"Tanah Abang","tingkat_keyakinan":"RENDAH","n_titik_misi":0,"data_source":"predicted","zona_izin_komersial":true,"indeks_churn":null,"harga_sewa_median":null,"harga_sewa_per_m2":null,"belanja_per_jam":null,"njop_m2":null,"opportunity_score":42.2,"hidden_gem_score":null,"kuadran":"JEBAKAN_GENGSI"}},{"type":"Feature","id":"898c106a4dbffff","geometry":{"type":"Polygon","coordinates":[[[106.812631,-6.193674],[106.812214,-6.191939],[106.810439,-6.191503],[106.80908,-6.192801],[106.809496,-6.194536],[106.811272,-6.194972],[106.812631,-6.193674]]]},"properties":{"h3_index":"898c106a4dbffff","kawasan":"Tanah Abang","tingkat_keyakinan":"RENDAH","n_titik_misi":0,"data_source":"predicted","zona_izin_komersial":true,"indeks_churn":null,"harga_sewa_median":null,"harga_sewa_per_m2":null,"belanja_per_jam":null,"njop_m2":null,"opportunity_score":68.9,"hidden_gem_score":null,"kuadran":"HIDDEN_GEM"}},{"type":"Feature","id":"898c106a603ffff","geometry":{"type":"Polygon","coordinates":[[[106.807632,-6.172852],[106.807215,-6.171117],[106.80544,-6.17068],[106.804081,-6.171979],[106.804497,-6.173714],[106.806273,-6.174151],[106.807632,-6.172852]]]},"properties":{"h3_index":"898c106a603ffff","kawasan":"Tanah Abang","tingkat_keyakinan":"RENDAH","n_titik_misi":0,"data_source":"predicted","zona_izin_komersial":true,"indeks_churn":null,"harga_sewa_median":null,"harga_sewa_per_m2":null,"belanja_per_jam":null,"njop_m2":null,"opportunity_score":0.0,"hidden_gem_score":null,"kuadran":"JEBAKAN_GENGSI"}},{"type":"Feature","id":"898c106a607ffff","geometry":{"type":"Polygon","coordinates":[[[106.804497,-6.173714],[106.804081,-6.171979],[106.802305,-6.171542],[106.800946,-6.17284],[106.801363,-6.174576],[106.803138,-6.175013],[106.804497,-6.173714]]]},"properties":{"h3_index":"898c106a607ffff","kawasan":"Tanah Abang","tingkat_keyakinan":"RENDAH","n_titik_misi":0,"data_source":"predicted","zona_izin_komersial":true,"indeks_churn":null,"harga_sewa_median":null,"harga_sewa_per_m2":null,"belanja_per_jam":null,"njop_m2":null,"opportunity_score":59.6,"hidden_gem_score":null,"kuadran":"PEMENANG_JELAS"}},{"type":"Feature","id":"898c106a60bffff","geometry":{"type":"Polygon","coordinates":[[[106.808574,-6.169818],[106.808158,-6.168082],[106.806382,-6.167646],[106.805023,-6.168944],[106.80544,-6.17068],[106.807215,-6.171117],[106.808574,-6.169818]]]},"properties":{"h3_index":"898c106a60bffff","kawasan":"Tanah Abang","tingkat_keyakinan":"RENDAH","n_titik_misi":0,"data_source":"predicted","zona_izin_komersial":true,"indeks_churn":null,"harga_sewa_median":null,"harga_sewa_per_m2":null,"belanja_per_jam":null,"njop_m2":null,"opportunity_score":49.3,"hidden_gem_score":null,"kuadran":"PEMENANG_JELAS"}},{"type":"Feature","id":"898c106a60fffff","geometry":{"type":"Polygon","coordinates":[[[106.80544,-6.17068],[106.805023,-6.168944],[106.803247,-6.168508],[106.801888,-6.169806],[106.802305,-6.171542],[106.804081,-6.171979],[106.80544,-6.17068]]]},"properties":{"h3_index":"898c106a60fffff","kawasan":"Tanah Abang","tingkat_keyakinan":"RENDAH","n_titik_misi":0,"data_source":"predicted","zona_izin_komersial":true,"indeks_churn":null,"harga_sewa_median":null,"harga_sewa_per_m2":null,"belanja_per_jam":null,"njop_m2":null,"opportunity_score":48.3,"hidden_gem_score":null,"kuadran":"PEMENANG_JELAS"}},{"type":"Feature","id":"898c106a613ffff","geometry":{"type":"Polygon","coordinates":[[[106.809824,-6.175024],[106.809407,-6.173289],[106.807632,-6.172852],[106.806273,-6.174151],[106.806689,-6.175886],[106.808465,-6.176323],[106.809824,-6.175024]]]},"properties":{"h3_index":"898c106a613ffff","kawasan":"Tanah Abang","tingkat_keyakinan":"RENDAH","n_titik_misi":0,"data_source":"predicted","zona_izin_komersial":true,"indeks_churn":null,"harga_sewa_median":null,"harga_sewa_per_m2":null,"belanja_per_jam":null,"njop_m2":null,"opportunity_score":60.5,"hidden_gem_score":null,"kuadran":"PEMENANG_JELAS"}},{"type":"Feature","id":"898c106a617ffff","geometry":{"type":"Polygon","coordinates":[[[106.806689,-6.175886],[106.806273,-6.174151],[106.804497,-6.173714],[106.803138,-6.175013],[106.803555,-6.176748],[106.80533,-6.177185],[106.806689,-6.175886]]]},"properties":{"h3_index":"898c106a617ffff","kawasan":"Tanah Abang","tingkat_keyakinan":"RENDAH","n_titik_misi":0,"data_source":"predicted","zona_izin_komersial":true,"indeks_churn":null,"harga_sewa_median":null,"harga_sewa_per_m2":null,"belanja_per_jam":null,"njop_m2":null,"opportunity_score":52.8,"hidden_gem_score":null,"kuadran":"PEMENANG_JELAS"}},{"type":"Feature","id":"898c106a61bffff","geometry":{"type":"Polygon","coordinates":[[[106.810766,-6.17199],[106.81035,-6.170255],[106.808574,-6.169818],[106.807215,-6.171117],[106.807632,-6.172852],[106.809407,-6.173289],[106.810766,-6.17199]]]},"properties":{"h3_index":"898c106a61bffff","kawasan":"Tanah Abang","tingkat_keyakinan":"RENDAH","n_titik_misi":0,"data_source":"predicted","zona_izin_komersial":true,"indeks_churn":null,"harga_sewa_median":null,"harga_sewa_per_m2":null,"belanja_per_jam":null,"njop_m2":null,"opportunity_score":62.4,"hidden_gem_score":0.549553872802716,"kuadran":"HIDDEN_GEM"}},{"type":"Feature","id":"898c106a623ffff","geometry":{"type":"Polygon","coordinates":[[[106.79917,-6.172404],[106.798754,-6.170668],[106.796978,-6.170231],[106.795619,-6.17153],[106.796036,-6.173266],[106.797811,-6.173702],[106.79917,-6.172404]]]},"properties":{"h3_index":"898c106a623ffff","kawasan":"Tanah Abang","tingkat_keyakinan":"RENDAH","n_titik_misi":0,"data_source":"predicted","zona_izin_komersial":true,"indeks_churn":null,"harga_sewa_median":null,"harga_sewa_per_m2":null,"belanja_per_jam":null,"njop_m2":null,"opportunity_score":39.8,"hidden_gem_score":null,"kuadran":"JEBAKAN_GENGSI"}},{"type":"Feature","id":"898c106a633ffff","geometry":{"type":"Polygon","coordinates":[[[106.801363,-6.174576],[106.800946,-6.17284],[106.79917,-6.172404],[106.797811,-6.173702],[106.798228,-6.175438],[106.800004,-6.175875],[106.801363,-6.174576]]]},"properties":{"h3_index":"898c106a633ffff","kawasan":"Tanah Abang","tingkat_keyakinan":"RENDAH","n_titik_misi":0,"data_source":"predicted","zona_izin_komersial":true,"indeks_churn":null,"harga_sewa_median":null,"harga_sewa_per_m2":null,"belanja_per_jam":null,"njop_m2":null,"opportunity_score":24.0,"hidden_gem_score":null,"kuadran":"JEBAKAN_GENGSI"}},{"type":"Feature","id":"898c106a637ffff","geometry":{"type":"Polygon","coordinates":[[[106.798228,-6.175438],[106.797811,-6.173702],[106.796036,-6.173266],[106.794677,-6.174564],[106.795093,-6.1763],[106.796869,-6.176736],[106.798228,-6.175438]]]},"properties":{"h3_index":"898c106a637ffff","kawasan":"Tanah Abang","tingkat_keyakinan":"RENDAH","n_titik_misi":0,"data_source":"predicted","zona_izin_komersial":true,"indeks_churn":null,"harga_sewa_median":null,"harga_sewa_per_m2":null,"belanja_per_jam":null,"njop_m2":null,"opportunity_score":57.1,"hidden_gem_score":null,"kuadran":"PEMENANG_JELAS"}},{"type":"Feature","id":"898c106a63bffff","geometry":{"type":"Polygon","coordinates":[[[106.802305,-6.171542],[106.801888,-6.169806],[106.800113,-6.16937],[106.798754,-6.170668],[106.79917,-6.172404],[106.800946,-6.17284],[106.802305,-6.171542]]]},"properties":{"h3_index":"898c106a63bffff","kawasan":"Tanah Abang","tingkat_keyakinan":"RENDAH","n_titik_misi":0,"data_source":"predicted","zona_izin_komersial":true,"indeks_churn":null,"harga_sewa_median":null,"harga_sewa_per_m2":null,"belanja_per_jam":null,"njop_m2":null,"opportunity_score":44.5,"hidden_gem_score":null,"kuadran":"PEMENANG_JELAS"}},{"type":"Feature","id":"898c106a653ffff","geometry":{"type":"Polygon","coordinates":[[[106.814843,-6.168094],[106.814427,-6.166359],[106.812651,-6.165922],[106.811292,-6.16722],[106.811709,-6.168956],[106.813484,-6.169393],[106.814843,-6.168094]]]},"properties":{"h3_index":"898c106a653ffff","kawasan":"Tanah Abang","tingkat_keyakinan":"RENDAH","n_titik_misi":0,"data_source":"predicted","zona_izin_komersial":true,"indeks_churn":null,"harga_sewa_median":null,"harga_sewa_per_m2":null,"belanja_per_jam":null,"njop_m2":null,"opportunity_score":46.4,"hidden_gem_score":null,"kuadran":"PEMENANG_JELAS"}},{"type":"Feature","id":"898c106a657ffff","geometry":{"type":"Polygon","coordinates":[[[106.811709,-6.168956],[106.811292,-6.16722],[106.809517,-6.166784],[106.808158,-6.168082],[106.808574,-6.169818],[106.81035,-6.170255],[106.811709,-6.168956]]]},"properties":{"h3_index":"898c106a657ffff","kawasan":"Tanah Abang","tingkat_keyakinan":"RENDAH","n_titik_misi":0,"data_source":"predicted","zona_izin_komersial":true,"indeks_churn":null,"harga_sewa_median":null,"harga_sewa_per_m2":null,"belanja_per_jam":null,"njop_m2":null,"opportunity_score":48.5,"hidden_gem_score":null,"kuadran":"PEMENANG_JELAS"}},{"type":"Feature","id":"898c106a683ffff","geometry":{"type":"Polygon","coordinates":[[[106.811074,-6.18023],[106.810657,-6.178495],[106.808882,-6.178058],[106.807523,-6.179357],[106.807939,-6.181092],[106.809715,-6.181528],[106.811074,-6.18023]]]},"properties":{"h3_index":"898c106a683ffff","kawasan":"Tanah Abang","tingkat_keyakinan":"RENDAH","n_titik_misi":0,"data_source":"predicted","zona_izin_komersial":true,"indeks_churn":null,"harga_sewa_median":null,"harga_sewa_per_m2":null,"belanja_per_jam":null,"njop_m2":null,"opportunity_score":63.7,"hidden_gem_score":null,"kuadran":"PEMENANG_JELAS"}},{"type":"Feature","id":"898c106a687ffff","geometry":{"type":"Polygon","coordinates":[[[106.807939,-6.181092],[106.807523,-6.179357],[106.805747,-6.17892],[106.804388,-6.180219],[106.804805,-6.181954],[106.80658,-6.18239],[106.807939,-6.181092]]]},"properties":{"h3_index":"898c106a687ffff","kawasan":"Tanah Abang","tingkat_keyakinan":"RENDAH","n_titik_misi":0,"data_source":"predicted","zona_izin_komersial":true,"indeks_churn":null,"harga_sewa_median":null,"harga_sewa_per_m2":null,"belanja_per_jam":null,"njop_m2":null,"opportunity_score":49.9,"hidden_gem_score":null,"kuadran":"PEMENANG_JELAS"}},{"type":"Feature","id":"898c106a68bffff","geometry":{"type":"Polygon","coordinates":[[[106.812016,-6.177196],[106.811599,-6.175461],[106.809824,-6.175024],[106.808465,-6.176323],[106.808882,-6.178058],[106.810657,-6.178495],[106.812016,-6.177196]]]},"properties":{"h3_index":"898c106a68bffff","kawasan":"Tanah Abang","tingkat_keyakinan":"RENDAH","n_titik_misi":0,"data_source":"predicted","zona_izin_komersial":true,"indeks_churn":null,"harga_sewa_median":null,"harga_sewa_per_m2":null,"belanja_per_jam":null,"njop_m2":null,"opportunity_score":53.7,"hidden_gem_score":null,"kuadran":"PEMENANG_JELAS"}},{"type":"Feature","id":"898c106a68fffff","geometry":{"type":"Polygon","coordinates":[[[106.808882,-6.178058],[106.808465,-6.176323],[106.806689,-6.175886],[106.80533,-6.177185],[106.805747,-6.17892],[106.807523,-6.179357],[106.808882,-6.178058]]]},"properties":{"h3_index":"898c106a68fffff","kawasan":"Tanah Abang","tingkat_keyakinan":"RENDAH","n_titik_misi":0,"data_source":"predicted","zona_izin_komersial":true,"indeks_churn":null,"harga_sewa_median":null,"harga_sewa_per_m2":null,"belanja_per_jam":null,"njop_m2":null,"opportunity_score":57.7,"hidden_gem_score":null,"kuadran":"HIDDEN_GEM"}},{"type":"Feature","id":"898c106a693ffff","geometry":{"type":"Polygon","coordinates":[[[106.813266,-6.182402],[106.812849,-6.180666],[106.811074,-6.18023],[106.809715,-6.181528],[106.810131,-6.183264],[106.811907,-6.1837],[106.813266,-6.182402]]]},"properties":{"h3_index":"898c106a693ffff","kawasan":"Tanah Abang","tingkat_keyakinan":"RENDAH","n_titik_misi":3,"data_source":"observed","zona_izin_komersial":true,"indeks_churn":null,"harga_sewa_median":null,"harga_sewa_per_m2":null,"belanja_per_jam":null,"njop_m2":null,"opportunity_score":68.0,"hidden_gem_score":null,"kuadran":"PEMENANG_JELAS"}},{"type":"Feature","id":"898c106a697ffff","geometry":{"type":"Polygon","coordinates":[[[106.810131,-6.183264],[106.809715,-6.181528],[106.807939,-6.181092],[106.80658,-6.18239],[106.806997,-6.184126],[106.808772,-6.184562],[106.810131,-6.183264]]]},"properties":{"h3_index":"898c106a697ffff","kawasan":"Tanah Abang","tingkat_keyakinan":"RENDAH","n_titik_misi":0,"data_source":"predicted","zona_izin_komersial":null,"indeks_churn":null,"harga_sewa_median":null,"harga_sewa_per_m2":null,"belanja_per_jam":null,"njop_m2":null,"opportunity_score":83.3,"hidden_gem_score":null,"kuadran":"PEMENANG_JELAS"}},{"type":"Feature","id":"898c106a69bffff","geometry":{"type":"Polygon","coordinates":[[[106.814208,-6.179368],[106.813792,-6.177633],[106.812016,-6.177196],[106.810657,-6.178495],[106.811074,-6.18023],[106.812849,-6.180666],[106.814208,-6.179368]]]},"properties":{"h3_index":"898c106a69bffff","kawasan":"Tanah Abang","tingkat_keyakinan":"RENDAH","n_titik_misi":0,"data_source":"predicted","zona_izin_komersial":true,"indeks_churn":null,"harga_sewa_median":null,"harga_sewa_per_m2":null,"belanja_per_jam":null,"njop_m2":null,"opportunity_score":89.6,"hidden_gem_score":null,"kuadran":"PEMENANG_JELAS"}},{"type":"Feature","id":"898c106a6a3ffff","geometry":{"type":"Polygon","coordinates":[[[106.802613,-6.179782],[106.802196,-6.178047],[106.80042,-6.17761],[106.799061,-6.178909],[106.799478,-6.180644],[106.801254,-6.18108],[106.802613,-6.179782]]]},"properties":{"h3_index":"898c106a6a3ffff","kawasan":"Tanah Abang","tingkat_keyakinan":"RENDAH","n_titik_misi":0,"data_source":"predicted","zona_izin_komersial":true,"indeks_churn":null,"harga_sewa_median":null,"harga_sewa_per_m2":null,"belanja_per_jam":null,"njop_m2":null,"opportunity_score":47.9,"hidden_gem_score":null,"kuadran":"PEMENANG_JELAS"}},{"type":"Feature","id":"898c106a6a7ffff","geometry":{"type":"Polygon","coordinates":[[[106.799478,-6.180644],[106.799061,-6.178909],[106.797286,-6.178472],[106.795927,-6.17977],[106.796343,-6.181506],[106.798119,-6.181942],[106.799478,-6.180644]]]},"properties":{"h3_index":"898c106a6a7ffff","kawasan":"Tanah Abang","tingkat_keyakinan":"RENDAH","n_titik_misi":0,"data_source":"predicted","zona_izin_komersial":true,"indeks_churn":null,"harga_sewa_median":null,"harga_sewa_per_m2":null,"belanja_per_jam":null,"njop_m2":null,"opportunity_score":47.0,"hidden_gem_score":null,"kuadran":"PEMENANG_JELAS"}},{"type":"Feature","id":"898c106a6abffff","geometry":{"type":"Polygon","coordinates":[[[106.803555,-6.176748],[106.803138,-6.175013],[106.801363,-6.174576],[106.800004,-6.175875],[106.80042,-6.17761],[106.802196,-6.178047],[106.803555,-6.176748]]]},"properties":{"h3_index":"898c106a6abffff","kawasan":"Tanah Abang","tingkat_keyakinan":"RENDAH","n_titik_misi":0,"data_source":"predicted","zona_izin_komersial":true,"indeks_churn":null,"harga_sewa_median":null,"harga_sewa_per_m2":null,"belanja_per_jam":null,"njop_m2":null,"opportunity_score":64.3,"hidden_gem_score":null,"kuadran":"PEMENANG_JELAS"}},{"type":"Feature","id":"898c106a6afffff","geometry":{"type":"Polygon","coordinates":[[[106.80042,-6.17761],[106.800004,-6.175875],[106.798228,-6.175438],[106.796869,-6.176736],[106.797286,-6.178472],[106.799061,-6.178909],[106.80042,-6.17761]]]},"properties":{"h3_index":"898c106a6afffff","kawasan":"Tanah Abang","tingkat_keyakinan":"RENDAH","n_titik_misi":0,"data_source":"predicted","zona_izin_komersial":true,"indeks_churn":null,"harga_sewa_median":null,"harga_sewa_per_m2":null,"belanja_per_jam":null,"njop_m2":null,"opportunity_score":47.9,"hidden_gem_score":null,"kuadran":"PEMENANG_JELAS"}},{"type":"Feature","id":"898c106a6b3ffff","geometry":{"type":"Polygon","coordinates":[[[106.804805,-6.181954],[106.804388,-6.180219],[106.802613,-6.179782],[106.801254,-6.18108],[106.80167,-6.182816],[106.803446,-6.183252],[106.804805,-6.181954]]]},"properties":{"h3_index":"898c106a6b3ffff","kawasan":"Tanah Abang","tingkat_keyakinan":"RENDAH","n_titik_misi":0,"data_source":"predicted","zona_izin_komersial":true,"indeks_churn":null,"harga_sewa_median":null,"harga_sewa_per_m2":null,"belanja_per_jam":null,"njop_m2":null,"opportunity_score":44.7,"hidden_gem_score":null,"kuadran":"PEMENANG_JELAS"}},{"type":"Feature","id":"898c106a6b7ffff","geometry":{"type":"Polygon","coordinates":[[[106.80167,-6.182816],[106.801254,-6.18108],[106.799478,-6.180644],[106.798119,-6.181942],[106.798536,-6.183678],[106.800311,-6.184114],[106.80167,-6.182816]]]},"properties":{"h3_index":"898c106a6b7ffff","kawasan":"Tanah Abang","tingkat_keyakinan":"RENDAH","n_titik_misi":0,"data_source":"predicted","zona_izin_komersial":null,"indeks_churn":null,"harga_sewa_median":null,"harga_sewa_per_m2":null,"belanja_per_jam":null,"njop_m2":null,"opportunity_score":52.9,"hidden_gem_score":null,"kuadran":"PEMENANG_JELAS"}},{"type":"Feature","id":"898c106a6bbffff","geometry":{"type":"Polygon","coordinates":[[[106.805747,-6.17892],[106.80533,-6.177185],[106.803555,-6.176748],[106.802196,-6.178047],[106.802613,-6.179782],[106.804388,-6.180219],[106.805747,-6.17892]]]},"properties":{"h3_index":"898c106a6bbffff","kawasan":"Tanah Abang","tingkat_keyakinan":"RENDAH","n_titik_misi":0,"data_source":"predicted","zona_izin_komersial":true,"indeks_churn":null,"harga_sewa_median":null,"harga_sewa_per_m2":null,"belanja_per_jam":null,"njop_m2":null,"opportunity_score":50.6,"hidden_gem_score":null,"kuadran":"PEMENANG_JELAS"}},{"type":"Feature","id":"898c106a6c3ffff","geometry":{"type":"Polygon","coordinates":[[[106.816093,-6.1733],[106.815676,-6.171565],[106.813901,-6.171128],[106.812542,-6.172427],[106.812958,-6.174162],[106.814734,-6.174599],[106.816093,-6.1733]]]},"properties":{"h3_index":"898c106a6c3ffff","kawasan":"Tanah Abang","tingkat_keyakinan":"RENDAH","n_titik_misi":0,"data_source":"predicted","zona_izin_komersial":true,"indeks_churn":null,"harga_sewa_median":null,"harga_sewa_per_m2":null,"belanja_per_jam":null,"njop_m2":null,"opportunity_score":45.8,"hidden_gem_score":null,"kuadran":"PEMENANG_JELAS"}},{"type":"Feature","id":"898c106a6c7ffff","geometry":{"type":"Polygon","coordinates":[[[106.812958,-6.174162],[106.812542,-6.172427],[106.810766,-6.17199],[106.809407,-6.173289],[106.809824,-6.175024],[106.811599,-6.175461],[106.812958,-6.174162]]]},"properties":{"h3_index":"898c106a6c7ffff","kawasan":"Tanah Abang","tingkat_keyakinan":"RENDAH","n_titik_misi":0,"data_source":"predicted","zona_izin_komersial":true,"indeks_churn":null,"harga_sewa_median":null,"harga_sewa_per_m2":null,"belanja_per_jam":null,"njop_m2":null,"opportunity_score":68.4,"hidden_gem_score":null,"kuadran":"PEMENANG_JELAS"}},{"type":"Feature","id":"898c106a6cbffff","geometry":{"type":"Polygon","coordinates":[[[106.817035,-6.170266],[106.816619,-6.168531],[106.814843,-6.168094],[106.813484,-6.169393],[106.813901,-6.171128],[106.815676,-6.171565],[106.817035,-6.170266]]]},"properties":{"h3_index":"898c106a6cbffff","kawasan":"Tanah Abang","tingkat_keyakinan":"RENDAH","n_titik_misi":0,"data_source":"predicted","zona_izin_komersial":true,"indeks_churn":null,"harga_sewa_median":null,"harga_sewa_per_m2":null,"belanja_per_jam":null,"njop_m2":null,"opportunity_score":67.3,"hidden_gem_score":null,"kuadran":"PEMENANG_JELAS"}},{"type":"Feature","id":"898c106a6cfffff","geometry":{"type":"Polygon","coordinates":[[[106.813901,-6.171128],[106.813484,-6.169393],[106.811709,-6.168956],[106.81035,-6.170255],[106.810766,-6.17199],[106.812542,-6.172427],[106.813901,-6.171128]]]},"properties":{"h3_index":"898c106a6cfffff","kawasan":"Tanah Abang","tingkat_keyakinan":"RENDAH","n_titik_misi":0,"data_source":"predicted","zona_izin_komersial":true,"indeks_churn":null,"harga_sewa_median":null,"harga_sewa_per_m2":null,"belanja_per_jam":null,"njop_m2":null,"opportunity_score":60.1,"hidden_gem_score":null,"kuadran":"PEMENANG_JELAS"}},{"type":"Feature","id":"898c106a6d3ffff","geometry":{"type":"Polygon","coordinates":[[[106.818285,-6.175472],[106.817868,-6.173737],[106.816093,-6.1733],[106.814734,-6.174599],[106.81515,-6.176334],[106.816926,-6.176771],[106.818285,-6.175472]]]},"properties":{"h3_index":"898c106a6d3ffff","kawasan":"Tanah Abang","tingkat_keyakinan":"RENDAH","n_titik_misi":0,"data_source":"predicted","zona_izin_komersial":true,"indeks_churn":null,"harga_sewa_median":null,"harga_sewa_per_m2":null,"belanja_per_jam":null,"njop_m2":null,"opportunity_score":57.0,"hidden_gem_score":null,"kuadran":"PEMENANG_JELAS"}},{"type":"Feature","id":"898c106a6d7ffff","geometry":{"type":"Polygon","coordinates":[[[106.81515,-6.176334],[106.814734,-6.174599],[106.812958,-6.174162],[106.811599,-6.175461],[106.812016,-6.177196],[106.813792,-6.177633],[106.81515,-6.176334]]]},"properties":{"h3_index":"898c106a6d7ffff","kawasan":"Tanah Abang","tingkat_keyakinan":"RENDAH","n_titik_misi":0,"data_source":"predicted","zona_izin_komersial":true,"indeks_churn":null,"harga_sewa_median":null,"harga_sewa_per_m2":null,"belanja_per_jam":null,"njop_m2":null,"opportunity_score":54.7,"hidden_gem_score":null,"kuadran":"PEMENANG_JELAS"}},{"type":"Feature","id":"898c106a6dbffff","geometry":{"type":"Polygon","coordinates":[[[106.819227,-6.172438],[106.818811,-6.170703],[106.817035,-6.170266],[106.815676,-6.171565],[106.816093,-6.1733],[106.817868,-6.173737],[106.819227,-6.172438]]]},"properties":{"h3_index":"898c106a6dbffff","kawasan":"Tanah Abang","tingkat_keyakinan":"RENDAH","n_titik_misi":0,"data_source":"predicted","zona_izin_komersial":true,"indeks_churn":null,"harga_sewa_median":null,"harga_sewa_per_m2":null,"belanja_per_jam":null,"njop_m2":null,"opportunity_score":65.5,"hidden_gem_score":0.574232135545728,"kuadran":"HIDDEN_GEM"}},{"type":"Feature","id":"898c1078a6fffff","geometry":{"type":"Polygon","coordinates":[[[106.810746,-6.199741],[106.810329,-6.198006],[106.808554,-6.197569],[106.807195,-6.198868],[106.807612,-6.200603],[106.809387,-6.201039],[106.810746,-6.199741]]]},"properties":{"h3_index":"898c1078a6fffff","kawasan":"Tanah Abang","tingkat_keyakinan":"RENDAH","n_titik_misi":0,"data_source":"predicted","zona_izin_komersial":true,"indeks_churn":null,"harga_sewa_median":null,"harga_sewa_per_m2":null,"belanja_per_jam":null,"njop_m2":null,"opportunity_score":52.4,"hidden_gem_score":null,"kuadran":"HIDDEN_GEM"}},{"type":"Feature","id":"898c1079903ffff","geometry":{"type":"Polygon","coordinates":[[[106.822976,-6.188054],[106.822559,-6.186319],[106.820784,-6.185883],[106.819425,-6.187181],[106.819841,-6.188916],[106.821617,-6.189353],[106.822976,-6.188054]]]},"properties":{"h3_index":"898c1079903ffff","kawasan":"Tanah Abang","tingkat_keyakinan":"RENDAH","n_titik_misi":0,"data_source":"predicted","zona_izin_komersial":true,"indeks_churn":null,"harga_sewa_median":null,"harga_sewa_per_m2":null,"belanja_per_jam":null,"njop_m2":null,"opportunity_score":67.2,"hidden_gem_score":null,"kuadran":"PEMENANG_JELAS"}},{"type":"Feature","id":"898c1079907ffff","geometry":{"type":"Polygon","coordinates":[[[106.819841,-6.188916],[106.819425,-6.187181],[106.81765,-6.186745],[106.816291,-6.188043],[106.816707,-6.189779],[106.818483,-6.190215],[106.819841,-6.188916]]]},"properties":{"h3_index":"898c1079907ffff","kawasan":"Tanah Abang","tingkat_keyakinan":"RENDAH","n_titik_misi":0,"data_source":"predicted","zona_izin_komersial":true,"indeks_churn":null,"harga_sewa_median":null,"harga_sewa_per_m2":null,"belanja_per_jam":null,"njop_m2":null,"opportunity_score":64.6,"hidden_gem_score":null,"kuadran":"PEMENANG_JELAS"}},{"type":"Feature","id":"898c107990bffff","geometry":{"type":"Polygon","coordinates":[[[106.823918,-6.185021],[106.823501,-6.183286],[106.821726,-6.182849],[106.820367,-6.184148],[106.820784,-6.185883],[106.822559,-6.186319],[106.823918,-6.185021]]]},"properties":{"h3_index":"898c107990bffff","kawasan":"Tanah Abang","tingkat_keyakinan":"RENDAH","n_titik_misi":0,"data_source":"predicted","zona_izin_komersial":true,"indeks_churn":null,"harga_sewa_median":null,"harga_sewa_per_m2":null,"belanja_per_jam":null,"njop_m2":null,"opportunity_score":55.7,"hidden_gem_score":null,"kuadran":"PEMENANG_JELAS"}},{"type":"Feature","id":"898c107990fffff","geometry":{"type":"Polygon","coordinates":[[[106.820784,-6.185883],[106.820367,-6.184148],[106.818592,-6.183711],[106.817233,-6.18501],[106.81765,-6.186745],[106.819425,-6.187181],[106.820784,-6.185883]]]},"properties":{"h3_index":"898c107990fffff","kawasan":"Tanah Abang","tingkat_keyakinan":"RENDAH","n_titik_misi":0,"data_source":"predicted","zona_izin_komersial":true,"indeks_churn":null,"harga_sewa_median":null,"harga_sewa_per_m2":null,"belanja_per_jam":null,"njop_m2":null,"opportunity_score":69.3,"hidden_gem_score":null,"kuadran":"PEMENANG_JELAS"}},{"type":"Feature","id":"898c1079917ffff","geometry":{"type":"Polygon","coordinates":[[[106.822033,-6.191088],[106.821617,-6.189353],[106.819841,-6.188916],[106.818483,-6.190215],[106.818899,-6.19195],[106.820674,-6.192386],[106.822033,-6.191088]]]},"properties":{"h3_index":"898c1079917ffff","kawasan":"Tanah Abang","tingkat_keyakinan":"RENDAH","n_titik_misi":0,"data_source":"predicted","zona_izin_komersial":true,"indeks_churn":null,"harga_sewa_median":null,"harga_sewa_per_m2":null,"belanja_per_jam":null,"njop_m2":null,"opportunity_score":49.0,"hidden_gem_score":null,"kuadran":"PEMENANG_JELAS"}},{"type":"Feature","id":"898c107991bffff","geometry":{"type":"Polygon","coordinates":[[[106.82611,-6.187192],[106.825693,-6.185457],[106.823918,-6.185021],[106.822559,-6.186319],[106.822976,-6.188054],[106.824751,-6.188491],[106.82611,-6.187192]]]},"properties":{"h3_index":"898c107991bffff","kawasan":"Tanah Abang","tingkat_keyakinan":"RENDAH","n_titik_misi":0,"data_source":"predicted","zona_izin_komersial":true,"indeks_churn":null,"harga_sewa_median":null,"harga_sewa_per_m2":null,"belanja_per_jam":null,"njop_m2":null,"opportunity_score":65.8,"hidden_gem_score":null,"kuadran":"PEMENANG_JELAS"}},{"type":"Feature","id":"898c1079923ffff","geometry":{"type":"Polygon","coordinates":[[[106.814515,-6.187607],[106.814099,-6.185872],[106.812323,-6.185435],[106.810964,-6.186734],[106.811381,-6.188469],[106.813156,-6.188905],[106.814515,-6.187607]]]},"properties":{"h3_index":"898c1079923ffff","kawasan":"Tanah Abang","tingkat_keyakinan":"RENDAH","n_titik_misi":0,"data_source":"predicted","zona_izin_komersial":true,"indeks_churn":null,"harga_sewa_median":null,"harga_sewa_per_m2":null,"belanja_per_jam":null,"njop_m2":null,"opportunity_score":84.5,"hidden_gem_score":null,"kuadran":"PEMENANG_JELAS"}},{"type":"Feature","id":"898c1079927ffff","geometry":{"type":"Polygon","coordinates":[[[106.811381,-6.188469],[106.810964,-6.186734],[106.809189,-6.186297],[106.80783,-6.187596],[106.808247,-6.189331],[106.810022,-6.189767],[106.811381,-6.188469]]]},"properties":{"h3_index":"898c1079927ffff","kawasan":"Tanah Abang","tingkat_keyakinan":"RENDAH","n_titik_misi":0,"data_source":"predicted","zona_izin_komersial":true,"indeks_churn":null,"harga_sewa_median":null,"harga_sewa_per_m2":null,"belanja_per_jam":null,"njop_m2":null,"opportunity_score":81.8,"hidden_gem_score":null,"kuadran":"PEMENANG_JELAS"}},{"type":"Feature","id":"898c107992bffff","geometry":{"type":"Polygon","coordinates":[[[106.815458,-6.184573],[106.815041,-6.182838],[106.813266,-6.182402],[106.811907,-6.1837],[106.812323,-6.185435],[106.814099,-6.185872],[106.815458,-6.184573]]]},"properties":{"h3_index":"898c107992bffff","kawasan":"Tanah Abang","tingkat_keyakinan":"RENDAH","n_titik_misi":0,"data_source":"predicted","zona_izin_komersial":true,"indeks_churn":null,"harga_sewa_median":null,"harga_sewa_per_m2":null,"belanja_per_jam":null,"njop_m2":null,"opportunity_score":78.9,"hidden_gem_score":null,"kuadran":"PEMENANG_JELAS"}},{"type":"Feature","id":"898c107992fffff","geometry":{"type":"Polygon","coordinates":[[[106.812323,-6.185435],[106.811907,-6.1837],[106.810131,-6.183264],[106.808772,-6.184562],[106.809189,-6.186297],[106.810964,-6.186734],[106.812323,-6.185435]]]},"properties":{"h3_index":"898c107992fffff","kawasan":"Tanah Abang","tingkat_keyakinan":"RENDAH","n_titik_misi":1,"data_source":"observed","zona_izin_komersial":true,"indeks_churn":null,"harga_sewa_median":null,"harga_sewa_per_m2":null,"belanja_per_jam":null,"njop_m2":null,"opportunity_score":74.6,"hidden_gem_score":null,"kuadran":"PEMENANG_JELAS"}},{"type":"Feature","id":"898c1079933ffff","geometry":{"type":"Polygon","coordinates":[[[106.816707,-6.189779],[106.816291,-6.188043],[106.814515,-6.187607],[106.813156,-6.188905],[106.813573,-6.190641],[106.815348,-6.191077],[106.816707,-6.189779]]]},"properties":{"h3_index":"898c1079933ffff","kawasan":"Tanah Abang","tingkat_keyakinan":"RENDAH","n_titik_misi":0,"data_source":"predicted","zona_izin_komersial":true,"indeks_churn":null,"harga_sewa_median":null,"harga_sewa_per_m2":null,"belanja_per_jam":null,"njop_m2":null,"opportunity_score":74.3,"hidden_gem_score":null,"kuadran":"PEMENANG_JELAS"}},{"type":"Feature","id":"898c1079937ffff","geometry":{"type":"Polygon","coordinates":[[[106.813573,-6.190641],[106.813156,-6.188905],[106.811381,-6.188469],[106.810022,-6.189767],[106.810439,-6.191503],[106.812214,-6.191939],[106.813573,-6.190641]]]},"properties":{"h3_index":"898c1079937ffff","kawasan":"Tanah Abang","tingkat_keyakinan":"RENDAH","n_titik_misi":1,"data_source":"observed","zona_izin_komersial":true,"indeks_churn":null,"harga_sewa_median":null,"harga_sewa_per_m2":null,"belanja_per_jam":null,"njop_m2":null,"opportunity_score":46.1,"hidden_gem_score":null,"kuadran":"PEMENANG_JELAS"}},{"type":"Feature","id":"898c107993bffff","geometry":{"type":"Polygon","coordinates":[[[106.81765,-6.186745],[106.817233,-6.18501],[106.815458,-6.184573],[106.814099,-6.185872],[106.814515,-6.187607],[106.816291,-6.188043],[106.81765,-6.186745]]]},"properties":{"h3_index":"898c107993bffff","kawasan":"Tanah Abang","tingkat_keyakinan":"RENDAH","n_titik_misi":0,"data_source":"predicted","zona_izin_komersial":true,"indeks_churn":null,"harga_sewa_median":null,"harga_sewa_per_m2":null,"belanja_per_jam":null,"njop_m2":null,"opportunity_score":67.0,"hidden_gem_score":null,"kuadran":"PEMENANG_JELAS"}},{"type":"Feature","id":"898c1079943ffff","geometry":{"type":"Polygon","coordinates":[[[106.827994,-6.181125],[106.827578,-6.17939],[106.825803,-6.178954],[106.824444,-6.180252],[106.82486,-6.181987],[106.826636,-6.182424],[106.827994,-6.181125]]]},"properties":{"h3_index":"898c1079943ffff","kawasan":"Tanah Abang","tingkat_keyakinan":"RENDAH","n_titik_misi":0,"data_source":"predicted","zona_izin_komersial":null,"indeks_churn":null,"harga_sewa_median":null,"harga_sewa_per_m2":null,"belanja_per_jam":null,"njop_m2":null,"opportunity_score":46.9,"hidden_gem_score":null,"kuadran":"PEMENANG_JELAS"}},{"type":"Feature","id":"898c1079947ffff","geometry":{"type":"Polygon","coordinates":[[[106.82486,-6.181987],[106.824444,-6.180252],[106.822669,-6.179816],[106.82131,-6.181114],[106.821726,-6.182849],[106.823501,-6.183286],[106.82486,-6.181987]]]},"properties":{"h3_index":"898c1079947ffff","kawasan":"Tanah Abang","tingkat_keyakinan":"RENDAH","n_titik_misi":0,"data_source":"predicted","zona_izin_komersial":null,"indeks_churn":null,"harga_sewa_median":null,"harga_sewa_per_m2":null,"belanja_per_jam":null,"njop_m2":null,"opportunity_score":69.5,"hidden_gem_score":null,"kuadran":"PEMENANG_JELAS"}},{"type":"Feature","id":"898c107994bffff","geometry":{"type":"Polygon","coordinates":[[[106.828937,-6.178092],[106.82852,-6.176356],[106.826745,-6.17592],[106.825386,-6.177218],[106.825803,-6.178954],[106.827578,-6.17939],[106.828937,-6.178092]]]},"properties":{"h3_index":"898c107994bffff","kawasan":"Tanah Abang","tingkat_keyakinan":"RENDAH","n_titik_misi":0,"data_source":"predicted","zona_izin_komersial":false,"indeks_churn":null,"harga_sewa_median":null,"harga_sewa_per_m2":null,"belanja_per_jam":null,"njop_m2":null,"opportunity_score":0.0,"hidden_gem_score":null,"kuadran":"HINDARI"}},{"type":"Feature","id":"898c107994fffff","geometry":{"type":"Polygon","coordinates":[[[106.825803,-6.178954],[106.825386,-6.177218],[106.823611,-6.176782],[106.822252,-6.17808],[106.822669,-6.179816],[106.824444,-6.180252],[106.825803,-6.178954]]]},"properties":{"h3_index":"898c107994fffff","kawasan":"Tanah Abang","tingkat_keyakinan":"RENDAH","n_titik_misi":0,"data_source":"predicted","zona_izin_komersial":null,"indeks_churn":null,"harga_sewa_median":null,"harga_sewa_per_m2":null,"belanja_per_jam":null,"njop_m2":null,"opportunity_score":64.9,"hidden_gem_score":null,"kuadran":"HIDDEN_GEM"}},{"type":"Feature","id":"898c1079953ffff","geometry":{"type":"Polygon","coordinates":[[[106.830186,-6.183297],[106.82977,-6.181562],[106.827994,-6.181125],[106.826636,-6.182424],[106.827052,-6.184159],[106.828827,-6.184595],[106.830186,-6.183297]]]},"properties":{"h3_index":"898c1079953ffff","kawasan":"Tanah Abang","tingkat_keyakinan":"RENDAH","n_titik_misi":0,"data_source":"predicted","zona_izin_komersial":true,"indeks_churn":null,"harga_sewa_median":null,"harga_sewa_per_m2":null,"belanja_per_jam":null,"njop_m2":null,"opportunity_score":65.2,"hidden_gem_score":null,"kuadran":"PEMENANG_JELAS"}},{"type":"Feature","id":"898c1079957ffff","geometry":{"type":"Polygon","coordinates":[[[106.827052,-6.184159],[106.826636,-6.182424],[106.82486,-6.181987],[106.823501,-6.183286],[106.823918,-6.185021],[106.825693,-6.185457],[106.827052,-6.184159]]]},"properties":{"h3_index":"898c1079957ffff","kawasan":"Tanah Abang","tingkat_keyakinan":"RENDAH","n_titik_misi":2,"data_source":"observed","zona_izin_komersial":true,"indeks_churn":null,"harga_sewa_median":null,"harga_sewa_per_m2":null,"belanja_per_jam":null,"njop_m2":null,"opportunity_score":81.2,"hidden_gem_score":0.714074255816301,"kuadran":"HIDDEN_GEM"}},{"type":"Feature","id":"898c107995bffff","geometry":{"type":"Polygon","coordinates":[[[106.831129,-6.180263],[106.830712,-6.178528],[106.828937,-6.178092],[106.827578,-6.17939],[106.827994,-6.181125],[106.82977,-6.181562],[106.831129,-6.180263]]]},"properties":{"h3_index":"898c107995bffff","kawasan":"Tanah Abang","tingkat_keyakinan":"RENDAH","n_titik_misi":0,"data_source":"predicted","zona_izin_komersial":null,"indeks_churn":null,"harga_sewa_median":null,"harga_sewa_per_m2":null,"belanja_per_jam":null,"njop_m2":null,"opportunity_score":80.2,"hidden_gem_score":null,"kuadran":"HIDDEN_GEM"}},{"type":"Feature","id":"898c1079963ffff","geometry":{"type":"Polygon","coordinates":[[[106.819534,-6.180678],[106.819118,-6.178942],[106.817342,-6.178506],[106.815984,-6.179804],[106.8164,-6.18154],[106.818175,-6.181976],[106.819534,-6.180678]]]},"properties":{"h3_index":"898c1079963ffff","kawasan":"Tanah Abang","tingkat_keyakinan":"RENDAH","n_titik_misi":0,"data_source":"predicted","zona_izin_komersial":true,"indeks_churn":null,"harga_sewa_median":null,"harga_sewa_per_m2":null,"belanja_per_jam":null,"njop_m2":null,"opportunity_score":65.7,"hidden_gem_score":null,"kuadran":"PEMENANG_JELAS"}},{"type":"Feature","id":"898c1079967ffff","geometry":{"type":"Polygon","coordinates":[[[106.8164,-6.18154],[106.815984,-6.179804],[106.814208,-6.179368],[106.812849,-6.180666],[106.813266,-6.182402],[106.815041,-6.182838],[106.8164,-6.18154]]]},"properties":{"h3_index":"898c1079967ffff","kawasan":"Tanah Abang","tingkat_keyakinan":"RENDAH","n_titik_misi":0,"data_source":"predicted","zona_izin_komersial":true,"indeks_churn":null,"harga_sewa_median":null,"harga_sewa_per_m2":null,"belanja_per_jam":null,"njop_m2":null,"opportunity_score":87.7,"hidden_gem_score":null,"kuadran":"HIDDEN_GEM"}},{"type":"Feature","id":"898c107996bffff","geometry":{"type":"Polygon","coordinates":[[[106.820477,-6.177644],[106.82006,-6.175909],[106.818285,-6.175472],[106.816926,-6.176771],[106.817342,-6.178506],[106.819118,-6.178942],[106.820477,-6.177644]]]},"properties":{"h3_index":"898c107996bffff","kawasan":"Tanah Abang","tingkat_keyakinan":"RENDAH","n_titik_misi":0,"data_source":"predicted","zona_izin_komersial":true,"indeks_churn":null,"harga_sewa_median":null,"harga_sewa_per_m2":null,"belanja_per_jam":null,"njop_m2":null,"opportunity_score":65.9,"hidden_gem_score":null,"kuadran":"PEMENANG_JELAS"}},{"type":"Feature","id":"898c107996fffff","geometry":{"type":"Polygon","coordinates":[[[106.817342,-6.178506],[106.816926,-6.176771],[106.81515,-6.176334],[106.813792,-6.177633],[106.814208,-6.179368],[106.815984,-6.179804],[106.817342,-6.178506]]]},"properties":{"h3_index":"898c107996fffff","kawasan":"Tanah Abang","tingkat_keyakinan":"RENDAH","n_titik_misi":0,"data_source":"predicted","zona_izin_komersial":true,"indeks_churn":null,"harga_sewa_median":null,"harga_sewa_per_m2":null,"belanja_per_jam":null,"njop_m2":null,"opportunity_score":64.6,"hidden_gem_score":null,"kuadran":"PEMENANG_JELAS"}},{"type":"Feature","id":"898c1079973ffff","geometry":{"type":"Polygon","coordinates":[[[106.821726,-6.182849],[106.82131,-6.181114],[106.819534,-6.180678],[106.818175,-6.181976],[106.818592,-6.183711],[106.820367,-6.184148],[106.821726,-6.182849]]]},"properties":{"h3_index":"898c1079973ffff","kawasan":"Tanah Abang","tingkat_keyakinan":"RENDAH","n_titik_misi":0,"data_source":"predicted","zona_izin_komersial":true,"indeks_churn":null,"harga_sewa_median":null,"harga_sewa_per_m2":null,"belanja_per_jam":null,"njop_m2":null,"opportunity_score":70.6,"hidden_gem_score":0.558971072092554,"kuadran":"HIDDEN_GEM"}},{"type":"Feature","id":"898c1079977ffff","geometry":{"type":"Polygon","coordinates":[[[106.818592,-6.183711],[106.818175,-6.181976],[106.8164,-6.18154],[106.815041,-6.182838],[106.815458,-6.184573],[106.817233,-6.18501],[106.818592,-6.183711]]]},"properties":{"h3_index":"898c1079977ffff","kawasan":"Tanah Abang","tingkat_keyakinan":"RENDAH","n_titik_misi":0,"data_source":"predicted","zona_izin_komersial":true,"indeks_churn":null,"harga_sewa_median":null,"harga_sewa_per_m2":null,"belanja_per_jam":null,"njop_m2":null,"opportunity_score":49.1,"hidden_gem_score":null,"kuadran":"PEMENANG_JELAS"}},{"type":"Feature","id":"898c107997bffff","geometry":{"type":"Polygon","coordinates":[[[106.822669,-6.179816],[106.822252,-6.17808],[106.820477,-6.177644],[106.819118,-6.178942],[106.819534,-6.180678],[106.82131,-6.181114],[106.822669,-6.179816]]]},"properties":{"h3_index":"898c107997bffff","kawasan":"Tanah Abang","tingkat_keyakinan":"RENDAH","n_titik_misi":0,"data_source":"predicted","zona_izin_komersial":null,"indeks_churn":null,"harga_sewa_median":null,"harga_sewa_per_m2":null,"belanja_per_jam":null,"njop_m2":null,"opportunity_score":70.6,"hidden_gem_score":null,"kuadran":"PEMENANG_JELAS"}},{"type":"Feature","id":"898c10799a7ffff","geometry":{"type":"Polygon","coordinates":[[[106.814822,-6.195845],[106.814406,-6.19411],[106.812631,-6.193674],[106.811272,-6.194972],[106.811688,-6.196707],[106.813464,-6.197144],[106.814822,-6.195845]]]},"properties":{"h3_index":"898c10799a7ffff","kawasan":"Tanah Abang","tingkat_keyakinan":"RENDAH","n_titik_misi":1,"data_source":"observed","zona_izin_komersial":true,"indeks_churn":null,"harga_sewa_median":null,"harga_sewa_per_m2":null,"belanja_per_jam":null,"njop_m2":null,"opportunity_score":56.6,"hidden_gem_score":0.520590135409526,"kuadran":"HIDDEN_GEM"}},{"type":"Feature","id":"898c10799abffff","geometry":{"type":"Polygon","coordinates":[[[106.818899,-6.19195],[106.818483,-6.190215],[106.816707,-6.189779],[106.815348,-6.191077],[106.815765,-6.192812],[106.81754,-6.193248],[106.818899,-6.19195]]]},"properties":{"h3_index":"898c10799abffff","kawasan":"Tanah Abang","tingkat_keyakinan":"RENDAH","n_titik_misi":0,"data_source":"predicted","zona_izin_komersial":true,"indeks_churn":null,"harga_sewa_median":null,"harga_sewa_per_m2":null,"belanja_per_jam":null,"njop_m2":null,"opportunity_score":53.2,"hidden_gem_score":null,"kuadran":"PEMENANG_JELAS"}},{"type":"Feature","id":"898c10799afffff","geometry":{"type":"Polygon","coordinates":[[[106.815765,-6.192812],[106.815348,-6.191077],[106.813573,-6.190641],[106.812214,-6.191939],[106.812631,-6.193674],[106.814406,-6.19411],[106.815765,-6.192812]]]},"properties":{"h3_index":"898c10799afffff","kawasan":"Tanah Abang","tingkat_keyakinan":"RENDAH","n_titik_misi":0,"data_source":"predicted","zona_izin_komersial":true,"indeks_churn":null,"harga_sewa_median":null,"harga_sewa_per_m2":null,"belanja_per_jam":null,"njop_m2":null,"opportunity_score":72.8,"hidden_gem_score":null,"kuadran":"PEMENANG_JELAS"}},{"type":"Feature","id":"898c1079b27ffff","geometry":{"type":"Polygon","coordinates":[[[106.817978,-6.167232],[106.817561,-6.165497],[106.815786,-6.16506],[106.814427,-6.166359],[106.814843,-6.168094],[106.816619,-6.168531],[106.817978,-6.167232]]]},"properties":{"h3_index":"898c1079b27ffff","kawasan":"Tanah Abang","tingkat_keyakinan":"RENDAH","n_titik_misi":0,"data_source":"predicted","zona_izin_komersial":true,"indeks_churn":null,"harga_sewa_median":null,"harga_sewa_per_m2":null,"belanja_per_jam":null,"njop_m2":null,"opportunity_score":30.6,"hidden_gem_score":null,"kuadran":"JEBAKAN_GENGSI"}},{"type":"Feature","id":"898c1079b37ffff","geometry":{"type":"Polygon","coordinates":[[[106.82017,-6.169404],[106.819753,-6.167669],[106.817978,-6.167232],[106.816619,-6.168531],[106.817035,-6.170266],[106.818811,-6.170703],[106.82017,-6.169404]]]},"properties":{"h3_index":"898c1079b37ffff","kawasan":"Tanah Abang","tingkat_keyakinan":"RENDAH","n_titik_misi":0,"data_source":"predicted","zona_izin_komersial":true,"indeks_churn":null,"harga_sewa_median":null,"harga_sewa_per_m2":null,"belanja_per_jam":null,"njop_m2":null,"opportunity_score":55.4,"hidden_gem_score":null,"kuadran":"PEMENANG_JELAS"}},{"type":"Feature","id":"898c1079ba3ffff","geometry":{"type":"Polygon","coordinates":[[[106.824553,-6.173748],[106.824137,-6.172013],[106.822362,-6.171576],[106.821003,-6.172875],[106.821419,-6.17461],[106.823194,-6.175047],[106.824553,-6.173748]]]},"properties":{"h3_index":"898c1079ba3ffff","kawasan":"Tanah Abang","tingkat_keyakinan":"RENDAH","n_titik_misi":0,"data_source":"predicted","zona_izin_komersial":true,"indeks_churn":null,"harga_sewa_median":null,"harga_sewa_per_m2":null,"belanja_per_jam":null,"njop_m2":null,"opportunity_score":58.9,"hidden_gem_score":null,"kuadran":"PEMENANG_JELAS"}},{"type":"Feature","id":"898c1079ba7ffff","geometry":{"type":"Polygon","coordinates":[[[106.821419,-6.17461],[106.821003,-6.172875],[106.819227,-6.172438],[106.817868,-6.173737],[106.818285,-6.175472],[106.82006,-6.175909],[106.821419,-6.17461]]]},"properties":{"h3_index":"898c1079ba7ffff","kawasan":"Tanah Abang","tingkat_keyakinan":"RENDAH","n_titik_misi":0,"data_source":"predicted","zona_izin_komersial":true,"indeks_churn":null,"harga_sewa_median":null,"harga_sewa_per_m2":null,"belanja_per_jam":null,"njop_m2":null,"opportunity_score":58.9,"hidden_gem_score":null,"kuadran":"PEMENANG_JELAS"}},{"type":"Feature","id":"898c1079bafffff","geometry":{"type":"Polygon","coordinates":[[[106.822362,-6.171576],[106.821945,-6.169841],[106.82017,-6.169404],[106.818811,-6.170703],[106.819227,-6.172438],[106.821003,-6.172875],[106.822362,-6.171576]]]},"properties":{"h3_index":"898c1079bafffff","kawasan":"Tanah Abang","tingkat_keyakinan":"RENDAH","n_titik_misi":0,"data_source":"predicted","zona_izin_komersial":true,"indeks_churn":null,"harga_sewa_median":null,"harga_sewa_per_m2":null,"belanja_per_jam":null,"njop_m2":null,"opportunity_score":59.6,"hidden_gem_score":null,"kuadran":"PEMENANG_JELAS"}},{"type":"Feature","id":"898c1079bb3ffff","geometry":{"type":"Polygon","coordinates":[[[106.826745,-6.17592],[106.826329,-6.174185],[106.824553,-6.173748],[106.823194,-6.175047],[106.823611,-6.176782],[106.825386,-6.177218],[106.826745,-6.17592]]]},"properties":{"h3_index":"898c1079bb3ffff","kawasan":"Tanah Abang","tingkat_keyakinan":"RENDAH","n_titik_misi":0,"data_source":"predicted","zona_izin_komersial":false,"indeks_churn":null,"harga_sewa_median":null,"harga_sewa_per_m2":null,"belanja_per_jam":null,"njop_m2":null,"opportunity_score":0.0,"hidden_gem_score":null,"kuadran":"HINDARI"}},{"type":"Feature","id":"898c1079bb7ffff","geometry":{"type":"Polygon","coordinates":[[[106.823611,-6.176782],[106.823194,-6.175047],[106.821419,-6.17461],[106.82006,-6.175909],[106.820477,-6.177644],[106.822252,-6.17808],[106.823611,-6.176782]]]},"properties":{"h3_index":"898c1079bb7ffff","kawasan":"Tanah Abang","tingkat_keyakinan":"RENDAH","n_titik_misi":0,"data_source":"predicted","zona_izin_komersial":null,"indeks_churn":null,"harga_sewa_median":null,"harga_sewa_per_m2":null,"belanja_per_jam":null,"njop_m2":null,"opportunity_score":57.2,"hidden_gem_score":null,"kuadran":"PEMENANG_JELAS"}}]}