{"type":"FeatureCollection","features":[{"type":"Feature","id":"898c104c5a7ffff","geometry":{"type":"Polygon","coordinates":[[[107.00769,-6.220384],[107.007275,-6.218651],[107.005502,-6.218216],[107.004145,-6.219514],[107.004559,-6.221247],[107.006332,-6.221682],[107.00769,-6.220384]]]},"properties":{"h3_index":"898c104c5a7ffff","kawasan":"Bekasi","tingkat_keyakinan":"RENDAH","n_titik_misi":0,"data_source":"predicted","zona_izin_komersial":null,"indeks_churn":null,"harga_sewa_median":null,"harga_sewa_per_m2":null,"belanja_per_jam":null,"njop_m2":null,"opportunity_score":31.5,"hidden_gem_score":null,"kuadran":"JEBAKAN_GENGSI"}},{"type":"Feature","id":"898c104c5b7ffff","geometry":{"type":"Polygon","coordinates":[[[107.009877,-6.222552],[107.009463,-6.220819],[107.00769,-6.220384],[107.006332,-6.221682],[107.006747,-6.223415],[107.00852,-6.22385],[107.009877,-6.222552]]]},"properties":{"h3_index":"898c104c5b7ffff","kawasan":"Bekasi","tingkat_keyakinan":"RENDAH","n_titik_misi":0,"data_source":"predicted","zona_izin_komersial":null,"indeks_churn":null,"harga_sewa_median":null,"harga_sewa_per_m2":null,"belanja_per_jam":null,"njop_m2":null,"opportunity_score":33.4,"hidden_gem_score":null,"kuadran":"JEBAKAN_GENGSI"}},{"type":"Feature","id":"898c104e127ffff","geometry":{"type":"Polygon","coordinates":[[[107.012969,-6.249407],[107.012555,-6.247675],[107.010782,-6.24724],[107.009425,-6.248538],[107.009839,-6.25027],[107.011612,-6.250705],[107.012969,-6.249407]]]},"properties":{"h3_index":"898c104e127ffff","kawasan":"Bekasi","tingkat_keyakinan":"RENDAH","n_titik_misi":0,"data_source":"predicted","zona_izin_komersial":null,"indeks_churn":null,"harga_sewa_median":null,"harga_sewa_per_m2":null,"belanja_per_jam":null,"njop_m2":null,"opportunity_score":36.8,"hidden_gem_score":null,"kuadran":"JEBAKAN_GENGSI"}},{"type":"Feature","id":"898c104e12fffff","geometry":{"type":"Polygon","coordinates":[[[107.013912,-6.246377],[107.013497,-6.244645],[107.011725,-6.24421],[107.010367,-6.245507],[107.010782,-6.24724],[107.012555,-6.247675],[107.013912,-6.246377]]]},"properties":{"h3_index":"898c104e12fffff","kawasan":"Bekasi","tingkat_keyakinan":"RENDAH","n_titik_misi":0,"data_source":"predicted","zona_izin_komersial":null,"indeks_churn":null,"harga_sewa_median":null,"harga_sewa_per_m2":null,"belanja_per_jam":null,"njop_m2":null,"opportunity_score":36.9,"hidden_gem_score":null,"kuadran":"HINDARI"}},{"type":"Feature","id":"898c104e803ffff","geometry":{"type":"Polygon","coordinates":[[[106.987323,-6.239851],[106.986908,-6.238119],[106.985135,-6.237683],[106.983778,-6.238981],[106.984193,-6.240714],[106.985966,-6.241149],[106.987323,-6.239851]]]},"properties":{"h3_index":"898c104e803ffff","kawasan":"Bekasi","tingkat_keyakinan":"RENDAH","n_titik_misi":0,"data_source":"predicted","zona_izin_komersial":null,"indeks_churn":null,"harga_sewa_median":null,"harga_sewa_per_m2":null,"belanja_per_jam":null,"njop_m2":null,"opportunity_score":40.1,"hidden_gem_score":null,"kuadran":"HINDARI"}},{"type":"Feature","id":"898c104e807ffff","geometry":{"type":"Polygon","coordinates":[[[106.984193,-6.240714],[106.983778,-6.238981],[106.982005,-6.238546],[106.980647,-6.239844],[106.981062,-6.241577],[106.982835,-6.242012],[106.984193,-6.240714]]]},"properties":{"h3_index":"898c104e807ffff","kawasan":"Bekasi","tingkat_keyakinan":"RENDAH","n_titik_misi":0,"data_source":"predicted","zona_izin_komersial":null,"indeks_churn":null,"harga_sewa_median":null,"harga_sewa_per_m2":null,"belanja_per_jam":null,"njop_m2":null,"opportunity_score":38.1,"hidden_gem_score":null,"kuadran":"HINDARI"}},{"type":"Feature","id":"898c104e80bffff","geometry":{"type":"Polygon","coordinates":[[[106.988266,-6.236821],[106.987851,-6.235088],[106.986078,-6.234653],[106.98472,-6.23595],[106.985135,-6.237683],[106.986908,-6.238119],[106.988266,-6.236821]]]},"properties":{"h3_index":"898c104e80bffff","kawasan":"Bekasi","tingkat_keyakinan":"RENDAH","n_titik_misi":0,"data_source":"predicted","zona_izin_komersial":null,"indeks_churn":null,"harga_sewa_median":null,"harga_sewa_per_m2":null,"belanja_per_jam":null,"njop_m2":null,"opportunity_score":42.1,"hidden_gem_score":null,"kuadran":"HINDARI"}},{"type":"Feature","id":"898c104e80fffff","geometry":{"type":"Polygon","coordinates":[[[106.985135,-6.237683],[106.98472,-6.23595],[106.982948,-6.235515],[106.98159,-6.236813],[106.982005,-6.238546],[106.983778,-6.238981],[106.985135,-6.237683]]]},"properties":{"h3_index":"898c104e80fffff","kawasan":"Bekasi","tingkat_keyakinan":"RENDAH","n_titik_misi":0,"data_source":"predicted","zona_izin_komersial":null,"indeks_churn":null,"harga_sewa_median":null,"harga_sewa_per_m2":null,"belanja_per_jam":null,"njop_m2":null,"opportunity_score":40.3,"hidden_gem_score":null,"kuadran":"JEBAKAN_GENGSI"}},{"type":"Feature","id":"898c104e813ffff","geometry":{"type":"Polygon","coordinates":[[[106.989511,-6.242019],[106.989096,-6.240287],[106.987323,-6.239851],[106.985966,-6.241149],[106.986381,-6.242882],[106.988153,-6.243317],[106.989511,-6.242019]]]},"properties":{"h3_index":"898c104e813ffff","kawasan":"Bekasi","tingkat_keyakinan":"RENDAH","n_titik_misi":0,"data_source":"predicted","zona_izin_komersial":null,"indeks_churn":null,"harga_sewa_median":null,"harga_sewa_per_m2":null,"belanja_per_jam":null,"njop_m2":null,"opportunity_score":39.8,"hidden_gem_score":null,"kuadran":"HINDARI"}},{"type":"Feature","id":"898c104e817ffff","geometry":{"type":"Polygon","coordinates":[[[106.986381,-6.242882],[106.985966,-6.241149],[106.984193,-6.240714],[106.982835,-6.242012],[106.98325,-6.243745],[106.985023,-6.24418],[106.986381,-6.242882]]]},"properties":{"h3_index":"898c104e817ffff","kawasan":"Bekasi","tingkat_keyakinan":"RENDAH","n_titik_misi":0,"data_source":"predicted","zona_izin_komersial":null,"indeks_churn":null,"harga_sewa_median":null,"harga_sewa_per_m2":null,"belanja_per_jam":null,"njop_m2":null,"opportunity_score":40.4,"hidden_gem_score":null,"kuadran":"HINDARI"}},{"type":"Feature","id":"898c104e81bffff","geometry":{"type":"Polygon","coordinates":[[[106.990454,-6.238989],[106.990039,-6.237256],[106.988266,-6.236821],[106.986908,-6.238119],[106.987323,-6.239851],[106.989096,-6.240287],[106.990454,-6.238989]]]},"properties":{"h3_index":"898c104e81bffff","kawasan":"Bekasi","tingkat_keyakinan":"RENDAH","n_titik_misi":0,"data_source":"predicted","zona_izin_komersial":null,"indeks_churn":null,"harga_sewa_median":null,"harga_sewa_per_m2":null,"belanja_per_jam":null,"njop_m2":null,"opportunity_score":42.2,"hidden_gem_score":null,"kuadran":"HINDARI"}},{"type":"Feature","id":"898c104e833ffff","geometry":{"type":"Polygon","coordinates":[[[106.981062,-6.241577],[106.980647,-6.239844],[106.978874,-6.239409],[106.977516,-6.240706],[106.977931,-6.242439],[106.979704,-6.242874],[106.981062,-6.241577]]]},"properties":{"h3_index":"898c104e833ffff","kawasan":"Bekasi","tingkat_keyakinan":"RENDAH","n_titik_misi":0,"data_source":"predicted","zona_izin_komersial":null,"indeks_churn":null,"harga_sewa_median":null,"harga_sewa_per_m2":null,"belanja_per_jam":null,"njop_m2":null,"opportunity_score":36.8,"hidden_gem_score":null,"kuadran":"HINDARI"}},{"type":"Feature","id":"898c104e83bffff","geometry":{"type":"Polygon","coordinates":[[[106.982005,-6.238546],[106.98159,-6.236813],[106.979817,-6.236378],[106.978459,-6.237676],[106.978874,-6.239409],[106.980647,-6.239844],[106.982005,-6.238546]]]},"properties":{"h3_index":"898c104e83bffff","kawasan":"Bekasi","tingkat_keyakinan":"RENDAH","n_titik_misi":0,"data_source":"predicted","zona_izin_komersial":null,"indeks_churn":null,"harga_sewa_median":null,"harga_sewa_per_m2":null,"belanja_per_jam":null,"njop_m2":null,"opportunity_score":37.8,"hidden_gem_score":null,"kuadran":"HINDARI"}},{"type":"Feature","id":"898c104e843ffff","geometry":{"type":"Polygon","coordinates":[[[106.992339,-6.232927],[106.991924,-6.231194],[106.990152,-6.230759],[106.988794,-6.232057],[106.989209,-6.23379],[106.990982,-6.234225],[106.992339,-6.232927]]]},"properties":{"h3_index":"898c104e843ffff","kawasan":"Bekasi","tingkat_keyakinan":"RENDAH","n_titik_misi":0,"data_source":"predicted","zona_izin_komersial":null,"indeks_churn":null,"harga_sewa_median":null,"harga_sewa_per_m2":null,"belanja_per_jam":null,"njop_m2":null,"opportunity_score":45.5,"hidden_gem_score":null,"kuadran":"HIDDEN_GEM"}},{"type":"Feature","id":"898c104e847ffff","geometry":{"type":"Polygon","coordinates":[[[106.989209,-6.23379],[106.988794,-6.232057],[106.987021,-6.231622],[106.985663,-6.23292],[106.986078,-6.234653],[106.987851,-6.235088],[106.989209,-6.23379]]]},"properties":{"h3_index":"898c104e847ffff","kawasan":"Bekasi","tingkat_keyakinan":"RENDAH","n_titik_misi":0,"data_source":"predicted","zona_izin_komersial":null,"indeks_churn":null,"harga_sewa_median":null,"harga_sewa_per_m2":null,"belanja_per_jam":null,"njop_m2":null,"opportunity_score":43.2,"hidden_gem_score":null,"kuadran":"HINDARI"}},{"type":"Feature","id":"898c104e84bffff","geometry":{"type":"Polygon","coordinates":[[[106.993282,-6.229897],[106.992867,-6.228163],[106.991094,-6.227728],[106.989737,-6.229026],[106.990152,-6.230759],[106.991924,-6.231194],[106.993282,-6.229897]]]},"properties":{"h3_index":"898c104e84bffff","kawasan":"Bekasi","tingkat_keyakinan":"RENDAH","n_titik_misi":0,"data_source":"predicted","zona_izin_komersial":null,"indeks_churn":null,"harga_sewa_median":null,"harga_sewa_per_m2":null,"belanja_per_jam":null,"njop_m2":null,"opportunity_score":36.0,"hidden_gem_score":null,"kuadran":"HINDARI"}},{"type":"Feature","id":"898c104e84fffff","geometry":{"type":"Polygon","coordinates":[[[106.990152,-6.230759],[106.989737,-6.229026],[106.987964,-6.228591],[106.986606,-6.229889],[106.987021,-6.231622],[106.988794,-6.232057],[106.990152,-6.230759]]]},"properties":{"h3_index":"898c104e84fffff","kawasan":"Bekasi","tingkat_keyakinan":"RENDAH","n_titik_misi":0,"data_source":"predicted","zona_izin_komersial":null,"indeks_churn":null,"harga_sewa_median":null,"harga_sewa_per_m2":null,"belanja_per_jam":null,"njop_m2":null,"opportunity_score":41.4,"hidden_gem_score":null,"kuadran":"JEBAKAN_GENGSI"}},{"type":"Feature","id":"898c104e853ffff","geometry":{"type":"Polygon","coordinates":[[[106.994527,-6.235096],[106.994112,-6.233363],[106.992339,-6.232927],[106.990982,-6.234225],[106.991397,-6.235958],[106.993169,-6.236393],[106.994527,-6.235096]]]},"properties":{"h3_index":"898c104e853ffff","kawasan":"Bekasi","tingkat_keyakinan":"RENDAH","n_titik_misi":0,"data_source":"predicted","zona_izin_komersial":null,"indeks_churn":null,"harga_sewa_median":null,"harga_sewa_per_m2":null,"belanja_per_jam":null,"njop_m2":null,"opportunity_score":47.9,"hidden_gem_score":null,"kuadran":"HIDDEN_GEM"}},{"type":"Feature","id":"898c104e857ffff","geometry":{"type":"Polygon","coordinates":[[[106.991397,-6.235958],[106.990982,-6.234225],[106.989209,-6.23379],[106.987851,-6.235088],[106.988266,-6.236821],[106.990039,-6.237256],[106.991397,-6.235958]]]},"properties":{"h3_index":"898c104e857ffff","kawasan":"Bekasi","tingkat_keyakinan":"RENDAH","n_titik_misi":0,"data_source":"predicted","zona_izin_komersial":null,"indeks_churn":null,"harga_sewa_median":null,"harga_sewa_per_m2":null,"belanja_per_jam":null,"njop_m2":null,"opportunity_score":44.0,"hidden_gem_score":null,"kuadran":"JEBAKAN_GENGSI"}},{"type":"Feature","id":"898c104e85bffff","geometry":{"type":"Polygon","coordinates":[[[106.99547,-6.232065],[106.995055,-6.230332],[106.993282,-6.229897],[106.991924,-6.231194],[106.992339,-6.232927],[106.994112,-6.233363],[106.99547,-6.232065]]]},"properties":{"h3_index":"898c104e85bffff","kawasan":"Bekasi","tingkat_keyakinan":"RENDAH","n_titik_misi":0,"data_source":"predicted","zona_izin_komersial":null,"indeks_churn":null,"harga_sewa_median":null,"harga_sewa_per_m2":null,"belanja_per_jam":null,"njop_m2":null,"opportunity_score":41.8,"hidden_gem_score":null,"kuadran":"JEBAKAN_GENGSI"}},{"type":"Feature","id":"898c104e863ffff","geometry":{"type":"Polygon","coordinates":[[[106.98389,-6.232484],[106.983475,-6.230751],[106.981702,-6.230316],[106.980345,-6.231614],[106.98076,-6.233347],[106.982533,-6.233782],[106.98389,-6.232484]]]},"properties":{"h3_index":"898c104e863ffff","kawasan":"Bekasi","tingkat_keyakinan":"RENDAH","n_titik_misi":0,"data_source":"predicted","zona_izin_komersial":null,"indeks_churn":null,"harga_sewa_median":null,"harga_sewa_per_m2":null,"belanja_per_jam":null,"njop_m2":null,"opportunity_score":39.5,"hidden_gem_score":null,"kuadran":"HINDARI"}},{"type":"Feature","id":"898c104e86bffff","geometry":{"type":"Polygon","coordinates":[[[106.984833,-6.229453],[106.984418,-6.22772],[106.982645,-6.227285],[106.981287,-6.228583],[106.981702,-6.230316],[106.983475,-6.230751],[106.984833,-6.229453]]]},"properties":{"h3_index":"898c104e86bffff","kawasan":"Bekasi","tingkat_keyakinan":"RENDAH","n_titik_misi":0,"data_source":"predicted","zona_izin_komersial":null,"indeks_churn":null,"harga_sewa_median":null,"harga_sewa_per_m2":null,"belanja_per_jam":null,"njop_m2":null,"opportunity_score":38.8,"hidden_gem_score":null,"kuadran":"JEBAKAN_GENGSI"}},{"type":"Feature","id":"898c104e873ffff","geometry":{"type":"Polygon","coordinates":[[[106.986078,-6.234653],[106.985663,-6.23292],[106.98389,-6.232484],[106.982533,-6.233782],[106.982948,-6.235515],[106.98472,-6.23595],[106.986078,-6.234653]]]},"properties":{"h3_index":"898c104e873ffff","kawasan":"Bekasi","tingkat_keyakinan":"RENDAH","n_titik_misi":0,"data_source":"predicted","zona_izin_komersial":null,"indeks_churn":null,"harga_sewa_median":null,"harga_sewa_per_m2":null,"belanja_per_jam":null,"njop_m2":null,"opportunity_score":41.3,"hidden_gem_score":null,"kuadran":"HINDARI"}},{"type":"Feature","id":"898c104e877ffff","geometry":{"type":"Polygon","coordinates":[[[106.982948,-6.235515],[106.982533,-6.233782],[106.98076,-6.233347],[106.979402,-6.234645],[106.979817,-6.236378],[106.98159,-6.236813],[106.982948,-6.235515]]]},"properties":{"h3_index":"898c104e877ffff","kawasan":"Bekasi","tingkat_keyakinan":"RENDAH","n_titik_misi":0,"data_source":"predicted","zona_izin_komersial":null,"indeks_churn":null,"harga_sewa_median":null,"harga_sewa_per_m2":null,"belanja_per_jam":null,"njop_m2":null,"opportunity_score":41.4,"hidden_gem_score":null,"kuadran":"HINDARI"}},{"type":"Feature","id":"898c104e87bffff","geometry":{"type":"Polygon","coordinates":[[[106.987021,-6.231622],[106.986606,-6.229889],[106.984833,-6.229453],[106.983475,-6.230751],[106.98389,-6.232484],[106.985663,-6.23292],[106.987021,-6.231622]]]},"properties":{"h3_index":"898c104e87bffff","kawasan":"Bekasi","tingkat_keyakinan":"RENDAH","n_titik_misi":0,"data_source":"predicted","zona_izin_komersial":null,"indeks_churn":null,"harga_sewa_median":null,"harga_sewa_per_m2":null,"belanja_per_jam":null,"njop_m2":null,"opportunity_score":40.8,"hidden_gem_score":null,"kuadran":"HINDARI"}},{"type":"Feature","id":"898c104e883ffff","geometry":{"type":"Polygon","coordinates":[[[106.990756,-6.247218],[106.990341,-6.245485],[106.988568,-6.24505],[106.987211,-6.246348],[106.987626,-6.248081],[106.989398,-6.248516],[106.990756,-6.247218]]]},"properties":{"h3_index":"898c104e883ffff","kawasan":"Bekasi","tingkat_keyakinan":"RENDAH","n_titik_misi":0,"data_source":"predicted","zona_izin_komersial":null,"indeks_churn":null,"harga_sewa_median":null,"harga_sewa_per_m2":null,"belanja_per_jam":null,"njop_m2":null,"opportunity_score":44.0,"hidden_gem_score":null,"kuadran":"HINDARI"}},{"type":"Feature","id":"898c104e887ffff","geometry":{"type":"Polygon","coordinates":[[[106.987626,-6.248081],[106.987211,-6.246348],[106.985438,-6.245913],[106.98408,-6.24721],[106.984495,-6.248943],[106.986268,-6.249378],[106.987626,-6.248081]]]},"properties":{"h3_index":"898c104e887ffff","kawasan":"Bekasi","tingkat_keyakinan":"RENDAH","n_titik_misi":0,"data_source":"predicted","zona_izin_komersial":null,"indeks_churn":null,"harga_sewa_median":null,"harga_sewa_per_m2":null,"belanja_per_jam":null,"njop_m2":null,"opportunity_score":40.0,"hidden_gem_score":null,"kuadran":"HINDARI"}},{"type":"Feature","id":"898c104e88bffff","geometry":{"type":"Polygon","coordinates":[[[106.991699,-6.244187],[106.991284,-6.242455],[106.989511,-6.242019],[106.988153,-6.243317],[106.988568,-6.24505],[106.990341,-6.245485],[106.991699,-6.244187]]]},"properties":{"h3_index":"898c104e88bffff","kawasan":"Bekasi","tingkat_keyakinan":"RENDAH","n_titik_misi":0,"data_source":"predicted","zona_izin_komersial":null,"indeks_churn":null,"harga_sewa_median":null,"harga_sewa_per_m2":null,"belanja_per_jam":null,"njop_m2":null,"opportunity_score":45.0,"hidden_gem_score":null,"kuadran":"HIDDEN_GEM"}},{"type":"Feature","id":"898c104e893ffff","geometry":{"type":"Polygon","coordinates":[[[106.992944,-6.249386],[106.992529,-6.247653],[106.990756,-6.247218],[106.989398,-6.248516],[106.989813,-6.250248],[106.991586,-6.250683],[106.992944,-6.249386]]]},"properties":{"h3_index":"898c104e893ffff","kawasan":"Bekasi","tingkat_keyakinan":"RENDAH","n_titik_misi":0,"data_source":"predicted","zona_izin_komersial":null,"indeks_churn":null,"harga_sewa_median":null,"harga_sewa_per_m2":null,"belanja_per_jam":null,"njop_m2":null,"opportunity_score":52.6,"hidden_gem_score":null,"kuadran":"PEMENANG_JELAS"}},{"type":"Feature","id":"898c104e897ffff","geometry":{"type":"Polygon","coordinates":[[[106.989813,-6.250248],[106.989398,-6.248516],[106.987626,-6.248081],[106.986268,-6.249378],[106.986683,-6.251111],[106.988455,-6.251546],[106.989813,-6.250248]]]},"properties":{"h3_index":"898c104e897ffff","kawasan":"Bekasi","tingkat_keyakinan":"RENDAH","n_titik_misi":0,"data_source":"predicted","zona_izin_komersial":null,"indeks_churn":null,"harga_sewa_median":null,"harga_sewa_per_m2":null,"belanja_per_jam":null,"njop_m2":null,"opportunity_score":45.2,"hidden_gem_score":null,"kuadran":"HIDDEN_GEM"}},{"type":"Feature","id":"898c104e89bffff","geometry":{"type":"Polygon","coordinates":[[[106.993886,-6.246355],[106.993471,-6.244623],[106.991699,-6.244187],[106.990341,-6.245485],[106.990756,-6.247218],[106.992529,-6.247653],[106.993886,-6.246355]]]},"properties":{"h3_index":"898c104e89bffff","kawasan":"Bekasi","tingkat_keyakinan":"RENDAH","n_titik_misi":0,"data_source":"predicted","zona_izin_komersial":null,"indeks_churn":null,"harga_sewa_median":null,"harga_sewa_per_m2":null,"belanja_per_jam":null,"njop_m2":null,"opportunity_score":45.0,"hidden_gem_score":null,"kuadran":"PEMENANG_JELAS"}},{"type":"Feature","id":"898c104e8abffff","geometry":{"type":"Polygon","coordinates":[[[106.98325,-6.243745],[106.982835,-6.242012],[106.981062,-6.241577],[106.979704,-6.242874],[106.980119,-6.244607],[106.981892,-6.245042],[106.98325,-6.243745]]]},"properties":{"h3_index":"898c104e8abffff","kawasan":"Bekasi","tingkat_keyakinan":"RENDAH","n_titik_misi":0,"data_source":"predicted","zona_izin_komersial":null,"indeks_churn":null,"harga_sewa_median":null,"harga_sewa_per_m2":null,"belanja_per_jam":null,"njop_m2":null,"opportunity_score":36.3,"hidden_gem_score":null,"kuadran":"HINDARI"}},{"type":"Feature","id":"898c104e8bbffff","geometry":{"type":"Polygon","coordinates":[[[106.985438,-6.245913],[106.985023,-6.24418],[106.98325,-6.243745],[106.981892,-6.245042],[106.982307,-6.246775],[106.98408,-6.24721],[106.985438,-6.245913]]]},"properties":{"h3_index":"898c104e8bbffff","kawasan":"Bekasi","tingkat_keyakinan":"RENDAH","n_titik_misi":0,"data_source":"predicted","zona_izin_komersial":null,"indeks_churn":null,"harga_sewa_median":null,"harga_sewa_per_m2":null,"belanja_per_jam":null,"njop_m2":null,"opportunity_score":48.0,"hidden_gem_score":null,"kuadran":"HIDDEN_GEM"}},{"type":"Feature","id":"898c104e8c3ffff","geometry":{"type":"Polygon","coordinates":[[[106.995772,-6.240294],[106.995357,-6.238561],[106.993584,-6.238126],[106.992227,-6.239424],[106.992642,-6.241157],[106.994414,-6.241592],[106.995772,-6.240294]]]},"properties":{"h3_index":"898c104e8c3ffff","kawasan":"Bekasi","tingkat_keyakinan":"RENDAH","n_titik_misi":0,"data_source":"predicted","zona_izin_komersial":null,"indeks_churn":null,"harga_sewa_median":null,"harga_sewa_per_m2":null,"belanja_per_jam":null,"njop_m2":null,"opportunity_score":56.5,"hidden_gem_score":null,"kuadran":"HIDDEN_GEM"}},{"type":"Feature","id":"898c104e8c7ffff","geometry":{"type":"Polygon","coordinates":[[[106.992642,-6.241157],[106.992227,-6.239424],[106.990454,-6.238989],[106.989096,-6.240287],[106.989511,-6.242019],[106.991284,-6.242455],[106.992642,-6.241157]]]},"properties":{"h3_index":"898c104e8c7ffff","kawasan":"Bekasi","tingkat_keyakinan":"RENDAH","n_titik_misi":0,"data_source":"predicted","zona_izin_komersial":null,"indeks_churn":null,"harga_sewa_median":null,"harga_sewa_per_m2":null,"belanja_per_jam":null,"njop_m2":null,"opportunity_score":54.0,"hidden_gem_score":null,"kuadran":"HIDDEN_GEM"}},{"type":"Feature","id":"898c104e8cbffff","geometry":{"type":"Polygon","coordinates":[[[106.996715,-6.237264],[106.9963,-6.235531],[106.994527,-6.235096],[106.993169,-6.236393],[106.993584,-6.238126],[106.995357,-6.238561],[106.996715,-6.237264]]]},"properties":{"h3_index":"898c104e8cbffff","kawasan":"Bekasi","tingkat_keyakinan":"RENDAH","n_titik_misi":0,"data_source":"predicted","zona_izin_komersial":null,"indeks_churn":null,"harga_sewa_median":null,"harga_sewa_per_m2":null,"belanja_per_jam":null,"njop_m2":null,"opportunity_score":80.9,"hidden_gem_score":null,"kuadran":"HIDDEN_GEM"}},{"type":"Feature","id":"898c104e8cfffff","geometry":{"type":"Polygon","coordinates":[[[106.993584,-6.238126],[106.993169,-6.236393],[106.991397,-6.235958],[106.990039,-6.237256],[106.990454,-6.238989],[106.992227,-6.239424],[106.993584,-6.238126]]]},"properties":{"h3_index":"898c104e8cfffff","kawasan":"Bekasi","tingkat_keyakinan":"RENDAH","n_titik_misi":0,"data_source":"predicted","zona_izin_komersial":null,"indeks_churn":null,"harga_sewa_median":null,"harga_sewa_per_m2":null,"belanja_per_jam":null,"njop_m2":null,"opportunity_score":49.2,"hidden_gem_score":null,"kuadran":"HIDDEN_GEM"}},{"type":"Feature","id":"898c104e8d3ffff","geometry":{"type":"Polygon","coordinates":[[[106.99796,-6.242462],[106.997545,-6.240729],[106.995772,-6.240294],[106.994414,-6.241592],[106.994829,-6.243325],[106.996602,-6.24376],[106.99796,-6.242462]]]},"properties":{"h3_index":"898c104e8d3ffff","kawasan":"Bekasi","tingkat_keyakinan":"RENDAH","n_titik_misi":0,"data_source":"predicted","zona_izin_komersial":null,"indeks_churn":null,"harga_sewa_median":null,"harga_sewa_per_m2":null,"belanja_per_jam":null,"njop_m2":null,"opportunity_score":55.9,"hidden_gem_score":null,"kuadran":"HIDDEN_GEM"}},{"type":"Feature","id":"898c104e8d7ffff","geometry":{"type":"Polygon","coordinates":[[[106.994829,-6.243325],[106.994414,-6.241592],[106.992642,-6.241157],[106.991284,-6.242455],[106.991699,-6.244187],[106.993471,-6.244623],[106.994829,-6.243325]]]},"properties":{"h3_index":"898c104e8d7ffff","kawasan":"Bekasi","tingkat_keyakinan":"RENDAH","n_titik_misi":0,"data_source":"predicted","zona_izin_komersial":null,"indeks_churn":null,"harga_sewa_median":null,"harga_sewa_per_m2":null,"belanja_per_jam":null,"njop_m2":null,"opportunity_score":48.6,"hidden_gem_score":null,"kuadran":"HIDDEN_GEM"}},{"type":"Feature","id":"898c104e8dbffff","geometry":{"type":"Polygon","coordinates":[[[106.998902,-6.239432],[106.998487,-6.237699],[106.996715,-6.237264],[106.995357,-6.238561],[106.995772,-6.240294],[106.997545,-6.240729],[106.998902,-6.239432]]]},"properties":{"h3_index":"898c104e8dbffff","kawasan":"Bekasi","tingkat_keyakinan":"RENDAH","n_titik_misi":0,"data_source":"predicted","zona_izin_komersial":null,"indeks_churn":null,"harga_sewa_median":null,"harga_sewa_per_m2":null,"belanja_per_jam":null,"njop_m2":null,"opportunity_score":79.3,"hidden_gem_score":null,"kuadran":"HIDDEN_GEM"}},{"type":"Feature","id":"898c104ea13ffff","geometry":{"type":"Polygon","coordinates":[[[106.996111,-6.220803],[106.995696,-6.21907],[106.993923,-6.218635],[106.992565,-6.219933],[106.99298,-6.221666],[106.994753,-6.222101],[106.996111,-6.220803]]]},"properties":{"h3_index":"898c104ea13ffff","kawasan":"Bekasi","tingkat_keyakinan":"RENDAH","n_titik_misi":0,"data_source":"predicted","zona_izin_komersial":null,"indeks_churn":null,"harga_sewa_median":null,"harga_sewa_per_m2":null,"belanja_per_jam":null,"njop_m2":null,"opportunity_score":30.2,"hidden_gem_score":null,"kuadran":"HINDARI"}},{"type":"Feature","id":"898c104ea17ffff","geometry":{"type":"Polygon","coordinates":[[[106.99298,-6.221666],[106.992565,-6.219933],[106.990792,-6.219497],[106.989434,-6.220795],[106.989849,-6.222529],[106.991622,-6.222964],[106.99298,-6.221666]]]},"properties":{"h3_index":"898c104ea17ffff","kawasan":"Bekasi","tingkat_keyakinan":"RENDAH","n_titik_misi":0,"data_source":"predicted","zona_izin_komersial":null,"indeks_churn":null,"harga_sewa_median":null,"harga_sewa_per_m2":null,"belanja_per_jam":null,"njop_m2":null,"opportunity_score":29.4,"hidden_gem_score":null,"kuadran":"HINDARI"}},{"type":"Feature","id":"898c104ea83ffff","geometry":{"type":"Polygon","coordinates":[[[106.997356,-6.226003],[106.996941,-6.22427],[106.995168,-6.223835],[106.99381,-6.225132],[106.994225,-6.226866],[106.995998,-6.227301],[106.997356,-6.226003]]]},"properties":{"h3_index":"898c104ea83ffff","kawasan":"Bekasi","tingkat_keyakinan":"RENDAH","n_titik_misi":0,"data_source":"predicted","zona_izin_komersial":null,"indeks_churn":null,"harga_sewa_median":null,"harga_sewa_per_m2":null,"belanja_per_jam":null,"njop_m2":null,"opportunity_score":39.7,"hidden_gem_score":null,"kuadran":"HINDARI"}},{"type":"Feature","id":"898c104ea87ffff","geometry":{"type":"Polygon","coordinates":[[[106.994225,-6.226866],[106.99381,-6.225132],[106.992037,-6.224697],[106.99068,-6.225995],[106.991094,-6.227728],[106.992867,-6.228163],[106.994225,-6.226866]]]},"properties":{"h3_index":"898c104ea87ffff","kawasan":"Bekasi","tingkat_keyakinan":"RENDAH","n_titik_misi":0,"data_source":"predicted","zona_izin_komersial":null,"indeks_churn":null,"harga_sewa_median":null,"harga_sewa_per_m2":null,"belanja_per_jam":null,"njop_m2":null,"opportunity_score":36.0,"hidden_gem_score":null,"kuadran":"HINDARI"}},{"type":"Feature","id":"898c104ea8bffff","geometry":{"type":"Polygon","coordinates":[[[106.998299,-6.222972],[106.997884,-6.221239],[106.996111,-6.220803],[106.994753,-6.222101],[106.995168,-6.223835],[106.996941,-6.22427],[106.998299,-6.222972]]]},"properties":{"h3_index":"898c104ea8bffff","kawasan":"Bekasi","tingkat_keyakinan":"RENDAH","n_titik_misi":0,"data_source":"predicted","zona_izin_komersial":null,"indeks_churn":null,"harga_sewa_median":null,"harga_sewa_per_m2":null,"belanja_per_jam":null,"njop_m2":null,"opportunity_score":41.9,"hidden_gem_score":null,"kuadran":"HINDARI"}},{"type":"Feature","id":"898c104ea8fffff","geometry":{"type":"Polygon","coordinates":[[[106.995168,-6.223835],[106.994753,-6.222101],[106.99298,-6.221666],[106.991622,-6.222964],[106.992037,-6.224697],[106.99381,-6.225132],[106.995168,-6.223835]]]},"properties":{"h3_index":"898c104ea8fffff","kawasan":"Bekasi","tingkat_keyakinan":"RENDAH","n_titik_misi":0,"data_source":"predicted","zona_izin_komersial":null,"indeks_churn":null,"harga_sewa_median":null,"harga_sewa_per_m2":null,"belanja_per_jam":null,"njop_m2":null,"opportunity_score":36.5,"hidden_gem_score":null,"kuadran":"HINDARI"}},{"type":"Feature","id":"898c104ea93ffff","geometry":{"type":"Polygon","coordinates":[[[106.999543,-6.228171],[106.999128,-6.226438],[106.997356,-6.226003],[106.995998,-6.227301],[106.996413,-6.229034],[106.998186,-6.229469],[106.999543,-6.228171]]]},"properties":{"h3_index":"898c104ea93ffff","kawasan":"Bekasi","tingkat_keyakinan":"RENDAH","n_titik_misi":0,"data_source":"predicted","zona_izin_komersial":null,"indeks_churn":null,"harga_sewa_median":null,"harga_sewa_per_m2":null,"belanja_per_jam":null,"njop_m2":null,"opportunity_score":36.7,"hidden_gem_score":null,"kuadran":"JEBAKAN_GENGSI"}},{"type":"Feature","id":"898c104ea97ffff","geometry":{"type":"Polygon","coordinates":[[[106.996413,-6.229034],[106.995998,-6.227301],[106.994225,-6.226866],[106.992867,-6.228163],[106.993282,-6.229897],[106.995055,-6.230332],[106.996413,-6.229034]]]},"properties":{"h3_index":"898c104ea97ffff","kawasan":"Bekasi","tingkat_keyakinan":"RENDAH","n_titik_misi":0,"data_source":"predicted","zona_izin_komersial":null,"indeks_churn":null,"harga_sewa_median":null,"harga_sewa_per_m2":null,"belanja_per_jam":null,"njop_m2":null,"opportunity_score":36.5,"hidden_gem_score":null,"kuadran":"HINDARI"}},{"type":"Feature","id":"898c104ea9bffff","geometry":{"type":"Polygon","coordinates":[[[107.000486,-6.22514],[107.000071,-6.223407],[106.998299,-6.222972],[106.996941,-6.22427],[106.997356,-6.226003],[106.999128,-6.226438],[107.000486,-6.22514]]]},"properties":{"h3_index":"898c104ea9bffff","kawasan":"Bekasi","tingkat_keyakinan":"RENDAH","n_titik_misi":0,"data_source":"predicted","zona_izin_komersial":null,"indeks_churn":null,"harga_sewa_median":null,"harga_sewa_per_m2":null,"belanja_per_jam":null,"njop_m2":null,"opportunity_score":40.5,"hidden_gem_score":null,"kuadran":"HINDARI"}},{"type":"Feature","id":"898c104eaa3ffff","geometry":{"type":"Polygon","coordinates":[[[106.988907,-6.22556],[106.988492,-6.223827],[106.986719,-6.223391],[106.985361,-6.224689],[106.985776,-6.226422],[106.987549,-6.226858],[106.988907,-6.22556]]]},"properties":{"h3_index":"898c104eaa3ffff","kawasan":"Bekasi","tingkat_keyakinan":"RENDAH","n_titik_misi":0,"data_source":"predicted","zona_izin_komersial":null,"indeks_churn":null,"harga_sewa_median":null,"harga_sewa_per_m2":null,"belanja_per_jam":null,"njop_m2":null,"opportunity_score":35.9,"hidden_gem_score":null,"kuadran":"HINDARI"}},{"type":"Feature","id":"898c104eaa7ffff","geometry":{"type":"Polygon","coordinates":[[[106.985776,-6.226422],[106.985361,-6.224689],[106.983588,-6.224254],[106.98223,-6.225552],[106.982645,-6.227285],[106.984418,-6.22772],[106.985776,-6.226422]]]},"properties":{"h3_index":"898c104eaa7ffff","kawasan":"Bekasi","tingkat_keyakinan":"RENDAH","n_titik_misi":0,"data_source":"predicted","zona_izin_komersial":null,"indeks_churn":null,"harga_sewa_median":null,"harga_sewa_per_m2":null,"belanja_per_jam":null,"njop_m2":null,"opportunity_score":42.0,"hidden_gem_score":null,"kuadran":"HINDARI"}},{"type":"Feature","id":"898c104eaabffff","geometry":{"type":"Polygon","coordinates":[[[106.989849,-6.222529],[106.989434,-6.220795],[106.987662,-6.22036],[106.986304,-6.221658],[106.986719,-6.223391],[106.988492,-6.223827],[106.989849,-6.222529]]]},"properties":{"h3_index":"898c104eaabffff","kawasan":"Bekasi","tingkat_keyakinan":"RENDAH","n_titik_misi":0,"data_source":"predicted","zona_izin_komersial":null,"indeks_churn":null,"harga_sewa_median":null,"harga_sewa_per_m2":null,"belanja_per_jam":null,"njop_m2":null,"opportunity_score":30.3,"hidden_gem_score":null,"kuadran":"HINDARI"}},{"type":"Feature","id":"898c104eaafffff","geometry":{"type":"Polygon","coordinates":[[[106.986719,-6.223391],[106.986304,-6.221658],[106.984531,-6.221223],[106.983173,-6.222521],[106.983588,-6.224254],[106.985361,-6.224689],[106.986719,-6.223391]]]},"properties":{"h3_index":"898c104eaafffff","kawasan":"Bekasi","tingkat_keyakinan":"RENDAH","n_titik_misi":0,"data_source":"predicted","zona_izin_komersial":null,"indeks_churn":null,"harga_sewa_median":null,"harga_sewa_per_m2":null,"belanja_per_jam":null,"njop_m2":null,"opportunity_score":40.5,"hidden_gem_score":null,"kuadran":"HINDARI"}},{"type":"Feature","id":"898c104eab3ffff","geometry":{"type":"Polygon","coordinates":[[[106.991094,-6.227728],[106.99068,-6.225995],[106.988907,-6.22556],[106.987549,-6.226858],[106.987964,-6.228591],[106.989737,-6.229026],[106.991094,-6.227728]]]},"properties":{"h3_index":"898c104eab3ffff","kawasan":"Bekasi","tingkat_keyakinan":"RENDAH","n_titik_misi":0,"data_source":"predicted","zona_izin_komersial":null,"indeks_churn":null,"harga_sewa_median":null,"harga_sewa_per_m2":null,"belanja_per_jam":null,"njop_m2":null,"opportunity_score":36.6,"hidden_gem_score":null,"kuadran":"HINDARI"}},{"type":"Feature","id":"898c104eab7ffff","geometry":{"type":"Polygon","coordinates":[[[106.987964,-6.228591],[106.987549,-6.226858],[106.985776,-6.226422],[106.984418,-6.22772],[106.984833,-6.229453],[106.986606,-6.229889],[106.987964,-6.228591]]]},"properties":{"h3_index":"898c104eab7ffff","kawasan":"Bekasi","tingkat_keyakinan":"RENDAH","n_titik_misi":0,"data_source":"predicted","zona_izin_komersial":null,"indeks_churn":null,"harga_sewa_median":null,"harga_sewa_per_m2":null,"belanja_per_jam":null,"njop_m2":null,"opportunity_score":39.2,"hidden_gem_score":null,"kuadran":"HINDARI"}},{"type":"Feature","id":"898c104eabbffff","geometry":{"type":"Polygon","coordinates":[[[106.992037,-6.224697],[106.991622,-6.222964],[106.989849,-6.222529],[106.988492,-6.223827],[106.988907,-6.22556],[106.99068,-6.225995],[106.992037,-6.224697]]]},"properties":{"h3_index":"898c104eabbffff","kawasan":"Bekasi","tingkat_keyakinan":"RENDAH","n_titik_misi":0,"data_source":"predicted","zona_izin_komersial":null,"indeks_churn":null,"harga_sewa_median":null,"harga_sewa_per_m2":null,"belanja_per_jam":null,"njop_m2":null,"opportunity_score":35.2,"hidden_gem_score":null,"kuadran":"HINDARI"}},{"type":"Feature","id":"898c104eac3ffff","geometry":{"type":"Polygon","coordinates":[[[107.002372,-6.219078],[107.001957,-6.217345],[107.000184,-6.21691],[106.998826,-6.218208],[106.999241,-6.219941],[107.001014,-6.220376],[107.002372,-6.219078]]]},"properties":{"h3_index":"898c104eac3ffff","kawasan":"Bekasi","tingkat_keyakinan":"RENDAH","n_titik_misi":0,"data_source":"predicted","zona_izin_komersial":null,"indeks_churn":null,"harga_sewa_median":null,"harga_sewa_per_m2":null,"belanja_per_jam":null,"njop_m2":null,"opportunity_score":31.9,"hidden_gem_score":null,"kuadran":"JEBAKAN_GENGSI"}},{"type":"Feature","id":"898c104eac7ffff","geometry":{"type":"Polygon","coordinates":[[[106.999241,-6.219941],[106.998826,-6.218208],[106.997054,-6.217772],[106.995696,-6.21907],[106.996111,-6.220803],[106.997884,-6.221239],[106.999241,-6.219941]]]},"properties":{"h3_index":"898c104eac7ffff","kawasan":"Bekasi","tingkat_keyakinan":"RENDAH","n_titik_misi":0,"data_source":"predicted","zona_izin_komersial":null,"indeks_churn":null,"harga_sewa_median":null,"harga_sewa_per_m2":null,"belanja_per_jam":null,"njop_m2":null,"opportunity_score":31.7,"hidden_gem_score":null,"kuadran":"HINDARI"}},{"type":"Feature","id":"898c104ead3ffff","geometry":{"type":"Polygon","coordinates":[[[107.004559,-6.221247],[107.004145,-6.219514],[107.002372,-6.219078],[107.001014,-6.220376],[107.001429,-6.222109],[107.003202,-6.222545],[107.004559,-6.221247]]]},"properties":{"h3_index":"898c104ead3ffff","kawasan":"Bekasi","tingkat_keyakinan":"RENDAH","n_titik_misi":0,"data_source":"predicted","zona_izin_komersial":null,"indeks_churn":null,"harga_sewa_median":null,"harga_sewa_per_m2":null,"belanja_per_jam":null,"njop_m2":null,"opportunity_score":12.9,"hidden_gem_score":null,"kuadran":"JEBAKAN_GENGSI"}},{"type":"Feature","id":"898c104ead7ffff","geometry":{"type":"Polygon","coordinates":[[[107.001429,-6.222109],[107.001014,-6.220376],[106.999241,-6.219941],[106.997884,-6.221239],[106.998299,-6.222972],[107.000071,-6.223407],[107.001429,-6.222109]]]},"properties":{"h3_index":"898c104ead7ffff","kawasan":"Bekasi","tingkat_keyakinan":"RENDAH","n_titik_misi":0,"data_source":"predicted","zona_izin_komersial":null,"indeks_churn":null,"harga_sewa_median":null,"harga_sewa_per_m2":null,"belanja_per_jam":null,"njop_m2":null,"opportunity_score":33.7,"hidden_gem_score":null,"kuadran":"HINDARI"}},{"type":"Feature","id":"898c104eadbffff","geometry":{"type":"Polygon","coordinates":[[[107.005502,-6.218216],[107.005088,-6.216482],[107.003315,-6.216047],[107.001957,-6.217345],[107.002372,-6.219078],[107.004145,-6.219514],[107.005502,-6.218216]]]},"properties":{"h3_index":"898c104eadbffff","kawasan":"Bekasi","tingkat_keyakinan":"RENDAH","n_titik_misi":0,"data_source":"predicted","zona_izin_komersial":null,"indeks_churn":null,"harga_sewa_median":null,"harga_sewa_per_m2":null,"belanja_per_jam":null,"njop_m2":null,"opportunity_score":30.0,"hidden_gem_score":null,"kuadran":"HINDARI"}},{"type":"Feature","id":"898c104ec0bffff","geometry":{"type":"Polygon","coordinates":[[[107.003579,-6.251996],[107.003164,-6.250263],[107.001392,-6.249828],[107.000034,-6.251126],[107.000449,-6.252858],[107.002221,-6.253293],[107.003579,-6.251996]]]},"properties":{"h3_index":"898c104ec0bffff","kawasan":"Bekasi","tingkat_keyakinan":"RENDAH","n_titik_misi":0,"data_source":"predicted","zona_izin_komersial":null,"indeks_churn":null,"harga_sewa_median":null,"harga_sewa_per_m2":null,"belanja_per_jam":null,"njop_m2":null,"opportunity_score":44.2,"hidden_gem_score":null,"kuadran":"HIDDEN_GEM"}},{"type":"Feature","id":"898c104ec0fffff","geometry":{"type":"Polygon","coordinates":[[[107.000449,-6.252858],[107.000034,-6.251126],[106.998261,-6.250691],[106.996904,-6.251988],[106.997319,-6.253721],[106.999091,-6.254156],[107.000449,-6.252858]]]},"properties":{"h3_index":"898c104ec0fffff","kawasan":"Bekasi","tingkat_keyakinan":"RENDAH","n_titik_misi":0,"data_source":"predicted","zona_izin_komersial":null,"indeks_churn":null,"harga_sewa_median":null,"harga_sewa_per_m2":null,"belanja_per_jam":null,"njop_m2":null,"opportunity_score":31.8,"hidden_gem_score":null,"kuadran":"HINDARI"}},{"type":"Feature","id":"898c104ec23ffff","geometry":{"type":"Polygon","coordinates":[[[106.994188,-6.254584],[106.993774,-6.252851],[106.992001,-6.252416],[106.990643,-6.253714],[106.991058,-6.255446],[106.992831,-6.255881],[106.994188,-6.254584]]]},"properties":{"h3_index":"898c104ec23ffff","kawasan":"Bekasi","tingkat_keyakinan":"RENDAH","n_titik_misi":0,"data_source":"predicted","zona_izin_komersial":null,"indeks_churn":null,"harga_sewa_median":null,"harga_sewa_per_m2":null,"belanja_per_jam":null,"njop_m2":null,"opportunity_score":38.6,"hidden_gem_score":null,"kuadran":"HINDARI"}},{"type":"Feature","id":"898c104ec2bffff","geometry":{"type":"Polygon","coordinates":[[[106.995131,-6.251553],[106.994716,-6.249821],[106.992944,-6.249386],[106.991586,-6.250683],[106.992001,-6.252416],[106.993774,-6.252851],[106.995131,-6.251553]]]},"properties":{"h3_index":"898c104ec2bffff","kawasan":"Bekasi","tingkat_keyakinan":"RENDAH","n_titik_misi":0,"data_source":"predicted","zona_izin_komersial":null,"indeks_churn":null,"harga_sewa_median":null,"harga_sewa_per_m2":null,"belanja_per_jam":null,"njop_m2":null,"opportunity_score":25.5,"hidden_gem_score":null,"kuadran":"JEBAKAN_GENGSI"}},{"type":"Feature","id":"898c104ec2fffff","geometry":{"type":"Polygon","coordinates":[[[106.992001,-6.252416],[106.991586,-6.250683],[106.989813,-6.250248],[106.988455,-6.251546],[106.98887,-6.253279],[106.990643,-6.253714],[106.992001,-6.252416]]]},"properties":{"h3_index":"898c104ec2fffff","kawasan":"Bekasi","tingkat_keyakinan":"RENDAH","n_titik_misi":0,"data_source":"predicted","zona_izin_komersial":null,"indeks_churn":null,"harga_sewa_median":null,"harga_sewa_per_m2":null,"belanja_per_jam":null,"njop_m2":null,"opportunity_score":42.3,"hidden_gem_score":null,"kuadran":"HINDARI"}},{"type":"Feature","id":"898c104ec3bffff","geometry":{"type":"Polygon","coordinates":[[[106.997319,-6.253721],[106.996904,-6.251988],[106.995131,-6.251553],[106.993774,-6.252851],[106.994188,-6.254584],[106.995961,-6.255019],[106.997319,-6.253721]]]},"properties":{"h3_index":"898c104ec3bffff","kawasan":"Bekasi","tingkat_keyakinan":"RENDAH","n_titik_misi":0,"data_source":"predicted","zona_izin_komersial":null,"indeks_churn":null,"harga_sewa_median":null,"harga_sewa_per_m2":null,"belanja_per_jam":null,"njop_m2":null,"opportunity_score":38.1,"hidden_gem_score":null,"kuadran":"HINDARI"}},{"type":"Feature","id":"898c104ec43ffff","geometry":{"type":"Polygon","coordinates":[[[107.007652,-6.248103],[107.007237,-6.24637],[107.005465,-6.245935],[107.004107,-6.247233],[107.004522,-6.248965],[107.006294,-6.2494],[107.007652,-6.248103]]]},"properties":{"h3_index":"898c104ec43ffff","kawasan":"Bekasi","tingkat_keyakinan":"RENDAH","n_titik_misi":0,"data_source":"predicted","zona_izin_komersial":null,"indeks_churn":null,"harga_sewa_median":null,"harga_sewa_per_m2":null,"belanja_per_jam":null,"njop_m2":null,"opportunity_score":38.8,"hidden_gem_score":null,"kuadran":"HINDARI"}},{"type":"Feature","id":"898c104ec47ffff","geometry":{"type":"Polygon","coordinates":[[[107.004522,-6.248965],[107.004107,-6.247233],[107.002335,-6.246798],[107.000977,-6.248095],[107.001392,-6.249828],[107.003164,-6.250263],[107.004522,-6.248965]]]},"properties":{"h3_index":"898c104ec47ffff","kawasan":"Bekasi","tingkat_keyakinan":"RENDAH","n_titik_misi":0,"data_source":"predicted","zona_izin_komersial":null,"indeks_churn":null,"harga_sewa_median":null,"harga_sewa_per_m2":null,"belanja_per_jam":null,"njop_m2":null,"opportunity_score":39.0,"hidden_gem_score":null,"kuadran":"HINDARI"}},{"type":"Feature","id":"898c104ec4bffff","geometry":{"type":"Polygon","coordinates":[[[107.008595,-6.245072],[107.00818,-6.24334],[107.006408,-6.242905],[107.00505,-6.244202],[107.005465,-6.245935],[107.007237,-6.24637],[107.008595,-6.245072]]]},"properties":{"h3_index":"898c104ec4bffff","kawasan":"Bekasi","tingkat_keyakinan":"RENDAH","n_titik_misi":0,"data_source":"predicted","zona_izin_komersial":null,"indeks_churn":null,"harga_sewa_median":null,"harga_sewa_per_m2":null,"belanja_per_jam":null,"njop_m2":null,"opportunity_score":41.0,"hidden_gem_score":null,"kuadran":"HINDARI"}},{"type":"Feature","id":"898c104ec4fffff","geometry":{"type":"Polygon","coordinates":[[[107.005465,-6.245935],[107.00505,-6.244202],[107.003277,-6.243767],[107.00192,-6.245065],[107.002335,-6.246798],[107.004107,-6.247233],[107.005465,-6.245935]]]},"properties":{"h3_index":"898c104ec4fffff","kawasan":"Bekasi","tingkat_keyakinan":"RENDAH","n_titik_misi":0,"data_source":"predicted","zona_izin_komersial":null,"indeks_churn":null,"harga_sewa_median":null,"harga_sewa_per_m2":null,"belanja_per_jam":null,"njop_m2":null,"opportunity_score":41.8,"hidden_gem_score":null,"kuadran":"HINDARI"}},{"type":"Feature","id":"898c104ec53ffff","geometry":{"type":"Polygon","coordinates":[[[107.009839,-6.25027],[107.009425,-6.248538],[107.007652,-6.248103],[107.006294,-6.2494],[107.006709,-6.251133],[107.008482,-6.251568],[107.009839,-6.25027]]]},"properties":{"h3_index":"898c104ec53ffff","kawasan":"Bekasi","tingkat_keyakinan":"RENDAH","n_titik_misi":0,"data_source":"predicted","zona_izin_komersial":null,"indeks_churn":null,"harga_sewa_median":null,"harga_sewa_per_m2":null,"belanja_per_jam":null,"njop_m2":null,"opportunity_score":36.4,"hidden_gem_score":null,"kuadran":"HINDARI"}},{"type":"Feature","id":"898c104ec57ffff","geometry":{"type":"Polygon","coordinates":[[[107.006709,-6.251133],[107.006294,-6.2494],[107.004522,-6.248965],[107.003164,-6.250263],[107.003579,-6.251996],[107.005352,-6.252431],[107.006709,-6.251133]]]},"properties":{"h3_index":"898c104ec57ffff","kawasan":"Bekasi","tingkat_keyakinan":"RENDAH","n_titik_misi":0,"data_source":"predicted","zona_izin_komersial":null,"indeks_churn":null,"harga_sewa_median":null,"harga_sewa_per_m2":null,"belanja_per_jam":null,"njop_m2":null,"opportunity_score":37.0,"hidden_gem_score":null,"kuadran":"HINDARI"}},{"type":"Feature","id":"898c104ec5bffff","geometry":{"type":"Polygon","coordinates":[[[107.010782,-6.24724],[107.010367,-6.245507],[107.008595,-6.245072],[107.007237,-6.24637],[107.007652,-6.248103],[107.009425,-6.248538],[107.010782,-6.24724]]]},"properties":{"h3_index":"898c104ec5bffff","kawasan":"Bekasi","tingkat_keyakinan":"RENDAH","n_titik_misi":0,"data_source":"predicted","zona_izin_komersial":null,"indeks_churn":null,"harga_sewa_median":null,"harga_sewa_per_m2":null,"belanja_per_jam":null,"njop_m2":null,"opportunity_score":45.0,"hidden_gem_score":null,"kuadran":"HIDDEN_GEM"}},{"type":"Feature","id":"898c104ec63ffff","geometry":{"type":"Polygon","coordinates":[[[106.999204,-6.24766],[106.998789,-6.245928],[106.997017,-6.245493],[106.995659,-6.24679],[106.996074,-6.248523],[106.997847,-6.248958],[106.999204,-6.24766]]]},"properties":{"h3_index":"898c104ec63ffff","kawasan":"Bekasi","tingkat_keyakinan":"RENDAH","n_titik_misi":0,"data_source":"predicted","zona_izin_komersial":null,"indeks_churn":null,"harga_sewa_median":null,"harga_sewa_per_m2":null,"belanja_per_jam":null,"njop_m2":null,"opportunity_score":41.9,"hidden_gem_score":null,"kuadran":"HINDARI"}},{"type":"Feature","id":"898c104ec67ffff","geometry":{"type":"Polygon","coordinates":[[[106.996074,-6.248523],[106.995659,-6.24679],[106.993886,-6.246355],[106.992529,-6.247653],[106.992944,-6.249386],[106.994716,-6.249821],[106.996074,-6.248523]]]},"properties":{"h3_index":"898c104ec67ffff","kawasan":"Bekasi","tingkat_keyakinan":"RENDAH","n_titik_misi":0,"data_source":"predicted","zona_izin_komersial":null,"indeks_churn":null,"harga_sewa_median":null,"harga_sewa_per_m2":null,"belanja_per_jam":null,"njop_m2":null,"opportunity_score":21.9,"hidden_gem_score":null,"kuadran":"JEBAKAN_GENGSI"}},{"type":"Feature","id":"898c104ec6bffff","geometry":{"type":"Polygon","coordinates":[[[107.000147,-6.24463],[106.999732,-6.242897],[106.99796,-6.242462],[106.996602,-6.24376],[106.997017,-6.245493],[106.998789,-6.245928],[107.000147,-6.24463]]]},"properties":{"h3_index":"898c104ec6bffff","kawasan":"Bekasi","tingkat_keyakinan":"RENDAH","n_titik_misi":0,"data_source":"predicted","zona_izin_komersial":null,"indeks_churn":null,"harga_sewa_median":null,"harga_sewa_per_m2":null,"belanja_per_jam":null,"njop_m2":null,"opportunity_score":43.3,"hidden_gem_score":null,"kuadran":"HINDARI"}},{"type":"Feature","id":"898c104ec6fffff","geometry":{"type":"Polygon","coordinates":[[[106.997017,-6.245493],[106.996602,-6.24376],[106.994829,-6.243325],[106.993471,-6.244623],[106.993886,-6.246355],[106.995659,-6.24679],[106.997017,-6.245493]]]},"properties":{"h3_index":"898c104ec6fffff","kawasan":"Bekasi","tingkat_keyakinan":"RENDAH","n_titik_misi":0,"data_source":"predicted","zona_izin_komersial":null,"indeks_churn":null,"harga_sewa_median":null,"harga_sewa_per_m2":null,"belanja_per_jam":null,"njop_m2":null,"opportunity_score":45.6,"hidden_gem_score":null,"kuadran":"PEMENANG_JELAS"}},{"type":"Feature","id":"898c104ec73ffff","geometry":{"type":"Polygon","coordinates":[[[107.001392,-6.249828],[107.000977,-6.248095],[106.999204,-6.24766],[106.997847,-6.248958],[106.998261,-6.250691],[107.000034,-6.251126],[107.001392,-6.249828]]]},"properties":{"h3_index":"898c104ec73ffff","kawasan":"Bekasi","tingkat_keyakinan":"RENDAH","n_titik_misi":0,"data_source":"predicted","zona_izin_komersial":null,"indeks_churn":null,"harga_sewa_median":null,"harga_sewa_per_m2":null,"belanja_per_jam":null,"njop_m2":null,"opportunity_score":38.5,"hidden_gem_score":null,"kuadran":"HINDARI"}},{"type":"Feature","id":"898c104ec77ffff","geometry":{"type":"Polygon","coordinates":[[[106.998261,-6.250691],[106.997847,-6.248958],[106.996074,-6.248523],[106.994716,-6.249821],[106.995131,-6.251553],[106.996904,-6.251988],[106.998261,-6.250691]]]},"properties":{"h3_index":"898c104ec77ffff","kawasan":"Bekasi","tingkat_keyakinan":"RENDAH","n_titik_misi":0,"data_source":"predicted","zona_izin_komersial":null,"indeks_churn":null,"harga_sewa_median":null,"harga_sewa_per_m2":null,"belanja_per_jam":null,"njop_m2":null,"opportunity_score":40.1,"hidden_gem_score":null,"kuadran":"JEBAKAN_GENGSI"}},{"type":"Feature","id":"898c104ee03ffff","geometry":{"type":"Polygon","coordinates":[[[107.009236,-6.233813],[107.008821,-6.23208],[107.007049,-6.231645],[107.005691,-6.232943],[107.006106,-6.234676],[107.007878,-6.235111],[107.009236,-6.233813]]]},"properties":{"h3_index":"898c104ee03ffff","kawasan":"Bekasi","tingkat_keyakinan":"RENDAH","n_titik_misi":0,"data_source":"predicted","zona_izin_komersial":null,"indeks_churn":null,"harga_sewa_median":null,"harga_sewa_per_m2":null,"belanja_per_jam":null,"njop_m2":null,"opportunity_score":36.9,"hidden_gem_score":null,"kuadran":"HINDARI"}},{"type":"Feature","id":"898c104ee07ffff","geometry":{"type":"Polygon","coordinates":[[[107.006106,-6.234676],[107.005691,-6.232943],[107.003918,-6.232508],[107.002561,-6.233805],[107.002976,-6.235538],[107.004748,-6.235973],[107.006106,-6.234676]]]},"properties":{"h3_index":"898c104ee07ffff","kawasan":"Bekasi","tingkat_keyakinan":"RENDAH","n_titik_misi":0,"data_source":"predicted","zona_izin_komersial":null,"indeks_churn":null,"harga_sewa_median":null,"harga_sewa_per_m2":null,"belanja_per_jam":null,"njop_m2":null,"opportunity_score":38.3,"hidden_gem_score":null,"kuadran":"HINDARI"}},{"type":"Feature","id":"898c104ee0bffff","geometry":{"type":"Polygon","coordinates":[[[107.010179,-6.230782],[107.009764,-6.229049],[107.007992,-6.228614],[107.006634,-6.229912],[107.007049,-6.231645],[107.008821,-6.23208],[107.010179,-6.230782]]]},"properties":{"h3_index":"898c104ee0bffff","kawasan":"Bekasi","tingkat_keyakinan":"RENDAH","n_titik_misi":0,"data_source":"predicted","zona_izin_komersial":null,"indeks_churn":null,"harga_sewa_median":null,"harga_sewa_per_m2":null,"belanja_per_jam":null,"njop_m2":null,"opportunity_score":34.1,"hidden_gem_score":null,"kuadran":"HINDARI"}},{"type":"Feature","id":"898c104ee0fffff","geometry":{"type":"Polygon","coordinates":[[[107.007049,-6.231645],[107.006634,-6.229912],[107.004861,-6.229477],[107.003504,-6.230775],[107.003918,-6.232508],[107.005691,-6.232943],[107.007049,-6.231645]]]},"properties":{"h3_index":"898c104ee0fffff","kawasan":"Bekasi","tingkat_keyakinan":"RENDAH","n_titik_misi":0,"data_source":"predicted","zona_izin_komersial":null,"indeks_churn":null,"harga_sewa_median":null,"harga_sewa_per_m2":null,"belanja_per_jam":null,"njop_m2":null,"opportunity_score":41.1,"hidden_gem_score":null,"kuadran":"HINDARI"}},{"type":"Feature","id":"898c104ee13ffff","geometry":{"type":"Polygon","coordinates":[[[107.011423,-6.235981],[107.011009,-6.234248],[107.009236,-6.233813],[107.007878,-6.235111],[107.008293,-6.236844],[107.010066,-6.237279],[107.011423,-6.235981]]]},"properties":{"h3_index":"898c104ee13ffff","kawasan":"Bekasi","tingkat_keyakinan":"RENDAH","n_titik_misi":0,"data_source":"predicted","zona_izin_komersial":null,"indeks_churn":null,"harga_sewa_median":null,"harga_sewa_per_m2":null,"belanja_per_jam":null,"njop_m2":null,"opportunity_score":37.5,"hidden_gem_score":null,"kuadran":"HINDARI"}},{"type":"Feature","id":"898c104ee17ffff","geometry":{"type":"Polygon","coordinates":[[[107.008293,-6.236844],[107.007878,-6.235111],[107.006106,-6.234676],[107.004748,-6.235973],[107.005163,-6.237706],[107.006936,-6.238141],[107.008293,-6.236844]]]},"properties":{"h3_index":"898c104ee17ffff","kawasan":"Bekasi","tingkat_keyakinan":"RENDAH","n_titik_misi":0,"data_source":"predicted","zona_izin_komersial":null,"indeks_churn":null,"harga_sewa_median":null,"harga_sewa_per_m2":null,"belanja_per_jam":null,"njop_m2":null,"opportunity_score":25.4,"hidden_gem_score":null,"kuadran":"JEBAKAN_GENGSI"}},{"type":"Feature","id":"898c104ee1bffff","geometry":{"type":"Polygon","coordinates":[[[107.012366,-6.23295],[107.011952,-6.231217],[107.010179,-6.230782],[107.008821,-6.23208],[107.009236,-6.233813],[107.011009,-6.234248],[107.012366,-6.23295]]]},"properties":{"h3_index":"898c104ee1bffff","kawasan":"Bekasi","tingkat_keyakinan":"RENDAH","n_titik_misi":0,"data_source":"predicted","zona_izin_komersial":null,"indeks_churn":null,"harga_sewa_median":null,"harga_sewa_per_m2":null,"belanja_per_jam":null,"njop_m2":null,"opportunity_score":41.8,"hidden_gem_score":null,"kuadran":"HINDARI"}},{"type":"Feature","id":"898c104ee23ffff","geometry":{"type":"Polygon","coordinates":[[[107.000788,-6.23337],[107.000373,-6.231637],[106.9986,-6.231202],[106.997243,-6.2325],[106.997658,-6.234233],[106.99943,-6.234668],[107.000788,-6.23337]]]},"properties":{"h3_index":"898c104ee23ffff","kawasan":"Bekasi","tingkat_keyakinan":"RENDAH","n_titik_misi":0,"data_source":"predicted","zona_izin_komersial":null,"indeks_churn":null,"harga_sewa_median":null,"harga_sewa_per_m2":null,"belanja_per_jam":null,"njop_m2":null,"opportunity_score":70.9,"hidden_gem_score":null,"kuadran":"HIDDEN_GEM"}},{"type":"Feature","id":"898c104ee27ffff","geometry":{"type":"Polygon","coordinates":[[[106.997658,-6.234233],[106.997243,-6.2325],[106.99547,-6.232065],[106.994112,-6.233363],[106.994527,-6.235096],[106.9963,-6.235531],[106.997658,-6.234233]]]},"properties":{"h3_index":"898c104ee27ffff","kawasan":"Bekasi","tingkat_keyakinan":"RENDAH","n_titik_misi":0,"data_source":"predicted","zona_izin_komersial":null,"indeks_churn":null,"harga_sewa_median":null,"harga_sewa_per_m2":null,"belanja_per_jam":null,"njop_m2":null,"opportunity_score":71.4,"hidden_gem_score":null,"kuadran":"HIDDEN_GEM"}},{"type":"Feature","id":"898c104ee2bffff","geometry":{"type":"Polygon","coordinates":[[[107.001731,-6.230339],[107.001316,-6.228606],[106.999543,-6.228171],[106.998186,-6.229469],[106.9986,-6.231202],[107.000373,-6.231637],[107.001731,-6.230339]]]},"properties":{"h3_index":"898c104ee2bffff","kawasan":"Bekasi","tingkat_keyakinan":"RENDAH","n_titik_misi":0,"data_source":"predicted","zona_izin_komersial":null,"indeks_churn":null,"harga_sewa_median":null,"harga_sewa_per_m2":null,"belanja_per_jam":null,"njop_m2":null,"opportunity_score":33.9,"hidden_gem_score":null,"kuadran":"JEBAKAN_GENGSI"}},{"type":"Feature","id":"898c104ee2fffff","geometry":{"type":"Polygon","coordinates":[[[106.9986,-6.231202],[106.998186,-6.229469],[106.996413,-6.229034],[106.995055,-6.230332],[106.99547,-6.232065],[106.997243,-6.2325],[106.9986,-6.231202]]]},"properties":{"h3_index":"898c104ee2fffff","kawasan":"Bekasi","tingkat_keyakinan":"RENDAH","n_titik_misi":0,"data_source":"predicted","zona_izin_komersial":null,"indeks_churn":null,"harga_sewa_median":null,"harga_sewa_per_m2":null,"belanja_per_jam":null,"njop_m2":null,"opportunity_score":43.1,"hidden_gem_score":null,"kuadran":"HINDARI"}},{"type":"Feature","id":"898c104ee33ffff","geometry":{"type":"Polygon","coordinates":[[[107.002976,-6.235538],[107.002561,-6.233805],[107.000788,-6.23337],[106.99943,-6.234668],[106.999845,-6.236401],[107.001618,-6.236836],[107.002976,-6.235538]]]},"properties":{"h3_index":"898c104ee33ffff","kawasan":"Bekasi","tingkat_keyakinan":"RENDAH","n_titik_misi":0,"data_source":"predicted","zona_izin_komersial":null,"indeks_churn":null,"harga_sewa_median":null,"harga_sewa_per_m2":null,"belanja_per_jam":null,"njop_m2":null,"opportunity_score":72.1,"hidden_gem_score":null,"kuadran":"HIDDEN_GEM"}},{"type":"Feature","id":"898c104ee37ffff","geometry":{"type":"Polygon","coordinates":[[[106.999845,-6.236401],[106.99943,-6.234668],[106.997658,-6.234233],[106.9963,-6.235531],[106.996715,-6.237264],[106.998487,-6.237699],[106.999845,-6.236401]]]},"properties":{"h3_index":"898c104ee37ffff","kawasan":"Bekasi","tingkat_keyakinan":"RENDAH","n_titik_misi":0,"data_source":"predicted","zona_izin_komersial":null,"indeks_churn":null,"harga_sewa_median":null,"harga_sewa_per_m2":null,"belanja_per_jam":null,"njop_m2":null,"opportunity_score":75.7,"hidden_gem_score":null,"kuadran":"PEMENANG_JELAS"}},{"type":"Feature","id":"898c104ee3bffff","geometry":{"type":"Polygon","coordinates":[[[107.003918,-6.232508],[107.003504,-6.230775],[107.001731,-6.230339],[107.000373,-6.231637],[107.000788,-6.23337],[107.002561,-6.233805],[107.003918,-6.232508]]]},"properties":{"h3_index":"898c104ee3bffff","kawasan":"Bekasi","tingkat_keyakinan":"RENDAH","n_titik_misi":0,"data_source":"predicted","zona_izin_komersial":null,"indeks_churn":null,"harga_sewa_median":null,"harga_sewa_per_m2":null,"belanja_per_jam":null,"njop_m2":null,"opportunity_score":44.1,"hidden_gem_score":null,"kuadran":"JEBAKAN_GENGSI"}},{"type":"Feature","id":"898c104ee43ffff","geometry":{"type":"Polygon","coordinates":[[[107.014252,-6.226889],[107.013837,-6.225156],[107.012065,-6.224721],[107.010707,-6.226019],[107.011122,-6.227752],[107.012894,-6.228187],[107.014252,-6.226889]]]},"properties":{"h3_index":"898c104ee43ffff","kawasan":"Bekasi","tingkat_keyakinan":"RENDAH","n_titik_misi":0,"data_source":"predicted","zona_izin_komersial":null,"indeks_churn":null,"harga_sewa_median":null,"harga_sewa_per_m2":null,"belanja_per_jam":null,"njop_m2":null,"opportunity_score":32.4,"hidden_gem_score":null,"kuadran":"HINDARI"}},{"type":"Feature","id":"898c104ee47ffff","geometry":{"type":"Polygon","coordinates":[[[107.011122,-6.227752],[107.010707,-6.226019],[107.008934,-6.225583],[107.007577,-6.226881],[107.007992,-6.228614],[107.009764,-6.229049],[107.011122,-6.227752]]]},"properties":{"h3_index":"898c104ee47ffff","kawasan":"Bekasi","tingkat_keyakinan":"RENDAH","n_titik_misi":0,"data_source":"predicted","zona_izin_komersial":null,"indeks_churn":null,"harga_sewa_median":null,"harga_sewa_per_m2":null,"belanja_per_jam":null,"njop_m2":null,"opportunity_score":36.0,"hidden_gem_score":null,"kuadran":"HINDARI"}},{"type":"Feature","id":"898c104ee4fffff","geometry":{"type":"Polygon","coordinates":[[[107.012065,-6.224721],[107.01165,-6.222988],[107.009877,-6.222552],[107.00852,-6.22385],[107.008934,-6.225583],[107.010707,-6.226019],[107.012065,-6.224721]]]},"properties":{"h3_index":"898c104ee4fffff","kawasan":"Bekasi","tingkat_keyakinan":"RENDAH","n_titik_misi":0,"data_source":"predicted","zona_izin_komersial":null,"indeks_churn":null,"harga_sewa_median":null,"harga_sewa_per_m2":null,"belanja_per_jam":null,"njop_m2":null,"opportunity_score":34.3,"hidden_gem_score":null,"kuadran":"HINDARI"}},{"type":"Feature","id":"898c104ee53ffff","geometry":{"type":"Polygon","coordinates":[[[107.016439,-6.229057],[107.016025,-6.227324],[107.014252,-6.226889],[107.012894,-6.228187],[107.013309,-6.22992],[107.015082,-6.230355],[107.016439,-6.229057]]]},"properties":{"h3_index":"898c104ee53ffff","kawasan":"Bekasi","tingkat_keyakinan":"RENDAH","n_titik_misi":0,"data_source":"predicted","zona_izin_komersial":null,"indeks_churn":null,"harga_sewa_median":null,"harga_sewa_per_m2":null,"belanja_per_jam":null,"njop_m2":null,"opportunity_score":33.0,"hidden_gem_score":null,"kuadran":"JEBAKAN_GENGSI"}},{"type":"Feature","id":"898c104ee57ffff","geometry":{"type":"Polygon","coordinates":[[[107.013309,-6.22992],[107.012894,-6.228187],[107.011122,-6.227752],[107.009764,-6.229049],[107.010179,-6.230782],[107.011952,-6.231217],[107.013309,-6.22992]]]},"properties":{"h3_index":"898c104ee57ffff","kawasan":"Bekasi","tingkat_keyakinan":"RENDAH","n_titik_misi":0,"data_source":"predicted","zona_izin_komersial":null,"indeks_churn":null,"harga_sewa_median":null,"harga_sewa_per_m2":null,"belanja_per_jam":null,"njop_m2":null,"opportunity_score":33.9,"hidden_gem_score":null,"kuadran":"JEBAKAN_GENGSI"}},{"type":"Feature","id":"898c104ee63ffff","geometry":{"type":"Polygon","coordinates":[[[107.005804,-6.226446],[107.005389,-6.224713],[107.003617,-6.224278],[107.002259,-6.225576],[107.002674,-6.227309],[107.004446,-6.227744],[107.005804,-6.226446]]]},"properties":{"h3_index":"898c104ee63ffff","kawasan":"Bekasi","tingkat_keyakinan":"RENDAH","n_titik_misi":0,"data_source":"predicted","zona_izin_komersial":null,"indeks_churn":null,"harga_sewa_median":null,"harga_sewa_per_m2":null,"belanja_per_jam":null,"njop_m2":null,"opportunity_score":39.0,"hidden_gem_score":null,"kuadran":"JEBAKAN_GENGSI"}},{"type":"Feature","id":"898c104ee67ffff","geometry":{"type":"Polygon","coordinates":[[[107.002674,-6.227309],[107.002259,-6.225576],[107.000486,-6.22514],[106.999128,-6.226438],[106.999543,-6.228171],[107.001316,-6.228606],[107.002674,-6.227309]]]},"properties":{"h3_index":"898c104ee67ffff","kawasan":"Bekasi","tingkat_keyakinan":"RENDAH","n_titik_misi":0,"data_source":"predicted","zona_izin_komersial":null,"indeks_churn":null,"harga_sewa_median":null,"harga_sewa_per_m2":null,"belanja_per_jam":null,"njop_m2":null,"opportunity_score":40.3,"hidden_gem_score":null,"kuadran":"JEBAKAN_GENGSI"}},{"type":"Feature","id":"898c104ee6bffff","geometry":{"type":"Polygon","coordinates":[[[107.006747,-6.223415],[107.006332,-6.221682],[107.004559,-6.221247],[107.003202,-6.222545],[107.003617,-6.224278],[107.005389,-6.224713],[107.006747,-6.223415]]]},"properties":{"h3_index":"898c104ee6bffff","kawasan":"Bekasi","tingkat_keyakinan":"RENDAH","n_titik_misi":0,"data_source":"predicted","zona_izin_komersial":null,"indeks_churn":null,"harga_sewa_median":null,"harga_sewa_per_m2":null,"belanja_per_jam":null,"njop_m2":null,"opportunity_score":37.1,"hidden_gem_score":null,"kuadran":"HINDARI"}},{"type":"Feature","id":"898c104ee6fffff","geometry":{"type":"Polygon","coordinates":[[[107.003617,-6.224278],[107.003202,-6.222545],[107.001429,-6.222109],[107.000071,-6.223407],[107.000486,-6.22514],[107.002259,-6.225576],[107.003617,-6.224278]]]},"properties":{"h3_index":"898c104ee6fffff","kawasan":"Bekasi","tingkat_keyakinan":"RENDAH","n_titik_misi":0,"data_source":"predicted","zona_izin_komersial":null,"indeks_churn":null,"harga_sewa_median":null,"harga_sewa_per_m2":null,"belanja_per_jam":null,"njop_m2":null,"opportunity_score":45.4,"hidden_gem_score":null,"kuadran":"HIDDEN_GEM"}},{"type":"Feature","id":"898c104ee73ffff","geometry":{"type":"Polygon","coordinates":[[[107.007992,-6.228614],[107.007577,-6.226881],[107.005804,-6.226446],[107.004446,-6.227744],[107.004861,-6.229477],[107.006634,-6.229912],[107.007992,-6.228614]]]},"properties":{"h3_index":"898c104ee73ffff","kawasan":"Bekasi","tingkat_keyakinan":"RENDAH","n_titik_misi":0,"data_source":"predicted","zona_izin_komersial":null,"indeks_churn":null,"harga_sewa_median":null,"harga_sewa_per_m2":null,"belanja_per_jam":null,"njop_m2":null,"opportunity_score":43.3,"hidden_gem_score":null,"kuadran":"HINDARI"}},{"type":"Feature","id":"898c104ee77ffff","geometry":{"type":"Polygon","coordinates":[[[107.004861,-6.229477],[107.004446,-6.227744],[107.002674,-6.227309],[107.001316,-6.228606],[107.001731,-6.230339],[107.003504,-6.230775],[107.004861,-6.229477]]]},"properties":{"h3_index":"898c104ee77ffff","kawasan":"Bekasi","tingkat_keyakinan":"RENDAH","n_titik_misi":0,"data_source":"predicted","zona_izin_komersial":null,"indeks_churn":null,"harga_sewa_median":null,"harga_sewa_per_m2":null,"belanja_per_jam":null,"njop_m2":null,"opportunity_score":50.4,"hidden_gem_score":null,"kuadran":"HIDDEN_GEM"}},{"type":"Feature","id":"898c104ee7bffff","geometry":{"type":"Polygon","coordinates":[[[107.008934,-6.225583],[107.00852,-6.22385],[107.006747,-6.223415],[107.005389,-6.224713],[107.005804,-6.226446],[107.007577,-6.226881],[107.008934,-6.225583]]]},"properties":{"h3_index":"898c104ee7bffff","kawasan":"Bekasi","tingkat_keyakinan":"RENDAH","n_titik_misi":0,"data_source":"predicted","zona_izin_komersial":null,"indeks_churn":null,"harga_sewa_median":null,"harga_sewa_per_m2":null,"belanja_per_jam":null,"njop_m2":null,"opportunity_score":46.7,"hidden_gem_score":null,"kuadran":"HIDDEN_GEM"}},{"type":"Feature","id":"898c104ee83ffff","geometry":{"type":"Polygon","coordinates":[[[107.012668,-6.241179],[107.012253,-6.239447],[107.010481,-6.239011],[107.009123,-6.240309],[107.009538,-6.242042],[107.01131,-6.242477],[107.012668,-6.241179]]]},"properties":{"h3_index":"898c104ee83ffff","kawasan":"Bekasi","tingkat_keyakinan":"RENDAH","n_titik_misi":0,"data_source":"predicted","zona_izin_komersial":null,"indeks_churn":null,"harga_sewa_median":null,"harga_sewa_per_m2":null,"belanja_per_jam":null,"njop_m2":null,"opportunity_score":37.6,"hidden_gem_score":null,"kuadran":"HINDARI"}},{"type":"Feature","id":"898c104ee87ffff","geometry":{"type":"Polygon","coordinates":[[[107.009538,-6.242042],[107.009123,-6.240309],[107.00735,-6.239874],[107.005993,-6.241172],[107.006408,-6.242905],[107.00818,-6.24334],[107.009538,-6.242042]]]},"properties":{"h3_index":"898c104ee87ffff","kawasan":"Bekasi","tingkat_keyakinan":"RENDAH","n_titik_misi":0,"data_source":"predicted","zona_izin_komersial":null,"indeks_churn":null,"harga_sewa_median":null,"harga_sewa_per_m2":null,"belanja_per_jam":null,"njop_m2":null,"opportunity_score":39.0,"hidden_gem_score":null,"kuadran":"HINDARI"}},{"type":"Feature","id":"898c104ee8bffff","geometry":{"type":"Polygon","coordinates":[[[107.013611,-6.238149],[107.013196,-6.236416],[107.011423,-6.235981],[107.010066,-6.237279],[107.010481,-6.239011],[107.012253,-6.239447],[107.013611,-6.238149]]]},"properties":{"h3_index":"898c104ee8bffff","kawasan":"Bekasi","tingkat_keyakinan":"RENDAH","n_titik_misi":0,"data_source":"predicted","zona_izin_komersial":null,"indeks_churn":null,"harga_sewa_median":null,"harga_sewa_per_m2":null,"belanja_per_jam":null,"njop_m2":null,"opportunity_score":37.3,"hidden_gem_score":null,"kuadran":"HINDARI"}},{"type":"Feature","id":"898c104ee8fffff","geometry":{"type":"Polygon","coordinates":[[[107.010481,-6.239011],[107.010066,-6.237279],[107.008293,-6.236844],[107.006936,-6.238141],[107.00735,-6.239874],[107.009123,-6.240309],[107.010481,-6.239011]]]},"properties":{"h3_index":"898c104ee8fffff","kawasan":"Bekasi","tingkat_keyakinan":"RENDAH","n_titik_misi":0,"data_source":"predicted","zona_izin_komersial":null,"indeks_churn":null,"harga_sewa_median":null,"harga_sewa_per_m2":null,"belanja_per_jam":null,"njop_m2":null,"opportunity_score":39.2,"hidden_gem_score":null,"kuadran":"HINDARI"}},{"type":"Feature","id":"898c104ee93ffff","geometry":{"type":"Polygon","coordinates":[[[107.014855,-6.243347],[107.01444,-6.241614],[107.012668,-6.241179],[107.01131,-6.242477],[107.011725,-6.24421],[107.013497,-6.244645],[107.014855,-6.243347]]]},"properties":{"h3_index":"898c104ee93ffff","kawasan":"Bekasi","tingkat_keyakinan":"RENDAH","n_titik_misi":0,"data_source":"predicted","zona_izin_komersial":null,"indeks_churn":null,"harga_sewa_median":null,"harga_sewa_per_m2":null,"belanja_per_jam":null,"njop_m2":null,"opportunity_score":37.1,"hidden_gem_score":null,"kuadran":"HINDARI"}},{"type":"Feature","id":"898c104ee97ffff","geometry":{"type":"Polygon","coordinates":[[[107.011725,-6.24421],[107.01131,-6.242477],[107.009538,-6.242042],[107.00818,-6.24334],[107.008595,-6.245072],[107.010367,-6.245507],[107.011725,-6.24421]]]},"properties":{"h3_index":"898c104ee97ffff","kawasan":"Bekasi","tingkat_keyakinan":"RENDAH","n_titik_misi":0,"data_source":"predicted","zona_izin_komersial":null,"indeks_churn":null,"harga_sewa_median":null,"harga_sewa_per_m2":null,"belanja_per_jam":null,"njop_m2":null,"opportunity_score":39.3,"hidden_gem_score":null,"kuadran":"HINDARI"}},{"type":"Feature","id":"898c104ee9bffff","geometry":{"type":"Polygon","coordinates":[[[107.015798,-6.240317],[107.015383,-6.238584],[107.013611,-6.238149],[107.012253,-6.239447],[107.012668,-6.241179],[107.01444,-6.241614],[107.015798,-6.240317]]]},"properties":{"h3_index":"898c104ee9bffff","kawasan":"Bekasi","tingkat_keyakinan":"RENDAH","n_titik_misi":0,"data_source":"predicted","zona_izin_komersial":null,"indeks_churn":null,"harga_sewa_median":null,"harga_sewa_per_m2":null,"belanja_per_jam":null,"njop_m2":null,"opportunity_score":35.6,"hidden_gem_score":null,"kuadran":"HINDARI"}},{"type":"Feature","id":"898c104eea3ffff","geometry":{"type":"Polygon","coordinates":[[[107.00422,-6.240737],[107.003805,-6.239004],[107.002033,-6.238569],[107.000675,-6.239867],[107.00109,-6.241599],[107.002862,-6.242035],[107.00422,-6.240737]]]},"properties":{"h3_index":"898c104eea3ffff","kawasan":"Bekasi","tingkat_keyakinan":"RENDAH","n_titik_misi":0,"data_source":"predicted","zona_izin_komersial":null,"indeks_churn":null,"harga_sewa_median":null,"harga_sewa_per_m2":null,"belanja_per_jam":null,"njop_m2":null,"opportunity_score":50.6,"hidden_gem_score":null,"kuadran":"PEMENANG_JELAS"}},{"type":"Feature","id":"898c104eea7ffff","geometry":{"type":"Polygon","coordinates":[[[107.00109,-6.241599],[107.000675,-6.239867],[106.998902,-6.239432],[106.997545,-6.240729],[106.99796,-6.242462],[106.999732,-6.242897],[107.00109,-6.241599]]]},"properties":{"h3_index":"898c104eea7ffff","kawasan":"Bekasi","tingkat_keyakinan":"RENDAH","n_titik_misi":0,"data_source":"predicted","zona_izin_komersial":null,"indeks_churn":null,"harga_sewa_median":null,"harga_sewa_per_m2":null,"belanja_per_jam":null,"njop_m2":null,"opportunity_score":76.2,"hidden_gem_score":null,"kuadran":"HIDDEN_GEM"}},{"type":"Feature","id":"898c104eeabffff","geometry":{"type":"Polygon","coordinates":[[[107.005163,-6.237706],[107.004748,-6.235973],[107.002976,-6.235538],[107.001618,-6.236836],[107.002033,-6.238569],[107.003805,-6.239004],[107.005163,-6.237706]]]},"properties":{"h3_index":"898c104eeabffff","kawasan":"Bekasi","tingkat_keyakinan":"RENDAH","n_titik_misi":0,"data_source":"predicted","zona_izin_komersial":null,"indeks_churn":null,"harga_sewa_median":null,"harga_sewa_per_m2":null,"belanja_per_jam":null,"njop_m2":null,"opportunity_score":70.4,"hidden_gem_score":null,"kuadran":"HIDDEN_GEM"}},{"type":"Feature","id":"898c104eeafffff","geometry":{"type":"Polygon","coordinates":[[[107.002033,-6.238569],[107.001618,-6.236836],[106.999845,-6.236401],[106.998487,-6.237699],[106.998902,-6.239432],[107.000675,-6.239867],[107.002033,-6.238569]]]},"properties":{"h3_index":"898c104eeafffff","kawasan":"Bekasi","tingkat_keyakinan":"RENDAH","n_titik_misi":0,"data_source":"predicted","zona_izin_komersial":null,"indeks_churn":null,"harga_sewa_median":null,"harga_sewa_per_m2":null,"belanja_per_jam":null,"njop_m2":null,"opportunity_score":86.8,"hidden_gem_score":null,"kuadran":"HIDDEN_GEM"}},{"type":"Feature","id":"898c104eeb3ffff","geometry":{"type":"Polygon","coordinates":[[[107.006408,-6.242905],[107.005993,-6.241172],[107.00422,-6.240737],[107.002862,-6.242035],[107.003277,-6.243767],[107.00505,-6.244202],[107.006408,-6.242905]]]},"properties":{"h3_index":"898c104eeb3ffff","kawasan":"Bekasi","tingkat_keyakinan":"RENDAH","n_titik_misi":0,"data_source":"predicted","zona_izin_komersial":null,"indeks_churn":null,"harga_sewa_median":null,"harga_sewa_per_m2":null,"belanja_per_jam":null,"njop_m2":null,"opportunity_score":41.9,"hidden_gem_score":null,"kuadran":"HINDARI"}},{"type":"Feature","id":"898c104eeb7ffff","geometry":{"type":"Polygon","coordinates":[[[107.003277,-6.243767],[107.002862,-6.242035],[107.00109,-6.241599],[106.999732,-6.242897],[107.000147,-6.24463],[107.00192,-6.245065],[107.003277,-6.243767]]]},"properties":{"h3_index":"898c104eeb7ffff","kawasan":"Bekasi","tingkat_keyakinan":"RENDAH","n_titik_misi":0,"data_source":"predicted","zona_izin_komersial":null,"indeks_churn":null,"harga_sewa_median":null,"harga_sewa_per_m2":null,"belanja_per_jam":null,"njop_m2":null,"opportunity_score":42.8,"hidden_gem_score":null,"kuadran":"HINDARI"}},{"type":"Feature","id":"898c104eebbffff","geometry":{"type":"Polygon","coordinates":[[[107.00735,-6.239874],[107.006936,-6.238141],[107.005163,-6.237706],[107.003805,-6.239004],[107.00422,-6.240737],[107.005993,-6.241172],[107.00735,-6.239874]]]},"properties":{"h3_index":"898c104eebbffff","kawasan":"Bekasi","tingkat_keyakinan":"RENDAH","n_titik_misi":0,"data_source":"predicted","zona_izin_komersial":null,"indeks_churn":null,"harga_sewa_median":null,"harga_sewa_per_m2":null,"belanja_per_jam":null,"njop_m2":null,"opportunity_score":43.3,"hidden_gem_score":null,"kuadran":"HINDARI"}},{"type":"Feature","id":"898c104eec3ffff","geometry":{"type":"Polygon","coordinates":[[[107.017684,-6.234256],[107.017269,-6.232523],[107.015496,-6.232088],[107.014139,-6.233385],[107.014554,-6.235118],[107.016326,-6.235553],[107.017684,-6.234256]]]},"properties":{"h3_index":"898c104eec3ffff","kawasan":"Bekasi","tingkat_keyakinan":"RENDAH","n_titik_misi":0,"data_source":"predicted","zona_izin_komersial":null,"indeks_churn":null,"harga_sewa_median":null,"harga_sewa_per_m2":null,"belanja_per_jam":null,"njop_m2":null,"opportunity_score":32.6,"hidden_gem_score":null,"kuadran":"JEBAKAN_GENGSI"}},{"type":"Feature","id":"898c104eec7ffff","geometry":{"type":"Polygon","coordinates":[[[107.014554,-6.235118],[107.014139,-6.233385],[107.012366,-6.23295],[107.011009,-6.234248],[107.011423,-6.235981],[107.013196,-6.236416],[107.014554,-6.235118]]]},"properties":{"h3_index":"898c104eec7ffff","kawasan":"Bekasi","tingkat_keyakinan":"RENDAH","n_titik_misi":0,"data_source":"predicted","zona_izin_komersial":null,"indeks_churn":null,"harga_sewa_median":null,"harga_sewa_per_m2":null,"belanja_per_jam":null,"njop_m2":null,"opportunity_score":34.9,"hidden_gem_score":null,"kuadran":"HINDARI"}},{"type":"Feature","id":"898c104eecbffff","geometry":{"type":"Polygon","coordinates":[[[107.018627,-6.231225],[107.018212,-6.229492],[107.016439,-6.229057],[107.015082,-6.230355],[107.015496,-6.232088],[107.017269,-6.232523],[107.018627,-6.231225]]]},"properties":{"h3_index":"898c104eecbffff","kawasan":"Bekasi","tingkat_keyakinan":"RENDAH","n_titik_misi":0,"data_source":"predicted","zona_izin_komersial":null,"indeks_churn":null,"harga_sewa_median":null,"harga_sewa_per_m2":null,"belanja_per_jam":null,"njop_m2":null,"opportunity_score":31.7,"hidden_gem_score":null,"kuadran":"JEBAKAN_GENGSI"}},{"type":"Feature","id":"898c104eecfffff","geometry":{"type":"Polygon","coordinates":[[[107.015496,-6.232088],[107.015082,-6.230355],[107.013309,-6.22992],[107.011952,-6.231217],[107.012366,-6.23295],[107.014139,-6.233385],[107.015496,-6.232088]]]},"properties":{"h3_index":"898c104eecfffff","kawasan":"Bekasi","tingkat_keyakinan":"RENDAH","n_titik_misi":0,"data_source":"predicted","zona_izin_komersial":null,"indeks_churn":null,"harga_sewa_median":null,"harga_sewa_per_m2":null,"belanja_per_jam":null,"njop_m2":null,"opportunity_score":34.9,"hidden_gem_score":null,"kuadran":"HINDARI"}},{"type":"Feature","id":"898c104eed7ffff","geometry":{"type":"Polygon","coordinates":[[[107.016741,-6.237286],[107.016326,-6.235553],[107.014554,-6.235118],[107.013196,-6.236416],[107.013611,-6.238149],[107.015383,-6.238584],[107.016741,-6.237286]]]},"properties":{"h3_index":"898c104eed7ffff","kawasan":"Bekasi","tingkat_keyakinan":"RENDAH","n_titik_misi":0,"data_source":"predicted","zona_izin_komersial":null,"indeks_churn":null,"harga_sewa_median":null,"harga_sewa_per_m2":null,"belanja_per_jam":null,"njop_m2":null,"opportunity_score":32.4,"hidden_gem_score":null,"kuadran":"HINDARI"}},{"type":"Feature","id":"898c104ec7bffff","geometry":{"type":"Polygon","coordinates":[[[107.002335,-6.246798],[107.00192,-6.245065],[107.000147,-6.24463],[106.998789,-6.245928],[106.999204,-6.24766],[107.000977,-6.248095],[107.002335,-6.246798]]]},"properties":{"h3_index":"898c104ec7bffff","kawasan":"Bekasi","tingkat_keyakinan":"RENDAH","n_titik_misi":0,"data_source":"predicted","zona_izin_komersial":null,"indeks_churn":null,"harga_sewa_median":null,"harga_sewa_per_m2":null,"belanja_per_jam":null,"njop_m2":null,"opportunity_score":38.7,"hidden_gem_score":null,"kuadran":"HINDARI"}},{"type":"Feature","id":"898c104e88fffff","geometry":{"type":"Polygon","coordinates":[[[106.988568,-6.24505],[106.988153,-6.243317],[106.986381,-6.242882],[106.985023,-6.24418],[106.985438,-6.245913],[106.987211,-6.246348],[106.988568,-6.24505]]]},"properties":{"h3_index":"898c104e88fffff","kawasan":"Bekasi","tingkat_keyakinan":"RENDAH","n_titik_misi":0,"data_source":"predicted","zona_izin_komersial":null,"indeks_churn":null,"harga_sewa_median":null,"harga_sewa_per_m2":null,"belanja_per_jam":null,"njop_m2":null,"opportunity_score":39.3,"hidden_gem_score":null,"kuadran":"JEBAKAN_GENGSI"}}]}