{"type":"FeatureCollection","features":[{"type":"Feature","id":"898c1070003ffff","geometry":{"type":"Polygon","coordinates":[[[106.822825,-6.382105],[106.822409,-6.380373],[106.820635,-6.379939],[106.819277,-6.381236],[106.819693,-6.382967],[106.821467,-6.383401],[106.822825,-6.382105]]]},"properties":{"h3_index":"898c1070003ffff","kawasan":"Depok Baru","tingkat_keyakinan":"RENDAH","n_titik_misi":0,"data_source":"predicted","zona_izin_komersial":null,"indeks_churn":null,"harga_sewa_median":null,"harga_sewa_per_m2":null,"belanja_per_jam":null,"njop_m2":null,"opportunity_score":42.7,"hidden_gem_score":null,"kuadran":"HINDARI"}},{"type":"Feature","id":"898c1070007ffff","geometry":{"type":"Polygon","coordinates":[[[106.819693,-6.382967],[106.819277,-6.381236],[106.817502,-6.380801],[106.816144,-6.382098],[106.816561,-6.383829],[106.818335,-6.384264],[106.819693,-6.382967]]]},"properties":{"h3_index":"898c1070007ffff","kawasan":"Depok Baru","tingkat_keyakinan":"RENDAH","n_titik_misi":0,"data_source":"predicted","zona_izin_komersial":null,"indeks_churn":null,"harga_sewa_median":null,"harga_sewa_per_m2":null,"belanja_per_jam":null,"njop_m2":null,"opportunity_score":43.8,"hidden_gem_score":null,"kuadran":"HINDARI"}},{"type":"Feature","id":"898c107000bffff","geometry":{"type":"Polygon","coordinates":[[[106.823767,-6.379076],[106.823351,-6.377345],[106.821576,-6.376911],[106.820218,-6.378207],[106.820635,-6.379939],[106.822409,-6.380373],[106.823767,-6.379076]]]},"properties":{"h3_index":"898c107000bffff","kawasan":"Depok Baru","tingkat_keyakinan":"RENDAH","n_titik_misi":0,"data_source":"predicted","zona_izin_komersial":null,"indeks_churn":null,"harga_sewa_median":null,"harga_sewa_per_m2":null,"belanja_per_jam":null,"njop_m2":null,"opportunity_score":40.1,"hidden_gem_score":null,"kuadran":"HINDARI"}},{"type":"Feature","id":"898c107000fffff","geometry":{"type":"Polygon","coordinates":[[[106.820635,-6.379939],[106.820218,-6.378207],[106.818444,-6.377773],[106.817086,-6.37907],[106.817502,-6.380801],[106.819277,-6.381236],[106.820635,-6.379939]]]},"properties":{"h3_index":"898c107000fffff","kawasan":"Depok Baru","tingkat_keyakinan":"RENDAH","n_titik_misi":0,"data_source":"predicted","zona_izin_komersial":null,"indeks_churn":null,"harga_sewa_median":null,"harga_sewa_per_m2":null,"belanja_per_jam":null,"njop_m2":null,"opportunity_score":41.0,"hidden_gem_score":null,"kuadran":"JEBAKAN_GENGSI"}},{"type":"Feature","id":"898c1070013ffff","geometry":{"type":"Polygon","coordinates":[[[106.825015,-6.38427],[106.824599,-6.382539],[106.822825,-6.382105],[106.821467,-6.383401],[106.821883,-6.385133],[106.823657,-6.385567],[106.825015,-6.38427]]]},"properties":{"h3_index":"898c1070013ffff","kawasan":"Depok Baru","tingkat_keyakinan":"RENDAH","n_titik_misi":0,"data_source":"predicted","zona_izin_komersial":null,"indeks_churn":null,"harga_sewa_median":null,"harga_sewa_per_m2":null,"belanja_per_jam":null,"njop_m2":null,"opportunity_score":43.1,"hidden_gem_score":null,"kuadran":"HINDARI"}},{"type":"Feature","id":"898c1070017ffff","geometry":{"type":"Polygon","coordinates":[[[106.821883,-6.385133],[106.821467,-6.383401],[106.819693,-6.382967],[106.818335,-6.384264],[106.818751,-6.385995],[106.820525,-6.386429],[106.821883,-6.385133]]]},"properties":{"h3_index":"898c1070017ffff","kawasan":"Depok Baru","tingkat_keyakinan":"RENDAH","n_titik_misi":0,"data_source":"predicted","zona_izin_komersial":null,"indeks_churn":null,"harga_sewa_median":null,"harga_sewa_per_m2":null,"belanja_per_jam":null,"njop_m2":null,"opportunity_score":25.0,"hidden_gem_score":null,"kuadran":"JEBAKAN_GENGSI"}},{"type":"Feature","id":"898c107001bffff","geometry":{"type":"Polygon","coordinates":[[[106.825957,-6.381242],[106.825541,-6.379511],[106.823767,-6.379076],[106.822409,-6.380373],[106.822825,-6.382105],[106.824599,-6.382539],[106.825957,-6.381242]]]},"properties":{"h3_index":"898c107001bffff","kawasan":"Depok Baru","tingkat_keyakinan":"RENDAH","n_titik_misi":0,"data_source":"predicted","zona_izin_komersial":null,"indeks_churn":null,"harga_sewa_median":null,"harga_sewa_per_m2":null,"belanja_per_jam":null,"njop_m2":null,"opportunity_score":41.6,"hidden_gem_score":null,"kuadran":"HINDARI"}},{"type":"Feature","id":"898c1070023ffff","geometry":{"type":"Polygon","coordinates":[[[106.81437,-6.381664],[106.813954,-6.379932],[106.812179,-6.379498],[106.810821,-6.380794],[106.811238,-6.382526],[106.813012,-6.38296],[106.81437,-6.381664]]]},"properties":{"h3_index":"898c1070023ffff","kawasan":"Depok Baru","tingkat_keyakinan":"RENDAH","n_titik_misi":0,"data_source":"predicted","zona_izin_komersial":null,"indeks_churn":null,"harga_sewa_median":null,"harga_sewa_per_m2":null,"belanja_per_jam":null,"njop_m2":null,"opportunity_score":42.2,"hidden_gem_score":null,"kuadran":"JEBAKAN_GENGSI"}},{"type":"Feature","id":"898c1070027ffff","geometry":{"type":"Polygon","coordinates":[[[106.811238,-6.382526],[106.810821,-6.380794],[106.809047,-6.38036],[106.807689,-6.381657],[106.808105,-6.383388],[106.80988,-6.383823],[106.811238,-6.382526]]]},"properties":{"h3_index":"898c1070027ffff","kawasan":"Depok Baru","tingkat_keyakinan":"RENDAH","n_titik_misi":0,"data_source":"predicted","zona_izin_komersial":null,"indeks_churn":null,"harga_sewa_median":null,"harga_sewa_per_m2":null,"belanja_per_jam":null,"njop_m2":null,"opportunity_score":20.8,"hidden_gem_score":null,"kuadran":"JEBAKAN_GENGSI"}},{"type":"Feature","id":"898c107002bffff","geometry":{"type":"Polygon","coordinates":[[[106.815312,-6.378635],[106.814896,-6.376904],[106.813121,-6.376469],[106.811763,-6.377766],[106.812179,-6.379498],[106.813954,-6.379932],[106.815312,-6.378635]]]},"properties":{"h3_index":"898c107002bffff","kawasan":"Depok Baru","tingkat_keyakinan":"RENDAH","n_titik_misi":0,"data_source":"predicted","zona_izin_komersial":null,"indeks_churn":null,"harga_sewa_median":null,"harga_sewa_per_m2":null,"belanja_per_jam":null,"njop_m2":null,"opportunity_score":40.7,"hidden_gem_score":null,"kuadran":"JEBAKAN_GENGSI"}},{"type":"Feature","id":"898c107002fffff","geometry":{"type":"Polygon","coordinates":[[[106.812179,-6.379498],[106.811763,-6.377766],[106.809989,-6.377332],[106.808631,-6.378628],[106.809047,-6.38036],[106.810821,-6.380794],[106.812179,-6.379498]]]},"properties":{"h3_index":"898c107002fffff","kawasan":"Depok Baru","tingkat_keyakinan":"RENDAH","n_titik_misi":0,"data_source":"predicted","zona_izin_komersial":null,"indeks_churn":null,"harga_sewa_median":null,"harga_sewa_per_m2":null,"belanja_per_jam":null,"njop_m2":null,"opportunity_score":39.5,"hidden_gem_score":null,"kuadran":"HINDARI"}},{"type":"Feature","id":"898c1070033ffff","geometry":{"type":"Polygon","coordinates":[[[106.816561,-6.383829],[106.816144,-6.382098],[106.81437,-6.381664],[106.813012,-6.38296],[106.813428,-6.384692],[106.815203,-6.385126],[106.816561,-6.383829]]]},"properties":{"h3_index":"898c1070033ffff","kawasan":"Depok Baru","tingkat_keyakinan":"RENDAH","n_titik_misi":0,"data_source":"predicted","zona_izin_komersial":null,"indeks_churn":null,"harga_sewa_median":null,"harga_sewa_per_m2":null,"belanja_per_jam":null,"njop_m2":null,"opportunity_score":52.1,"hidden_gem_score":null,"kuadran":"HIDDEN_GEM"}},{"type":"Feature","id":"898c1070037ffff","geometry":{"type":"Polygon","coordinates":[[[106.813428,-6.384692],[106.813012,-6.38296],[106.811238,-6.382526],[106.80988,-6.383823],[106.810296,-6.385554],[106.81207,-6.385988],[106.813428,-6.384692]]]},"properties":{"h3_index":"898c1070037ffff","kawasan":"Depok Baru","tingkat_keyakinan":"RENDAH","n_titik_misi":0,"data_source":"predicted","zona_izin_komersial":null,"indeks_churn":null,"harga_sewa_median":null,"harga_sewa_per_m2":null,"belanja_per_jam":null,"njop_m2":null,"opportunity_score":42.4,"hidden_gem_score":null,"kuadran":"JEBAKAN_GENGSI"}},{"type":"Feature","id":"898c107003bffff","geometry":{"type":"Polygon","coordinates":[[[106.817502,-6.380801],[106.817086,-6.37907],[106.815312,-6.378635],[106.813954,-6.379932],[106.81437,-6.381664],[106.816144,-6.382098],[106.817502,-6.380801]]]},"properties":{"h3_index":"898c107003bffff","kawasan":"Depok Baru","tingkat_keyakinan":"RENDAH","n_titik_misi":0,"data_source":"predicted","zona_izin_komersial":null,"indeks_churn":null,"harga_sewa_median":null,"harga_sewa_per_m2":null,"belanja_per_jam":null,"njop_m2":null,"opportunity_score":42.0,"hidden_gem_score":null,"kuadran":"JEBAKAN_GENGSI"}},{"type":"Feature","id":"898c1070043ffff","geometry":{"type":"Polygon","coordinates":[[[106.827841,-6.375186],[106.827425,-6.373455],[106.82565,-6.37302],[106.824292,-6.374317],[106.824709,-6.376048],[106.826483,-6.376483],[106.827841,-6.375186]]]},"properties":{"h3_index":"898c1070043ffff","kawasan":"Depok Baru","tingkat_keyakinan":"RENDAH","n_titik_misi":0,"data_source":"predicted","zona_izin_komersial":null,"indeks_churn":null,"harga_sewa_median":null,"harga_sewa_per_m2":null,"belanja_per_jam":null,"njop_m2":null,"opportunity_score":33.1,"hidden_gem_score":null,"kuadran":"HINDARI"}},{"type":"Feature","id":"898c1070047ffff","geometry":{"type":"Polygon","coordinates":[[[106.824709,-6.376048],[106.824292,-6.374317],[106.822518,-6.373882],[106.82116,-6.375179],[106.821576,-6.376911],[106.823351,-6.377345],[106.824709,-6.376048]]]},"properties":{"h3_index":"898c1070047ffff","kawasan":"Depok Baru","tingkat_keyakinan":"RENDAH","n_titik_misi":0,"data_source":"predicted","zona_izin_komersial":null,"indeks_churn":null,"harga_sewa_median":null,"harga_sewa_per_m2":null,"belanja_per_jam":null,"njop_m2":null,"opportunity_score":18.3,"hidden_gem_score":null,"kuadran":"JEBAKAN_GENGSI"}},{"type":"Feature","id":"898c107004fffff","geometry":{"type":"Polygon","coordinates":[[[106.82565,-6.37302],[106.825234,-6.371289],[106.82346,-6.370854],[106.822102,-6.372151],[106.822518,-6.373882],[106.824292,-6.374317],[106.82565,-6.37302]]]},"properties":{"h3_index":"898c107004fffff","kawasan":"Depok Baru","tingkat_keyakinan":"RENDAH","n_titik_misi":0,"data_source":"predicted","zona_izin_komersial":null,"indeks_churn":null,"harga_sewa_median":null,"harga_sewa_per_m2":null,"belanja_per_jam":null,"njop_m2":null,"opportunity_score":46.3,"hidden_gem_score":null,"kuadran":"PEMENANG_JELAS"}},{"type":"Feature","id":"898c1070053ffff","geometry":{"type":"Polygon","coordinates":[[[106.830031,-6.377352],[106.829615,-6.37562],[106.827841,-6.375186],[106.826483,-6.376483],[106.826899,-6.378214],[106.828673,-6.378649],[106.830031,-6.377352]]]},"properties":{"h3_index":"898c1070053ffff","kawasan":"Depok Baru","tingkat_keyakinan":"RENDAH","n_titik_misi":0,"data_source":"predicted","zona_izin_komersial":null,"indeks_churn":null,"harga_sewa_median":null,"harga_sewa_per_m2":null,"belanja_per_jam":null,"njop_m2":null,"opportunity_score":38.1,"hidden_gem_score":null,"kuadran":"HINDARI"}},{"type":"Feature","id":"898c1070057ffff","geometry":{"type":"Polygon","coordinates":[[[106.826899,-6.378214],[106.826483,-6.376483],[106.824709,-6.376048],[106.823351,-6.377345],[106.823767,-6.379076],[106.825541,-6.379511],[106.826899,-6.378214]]]},"properties":{"h3_index":"898c1070057ffff","kawasan":"Depok Baru","tingkat_keyakinan":"RENDAH","n_titik_misi":0,"data_source":"predicted","zona_izin_komersial":null,"indeks_churn":null,"harga_sewa_median":null,"harga_sewa_per_m2":null,"belanja_per_jam":null,"njop_m2":null,"opportunity_score":40.2,"hidden_gem_score":null,"kuadran":"HINDARI"}},{"type":"Feature","id":"898c1070063ffff","geometry":{"type":"Polygon","coordinates":[[[106.819386,-6.374745],[106.81897,-6.373013],[106.817195,-6.372579],[106.815837,-6.373876],[106.816254,-6.375607],[106.818028,-6.376042],[106.819386,-6.374745]]]},"properties":{"h3_index":"898c1070063ffff","kawasan":"Depok Baru","tingkat_keyakinan":"RENDAH","n_titik_misi":0,"data_source":"predicted","zona_izin_komersial":null,"indeks_churn":null,"harga_sewa_median":null,"harga_sewa_per_m2":null,"belanja_per_jam":null,"njop_m2":null,"opportunity_score":39.1,"hidden_gem_score":null,"kuadran":"JEBAKAN_GENGSI"}},{"type":"Feature","id":"898c1070067ffff","geometry":{"type":"Polygon","coordinates":[[[106.816254,-6.375607],[106.815837,-6.373876],[106.814063,-6.373441],[106.812705,-6.374738],[106.813121,-6.376469],[106.814896,-6.376904],[106.816254,-6.375607]]]},"properties":{"h3_index":"898c1070067ffff","kawasan":"Depok Baru","tingkat_keyakinan":"RENDAH","n_titik_misi":0,"data_source":"predicted","zona_izin_komersial":null,"indeks_churn":null,"harga_sewa_median":null,"harga_sewa_per_m2":null,"belanja_per_jam":null,"njop_m2":null,"opportunity_score":39.9,"hidden_gem_score":null,"kuadran":"HINDARI"}},{"type":"Feature","id":"898c1070073ffff","geometry":{"type":"Polygon","coordinates":[[[106.821576,-6.376911],[106.82116,-6.375179],[106.819386,-6.374745],[106.818028,-6.376042],[106.818444,-6.377773],[106.820218,-6.378207],[106.821576,-6.376911]]]},"properties":{"h3_index":"898c1070073ffff","kawasan":"Depok Baru","tingkat_keyakinan":"RENDAH","n_titik_misi":0,"data_source":"predicted","zona_izin_komersial":null,"indeks_churn":null,"harga_sewa_median":null,"harga_sewa_per_m2":null,"belanja_per_jam":null,"njop_m2":null,"opportunity_score":39.4,"hidden_gem_score":null,"kuadran":"HINDARI"}},{"type":"Feature","id":"898c1070077ffff","geometry":{"type":"Polygon","coordinates":[[[106.818444,-6.377773],[106.818028,-6.376042],[106.816254,-6.375607],[106.814896,-6.376904],[106.815312,-6.378635],[106.817086,-6.37907],[106.818444,-6.377773]]]},"properties":{"h3_index":"898c1070077ffff","kawasan":"Depok Baru","tingkat_keyakinan":"RENDAH","n_titik_misi":0,"data_source":"predicted","zona_izin_komersial":null,"indeks_churn":null,"harga_sewa_median":null,"harga_sewa_per_m2":null,"belanja_per_jam":null,"njop_m2":null,"opportunity_score":40.8,"hidden_gem_score":null,"kuadran":"JEBAKAN_GENGSI"}},{"type":"Feature","id":"898c107007bffff","geometry":{"type":"Polygon","coordinates":[[[106.822518,-6.373882],[106.822102,-6.372151],[106.820328,-6.371716],[106.81897,-6.373013],[106.819386,-6.374745],[106.82116,-6.375179],[106.822518,-6.373882]]]},"properties":{"h3_index":"898c107007bffff","kawasan":"Depok Baru","tingkat_keyakinan":"RENDAH","n_titik_misi":0,"data_source":"predicted","zona_izin_komersial":null,"indeks_churn":null,"harga_sewa_median":null,"harga_sewa_per_m2":null,"belanja_per_jam":null,"njop_m2":null,"opportunity_score":37.8,"hidden_gem_score":null,"kuadran":"HINDARI"}},{"type":"Feature","id":"898c1070083ffff","geometry":{"type":"Polygon","coordinates":[[[106.826264,-6.389464],[106.825848,-6.387733],[106.824074,-6.387298],[106.822716,-6.388595],[106.823132,-6.390326],[106.824906,-6.390761],[106.826264,-6.389464]]]},"properties":{"h3_index":"898c1070083ffff","kawasan":"Depok Baru","tingkat_keyakinan":"RENDAH","n_titik_misi":0,"data_source":"predicted","zona_izin_komersial":null,"indeks_churn":null,"harga_sewa_median":null,"harga_sewa_per_m2":null,"belanja_per_jam":null,"njop_m2":null,"opportunity_score":33.8,"hidden_gem_score":null,"kuadran":"JEBAKAN_GENGSI"}},{"type":"Feature","id":"898c1070087ffff","geometry":{"type":"Polygon","coordinates":[[[106.823132,-6.390326],[106.822716,-6.388595],[106.820941,-6.388161],[106.819583,-6.389457],[106.82,-6.391189],[106.821774,-6.391623],[106.823132,-6.390326]]]},"properties":{"h3_index":"898c1070087ffff","kawasan":"Depok Baru","tingkat_keyakinan":"RENDAH","n_titik_misi":0,"data_source":"predicted","zona_izin_komersial":null,"indeks_churn":null,"harga_sewa_median":null,"harga_sewa_per_m2":null,"belanja_per_jam":null,"njop_m2":null,"opportunity_score":63.3,"hidden_gem_score":null,"kuadran":"PEMENANG_JELAS"}},{"type":"Feature","id":"898c107008bffff","geometry":{"type":"Polygon","coordinates":[[[106.827206,-6.386436],[106.826789,-6.384705],[106.825015,-6.38427],[106.823657,-6.385567],[106.824074,-6.387298],[106.825848,-6.387733],[106.827206,-6.386436]]]},"properties":{"h3_index":"898c107008bffff","kawasan":"Depok Baru","tingkat_keyakinan":"RENDAH","n_titik_misi":0,"data_source":"predicted","zona_izin_komersial":null,"indeks_churn":null,"harga_sewa_median":null,"harga_sewa_per_m2":null,"belanja_per_jam":null,"njop_m2":null,"opportunity_score":46.5,"hidden_gem_score":null,"kuadran":"HIDDEN_GEM"}},{"type":"Feature","id":"898c107008fffff","geometry":{"type":"Polygon","coordinates":[[[106.824074,-6.387298],[106.823657,-6.385567],[106.821883,-6.385133],[106.820525,-6.386429],[106.820941,-6.388161],[106.822716,-6.388595],[106.824074,-6.387298]]]},"properties":{"h3_index":"898c107008fffff","kawasan":"Depok Baru","tingkat_keyakinan":"RENDAH","n_titik_misi":0,"data_source":"predicted","zona_izin_komersial":null,"indeks_churn":null,"harga_sewa_median":null,"harga_sewa_per_m2":null,"belanja_per_jam":null,"njop_m2":null,"opportunity_score":52.7,"hidden_gem_score":null,"kuadran":"PEMENANG_JELAS"}},{"type":"Feature","id":"898c1070093ffff","geometry":{"type":"Polygon","coordinates":[[[106.828454,-6.391629],[106.828038,-6.389898],[106.826264,-6.389464],[106.824906,-6.390761],[106.825322,-6.392492],[106.827096,-6.392926],[106.828454,-6.391629]]]},"properties":{"h3_index":"898c1070093ffff","kawasan":"Depok Baru","tingkat_keyakinan":"RENDAH","n_titik_misi":0,"data_source":"predicted","zona_izin_komersial":null,"indeks_churn":null,"harga_sewa_median":null,"harga_sewa_per_m2":null,"belanja_per_jam":null,"njop_m2":null,"opportunity_score":56.7,"hidden_gem_score":null,"kuadran":"HIDDEN_GEM"}},{"type":"Feature","id":"898c1070097ffff","geometry":{"type":"Polygon","coordinates":[[[106.825322,-6.392492],[106.824906,-6.390761],[106.823132,-6.390326],[106.821774,-6.391623],[106.82219,-6.393354],[106.823964,-6.393788],[106.825322,-6.392492]]]},"properties":{"h3_index":"898c1070097ffff","kawasan":"Depok Baru","tingkat_keyakinan":"RENDAH","n_titik_misi":0,"data_source":"predicted","zona_izin_komersial":null,"indeks_churn":null,"harga_sewa_median":null,"harga_sewa_per_m2":null,"belanja_per_jam":null,"njop_m2":null,"opportunity_score":62.4,"hidden_gem_score":null,"kuadran":"HIDDEN_GEM"}},{"type":"Feature","id":"898c107009bffff","geometry":{"type":"Polygon","coordinates":[[[106.829396,-6.388601],[106.82898,-6.38687],[106.827206,-6.386436],[106.825848,-6.387733],[106.826264,-6.389464],[106.828038,-6.389898],[106.829396,-6.388601]]]},"properties":{"h3_index":"898c107009bffff","kawasan":"Depok Baru","tingkat_keyakinan":"RENDAH","n_titik_misi":1,"data_source":"observed","zona_izin_komersial":null,"indeks_churn":null,"harga_sewa_median":null,"harga_sewa_per_m2":null,"belanja_per_jam":null,"njop_m2":null,"opportunity_score":52.8,"hidden_gem_score":null,"kuadran":"HIDDEN_GEM"}},{"type":"Feature","id":"898c10700a3ffff","geometry":{"type":"Polygon","coordinates":[[[106.817809,-6.389023],[106.817393,-6.387292],[106.815619,-6.386857],[106.814261,-6.388154],[106.814677,-6.389885],[106.816451,-6.39032],[106.817809,-6.389023]]]},"properties":{"h3_index":"898c10700a3ffff","kawasan":"Depok Baru","tingkat_keyakinan":"RENDAH","n_titik_misi":0,"data_source":"predicted","zona_izin_komersial":null,"indeks_churn":null,"harga_sewa_median":null,"harga_sewa_per_m2":null,"belanja_per_jam":null,"njop_m2":null,"opportunity_score":49.4,"hidden_gem_score":null,"kuadran":"PEMENANG_JELAS"}},{"type":"Feature","id":"898c10700a7ffff","geometry":{"type":"Polygon","coordinates":[[[106.814677,-6.389885],[106.814261,-6.388154],[106.812486,-6.38772],[106.811128,-6.389016],[106.811545,-6.390748],[106.813319,-6.391182],[106.814677,-6.389885]]]},"properties":{"h3_index":"898c10700a7ffff","kawasan":"Depok Baru","tingkat_keyakinan":"RENDAH","n_titik_misi":0,"data_source":"predicted","zona_izin_komersial":null,"indeks_churn":null,"harga_sewa_median":null,"harga_sewa_per_m2":null,"belanja_per_jam":null,"njop_m2":null,"opportunity_score":50.6,"hidden_gem_score":null,"kuadran":"PEMENANG_JELAS"}},{"type":"Feature","id":"898c10700abffff","geometry":{"type":"Polygon","coordinates":[[[106.818751,-6.385995],[106.818335,-6.384264],[106.816561,-6.383829],[106.815203,-6.385126],[106.815619,-6.386857],[106.817393,-6.387292],[106.818751,-6.385995]]]},"properties":{"h3_index":"898c10700abffff","kawasan":"Depok Baru","tingkat_keyakinan":"RENDAH","n_titik_misi":0,"data_source":"predicted","zona_izin_komersial":null,"indeks_churn":null,"harga_sewa_median":null,"harga_sewa_per_m2":null,"belanja_per_jam":null,"njop_m2":null,"opportunity_score":25.1,"hidden_gem_score":null,"kuadran":"JEBAKAN_GENGSI"}},{"type":"Feature","id":"898c10700afffff","geometry":{"type":"Polygon","coordinates":[[[106.815619,-6.386857],[106.815203,-6.385126],[106.813428,-6.384692],[106.81207,-6.385988],[106.812486,-6.38772],[106.814261,-6.388154],[106.815619,-6.386857]]]},"properties":{"h3_index":"898c10700afffff","kawasan":"Depok Baru","tingkat_keyakinan":"RENDAH","n_titik_misi":2,"data_source":"observed","zona_izin_komersial":null,"indeks_churn":null,"harga_sewa_median":null,"harga_sewa_per_m2":null,"belanja_per_jam":null,"njop_m2":null,"opportunity_score":51.7,"hidden_gem_score":null,"kuadran":"PEMENANG_JELAS"}},{"type":"Feature","id":"898c10700b3ffff","geometry":{"type":"Polygon","coordinates":[[[106.82,-6.391189],[106.819583,-6.389457],[106.817809,-6.389023],[106.816451,-6.39032],[106.816867,-6.392051],[106.818642,-6.392485],[106.82,-6.391189]]]},"properties":{"h3_index":"898c10700b3ffff","kawasan":"Depok Baru","tingkat_keyakinan":"RENDAH","n_titik_misi":0,"data_source":"predicted","zona_izin_komersial":null,"indeks_churn":null,"harga_sewa_median":null,"harga_sewa_per_m2":null,"belanja_per_jam":null,"njop_m2":null,"opportunity_score":54.3,"hidden_gem_score":null,"kuadran":"PEMENANG_JELAS"}},{"type":"Feature","id":"898c10700b7ffff","geometry":{"type":"Polygon","coordinates":[[[106.816867,-6.392051],[106.816451,-6.39032],[106.814677,-6.389885],[106.813319,-6.391182],[106.813735,-6.392913],[106.815509,-6.393348],[106.816867,-6.392051]]]},"properties":{"h3_index":"898c10700b7ffff","kawasan":"Depok Baru","tingkat_keyakinan":"RENDAH","n_titik_misi":0,"data_source":"predicted","zona_izin_komersial":null,"indeks_churn":null,"harga_sewa_median":null,"harga_sewa_per_m2":null,"belanja_per_jam":null,"njop_m2":null,"opportunity_score":47.6,"hidden_gem_score":null,"kuadran":"HIDDEN_GEM"}},{"type":"Feature","id":"898c10700bbffff","geometry":{"type":"Polygon","coordinates":[[[106.820941,-6.388161],[106.820525,-6.386429],[106.818751,-6.385995],[106.817393,-6.387292],[106.817809,-6.389023],[106.819583,-6.389457],[106.820941,-6.388161]]]},"properties":{"h3_index":"898c10700bbffff","kawasan":"Depok Baru","tingkat_keyakinan":"RENDAH","n_titik_misi":0,"data_source":"predicted","zona_izin_komersial":null,"indeks_churn":null,"harga_sewa_median":null,"harga_sewa_per_m2":null,"belanja_per_jam":null,"njop_m2":null,"opportunity_score":60.2,"hidden_gem_score":null,"kuadran":"HIDDEN_GEM"}},{"type":"Feature","id":"898c10700c3ffff","geometry":{"type":"Polygon","coordinates":[[[106.831279,-6.382546],[106.830863,-6.380814],[106.829089,-6.38038],[106.827731,-6.381677],[106.828147,-6.383408],[106.829922,-6.383842],[106.831279,-6.382546]]]},"properties":{"h3_index":"898c10700c3ffff","kawasan":"Depok Baru","tingkat_keyakinan":"RENDAH","n_titik_misi":0,"data_source":"predicted","zona_izin_komersial":null,"indeks_churn":null,"harga_sewa_median":null,"harga_sewa_per_m2":null,"belanja_per_jam":null,"njop_m2":null,"opportunity_score":40.9,"hidden_gem_score":null,"kuadran":"JEBAKAN_GENGSI"}},{"type":"Feature","id":"898c10700c7ffff","geometry":{"type":"Polygon","coordinates":[[[106.828147,-6.383408],[106.827731,-6.381677],[106.825957,-6.381242],[106.824599,-6.382539],[106.825015,-6.38427],[106.826789,-6.384705],[106.828147,-6.383408]]]},"properties":{"h3_index":"898c10700c7ffff","kawasan":"Depok Baru","tingkat_keyakinan":"RENDAH","n_titik_misi":0,"data_source":"predicted","zona_izin_komersial":null,"indeks_churn":null,"harga_sewa_median":null,"harga_sewa_per_m2":null,"belanja_per_jam":null,"njop_m2":null,"opportunity_score":45.3,"hidden_gem_score":null,"kuadran":"HIDDEN_GEM"}},{"type":"Feature","id":"898c10700cbffff","geometry":{"type":"Polygon","coordinates":[[[106.832221,-6.379518],[106.831805,-6.377786],[106.830031,-6.377352],[106.828673,-6.378649],[106.829089,-6.38038],[106.830863,-6.380814],[106.832221,-6.379518]]]},"properties":{"h3_index":"898c10700cbffff","kawasan":"Depok Baru","tingkat_keyakinan":"RENDAH","n_titik_misi":1,"data_source":"observed","zona_izin_komersial":null,"indeks_churn":null,"harga_sewa_median":null,"harga_sewa_per_m2":null,"belanja_per_jam":null,"njop_m2":null,"opportunity_score":45.1,"hidden_gem_score":0.514332811057245,"kuadran":"HIDDEN_GEM"}},{"type":"Feature","id":"898c10700cfffff","geometry":{"type":"Polygon","coordinates":[[[106.829089,-6.38038],[106.828673,-6.378649],[106.826899,-6.378214],[106.825541,-6.379511],[106.825957,-6.381242],[106.827731,-6.381677],[106.829089,-6.38038]]]},"properties":{"h3_index":"898c10700cfffff","kawasan":"Depok Baru","tingkat_keyakinan":"RENDAH","n_titik_misi":0,"data_source":"predicted","zona_izin_komersial":null,"indeks_churn":null,"harga_sewa_median":null,"harga_sewa_per_m2":null,"belanja_per_jam":null,"njop_m2":null,"opportunity_score":42.6,"hidden_gem_score":null,"kuadran":"HINDARI"}},{"type":"Feature","id":"898c10700d3ffff","geometry":{"type":"Polygon","coordinates":[[[106.83347,-6.384711],[106.833054,-6.38298],[106.831279,-6.382546],[106.829922,-6.383842],[106.830338,-6.385574],[106.832112,-6.386008],[106.83347,-6.384711]]]},"properties":{"h3_index":"898c10700d3ffff","kawasan":"Depok Baru","tingkat_keyakinan":"RENDAH","n_titik_misi":0,"data_source":"predicted","zona_izin_komersial":null,"indeks_churn":null,"harga_sewa_median":null,"harga_sewa_per_m2":null,"belanja_per_jam":null,"njop_m2":null,"opportunity_score":43.2,"hidden_gem_score":null,"kuadran":"HINDARI"}},{"type":"Feature","id":"898c10700d7ffff","geometry":{"type":"Polygon","coordinates":[[[106.830338,-6.385574],[106.829922,-6.383842],[106.828147,-6.383408],[106.826789,-6.384705],[106.827206,-6.386436],[106.82898,-6.38687],[106.830338,-6.385574]]]},"properties":{"h3_index":"898c10700d7ffff","kawasan":"Depok Baru","tingkat_keyakinan":"RENDAH","n_titik_misi":0,"data_source":"predicted","zona_izin_komersial":null,"indeks_churn":null,"harga_sewa_median":null,"harga_sewa_per_m2":null,"belanja_per_jam":null,"njop_m2":null,"opportunity_score":56.6,"hidden_gem_score":null,"kuadran":"HIDDEN_GEM"}},{"type":"Feature","id":"898c10700dbffff","geometry":{"type":"Polygon","coordinates":[[[106.834411,-6.381683],[106.833995,-6.379952],[106.832221,-6.379518],[106.830863,-6.380814],[106.831279,-6.382546],[106.833054,-6.38298],[106.834411,-6.381683]]]},"properties":{"h3_index":"898c10700dbffff","kawasan":"Depok Baru","tingkat_keyakinan":"RENDAH","n_titik_misi":0,"data_source":"predicted","zona_izin_komersial":null,"indeks_churn":null,"harga_sewa_median":null,"harga_sewa_per_m2":null,"belanja_per_jam":null,"njop_m2":null,"opportunity_score":39.8,"hidden_gem_score":null,"kuadran":"JEBAKAN_GENGSI"}},{"type":"Feature","id":"898c1070113ffff","geometry":{"type":"Polygon","coordinates":[[[106.803089,-6.390307],[106.802673,-6.388575],[106.800899,-6.388141],[106.79954,-6.389438],[106.799957,-6.391169],[106.801731,-6.391603],[106.803089,-6.390307]]]},"properties":{"h3_index":"898c1070113ffff","kawasan":"Depok Baru","tingkat_keyakinan":"RENDAH","n_titik_misi":0,"data_source":"predicted","zona_izin_komersial":null,"indeks_churn":null,"harga_sewa_median":null,"harga_sewa_per_m2":null,"belanja_per_jam":null,"njop_m2":null,"opportunity_score":37.2,"hidden_gem_score":null,"kuadran":"HINDARI"}},{"type":"Feature","id":"898c107011bffff","geometry":{"type":"Polygon","coordinates":[[[106.804031,-6.387279],[106.803615,-6.385547],[106.80184,-6.385113],[106.800482,-6.38641],[106.800899,-6.388141],[106.802673,-6.388575],[106.804031,-6.387279]]]},"properties":{"h3_index":"898c107011bffff","kawasan":"Depok Baru","tingkat_keyakinan":"RENDAH","n_titik_misi":0,"data_source":"predicted","zona_izin_komersial":null,"indeks_churn":null,"harga_sewa_median":null,"harga_sewa_per_m2":null,"belanja_per_jam":null,"njop_m2":null,"opportunity_score":37.7,"hidden_gem_score":null,"kuadran":"HINDARI"}},{"type":"Feature","id":"898c1070143ffff","geometry":{"type":"Polygon","coordinates":[[[106.805915,-6.381222],[106.805498,-6.379491],[106.803724,-6.379056],[106.802366,-6.380353],[106.802782,-6.382085],[106.804556,-6.382519],[106.805915,-6.381222]]]},"properties":{"h3_index":"898c1070143ffff","kawasan":"Depok Baru","tingkat_keyakinan":"RENDAH","n_titik_misi":0,"data_source":"predicted","zona_izin_komersial":null,"indeks_churn":null,"harga_sewa_median":null,"harga_sewa_per_m2":null,"belanja_per_jam":null,"njop_m2":null,"opportunity_score":36.9,"hidden_gem_score":null,"kuadran":"JEBAKAN_GENGSI"}},{"type":"Feature","id":"898c107014bffff","geometry":{"type":"Polygon","coordinates":[[[106.806856,-6.378194],[106.80644,-6.376462],[106.804665,-6.376028],[106.803307,-6.377325],[106.803724,-6.379056],[106.805498,-6.379491],[106.806856,-6.378194]]]},"properties":{"h3_index":"898c107014bffff","kawasan":"Depok Baru","tingkat_keyakinan":"RENDAH","n_titik_misi":0,"data_source":"predicted","zona_izin_komersial":null,"indeks_churn":null,"harga_sewa_median":null,"harga_sewa_per_m2":null,"belanja_per_jam":null,"njop_m2":null,"opportunity_score":35.9,"hidden_gem_score":null,"kuadran":"JEBAKAN_GENGSI"}},{"type":"Feature","id":"898c1070153ffff","geometry":{"type":"Polygon","coordinates":[[[106.808105,-6.383388],[106.807689,-6.381657],[106.805915,-6.381222],[106.804556,-6.382519],[106.804973,-6.38425],[106.806747,-6.384685],[106.808105,-6.383388]]]},"properties":{"h3_index":"898c1070153ffff","kawasan":"Depok Baru","tingkat_keyakinan":"RENDAH","n_titik_misi":0,"data_source":"predicted","zona_izin_komersial":null,"indeks_churn":null,"harga_sewa_median":null,"harga_sewa_per_m2":null,"belanja_per_jam":null,"njop_m2":null,"opportunity_score":38.7,"hidden_gem_score":null,"kuadran":"JEBAKAN_GENGSI"}},{"type":"Feature","id":"898c1070157ffff","geometry":{"type":"Polygon","coordinates":[[[106.804973,-6.38425],[106.804556,-6.382519],[106.802782,-6.382085],[106.801424,-6.383381],[106.80184,-6.385113],[106.803615,-6.385547],[106.804973,-6.38425]]]},"properties":{"h3_index":"898c1070157ffff","kawasan":"Depok Baru","tingkat_keyakinan":"RENDAH","n_titik_misi":0,"data_source":"predicted","zona_izin_komersial":null,"indeks_churn":null,"harga_sewa_median":null,"harga_sewa_per_m2":null,"belanja_per_jam":null,"njop_m2":null,"opportunity_score":37.1,"hidden_gem_score":null,"kuadran":"HINDARI"}},{"type":"Feature","id":"898c107015bffff","geometry":{"type":"Polygon","coordinates":[[[106.809047,-6.38036],[106.808631,-6.378628],[106.806856,-6.378194],[106.805498,-6.379491],[106.805915,-6.381222],[106.807689,-6.381657],[106.809047,-6.38036]]]},"properties":{"h3_index":"898c107015bffff","kawasan":"Depok Baru","tingkat_keyakinan":"RENDAH","n_titik_misi":0,"data_source":"predicted","zona_izin_komersial":null,"indeks_churn":null,"harga_sewa_median":null,"harga_sewa_per_m2":null,"belanja_per_jam":null,"njop_m2":null,"opportunity_score":38.2,"hidden_gem_score":null,"kuadran":"JEBAKAN_GENGSI"}},{"type":"Feature","id":"898c1070183ffff","geometry":{"type":"Polygon","coordinates":[[[106.804338,-6.3955],[106.803922,-6.393769],[106.802148,-6.393335],[106.80079,-6.394631],[106.801206,-6.396363],[106.80298,-6.396797],[106.804338,-6.3955]]]},"properties":{"h3_index":"898c1070183ffff","kawasan":"Depok Baru","tingkat_keyakinan":"RENDAH","n_titik_misi":0,"data_source":"predicted","zona_izin_komersial":null,"indeks_churn":null,"harga_sewa_median":null,"harga_sewa_per_m2":null,"belanja_per_jam":null,"njop_m2":null,"opportunity_score":34.6,"hidden_gem_score":null,"kuadran":"JEBAKAN_GENGSI"}},{"type":"Feature","id":"898c1070187ffff","geometry":{"type":"Polygon","coordinates":[[[106.801206,-6.396363],[106.80079,-6.394631],[106.799015,-6.394197],[106.797657,-6.395494],[106.798073,-6.397225],[106.799848,-6.397659],[106.801206,-6.396363]]]},"properties":{"h3_index":"898c1070187ffff","kawasan":"Depok Baru","tingkat_keyakinan":"RENDAH","n_titik_misi":0,"data_source":"predicted","zona_izin_komersial":null,"indeks_churn":null,"harga_sewa_median":null,"harga_sewa_per_m2":null,"belanja_per_jam":null,"njop_m2":null,"opportunity_score":31.1,"hidden_gem_score":null,"kuadran":"JEBAKAN_GENGSI"}},{"type":"Feature","id":"898c107018bffff","geometry":{"type":"Polygon","coordinates":[[[106.80528,-6.392472],[106.804864,-6.390741],[106.803089,-6.390307],[106.801731,-6.391603],[106.802148,-6.393335],[106.803922,-6.393769],[106.80528,-6.392472]]]},"properties":{"h3_index":"898c107018bffff","kawasan":"Depok Baru","tingkat_keyakinan":"RENDAH","n_titik_misi":0,"data_source":"predicted","zona_izin_komersial":null,"indeks_churn":null,"harga_sewa_median":null,"harga_sewa_per_m2":null,"belanja_per_jam":null,"njop_m2":null,"opportunity_score":38.9,"hidden_gem_score":null,"kuadran":"JEBAKAN_GENGSI"}},{"type":"Feature","id":"898c107018fffff","geometry":{"type":"Polygon","coordinates":[[[106.802148,-6.393335],[106.801731,-6.391603],[106.799957,-6.391169],[106.798599,-6.392466],[106.799015,-6.394197],[106.80079,-6.394631],[106.802148,-6.393335]]]},"properties":{"h3_index":"898c107018fffff","kawasan":"Depok Baru","tingkat_keyakinan":"RENDAH","n_titik_misi":0,"data_source":"predicted","zona_izin_komersial":null,"indeks_churn":null,"harga_sewa_median":null,"harga_sewa_per_m2":null,"belanja_per_jam":null,"njop_m2":null,"opportunity_score":35.3,"hidden_gem_score":null,"kuadran":"HINDARI"}},{"type":"Feature","id":"898c1070193ffff","geometry":{"type":"Polygon","coordinates":[[[106.806529,-6.397666],[106.806113,-6.395935],[106.804338,-6.3955],[106.80298,-6.396797],[106.803397,-6.398528],[106.805171,-6.398962],[106.806529,-6.397666]]]},"properties":{"h3_index":"898c1070193ffff","kawasan":"Depok Baru","tingkat_keyakinan":"RENDAH","n_titik_misi":0,"data_source":"predicted","zona_izin_komersial":null,"indeks_churn":null,"harga_sewa_median":null,"harga_sewa_per_m2":null,"belanja_per_jam":null,"njop_m2":null,"opportunity_score":47.0,"hidden_gem_score":null,"kuadran":"HIDDEN_GEM"}},{"type":"Feature","id":"898c1070197ffff","geometry":{"type":"Polygon","coordinates":[[[106.803397,-6.398528],[106.80298,-6.396797],[106.801206,-6.396363],[106.799848,-6.397659],[106.800264,-6.39939],[106.802039,-6.399825],[106.803397,-6.398528]]]},"properties":{"h3_index":"898c1070197ffff","kawasan":"Depok Baru","tingkat_keyakinan":"RENDAH","n_titik_misi":0,"data_source":"predicted","zona_izin_komersial":null,"indeks_churn":null,"harga_sewa_median":null,"harga_sewa_per_m2":null,"belanja_per_jam":null,"njop_m2":null,"opportunity_score":34.9,"hidden_gem_score":null,"kuadran":"HINDARI"}},{"type":"Feature","id":"898c107019bffff","geometry":{"type":"Polygon","coordinates":[[[106.807471,-6.394638],[106.807054,-6.392907],[106.80528,-6.392472],[106.803922,-6.393769],[106.804338,-6.3955],[106.806113,-6.395935],[106.807471,-6.394638]]]},"properties":{"h3_index":"898c107019bffff","kawasan":"Depok Baru","tingkat_keyakinan":"RENDAH","n_titik_misi":0,"data_source":"predicted","zona_izin_komersial":null,"indeks_churn":null,"harga_sewa_median":null,"harga_sewa_per_m2":null,"belanja_per_jam":null,"njop_m2":null,"opportunity_score":39.5,"hidden_gem_score":null,"kuadran":"JEBAKAN_GENGSI"}},{"type":"Feature","id":"898c10701c3ffff","geometry":{"type":"Polygon","coordinates":[[[106.809354,-6.388582],[106.808938,-6.386851],[106.807163,-6.386416],[106.805805,-6.387713],[106.806222,-6.389444],[106.807996,-6.389879],[106.809354,-6.388582]]]},"properties":{"h3_index":"898c10701c3ffff","kawasan":"Depok Baru","tingkat_keyakinan":"RENDAH","n_titik_misi":0,"data_source":"predicted","zona_izin_komersial":null,"indeks_churn":null,"harga_sewa_median":null,"harga_sewa_per_m2":null,"belanja_per_jam":null,"njop_m2":null,"opportunity_score":41.2,"hidden_gem_score":null,"kuadran":"HINDARI"}},{"type":"Feature","id":"898c10701c7ffff","geometry":{"type":"Polygon","coordinates":[[[106.806222,-6.389444],[106.805805,-6.387713],[106.804031,-6.387279],[106.802673,-6.388575],[106.803089,-6.390307],[106.804864,-6.390741],[106.806222,-6.389444]]]},"properties":{"h3_index":"898c10701c7ffff","kawasan":"Depok Baru","tingkat_keyakinan":"RENDAH","n_titik_misi":0,"data_source":"predicted","zona_izin_komersial":null,"indeks_churn":null,"harga_sewa_median":null,"harga_sewa_per_m2":null,"belanja_per_jam":null,"njop_m2":null,"opportunity_score":38.1,"hidden_gem_score":null,"kuadran":"JEBAKAN_GENGSI"}},{"type":"Feature","id":"898c10701cbffff","geometry":{"type":"Polygon","coordinates":[[[106.810296,-6.385554],[106.80988,-6.383823],[106.808105,-6.383388],[106.806747,-6.384685],[106.807163,-6.386416],[106.808938,-6.386851],[106.810296,-6.385554]]]},"properties":{"h3_index":"898c10701cbffff","kawasan":"Depok Baru","tingkat_keyakinan":"RENDAH","n_titik_misi":0,"data_source":"predicted","zona_izin_komersial":null,"indeks_churn":null,"harga_sewa_median":null,"harga_sewa_per_m2":null,"belanja_per_jam":null,"njop_m2":null,"opportunity_score":41.2,"hidden_gem_score":null,"kuadran":"HINDARI"}},{"type":"Feature","id":"898c10701cfffff","geometry":{"type":"Polygon","coordinates":[[[106.807163,-6.386416],[106.806747,-6.384685],[106.804973,-6.38425],[106.803615,-6.385547],[106.804031,-6.387279],[106.805805,-6.387713],[106.807163,-6.386416]]]},"properties":{"h3_index":"898c10701cfffff","kawasan":"Depok Baru","tingkat_keyakinan":"RENDAH","n_titik_misi":0,"data_source":"predicted","zona_izin_komersial":null,"indeks_churn":null,"harga_sewa_median":null,"harga_sewa_per_m2":null,"belanja_per_jam":null,"njop_m2":null,"opportunity_score":39.4,"hidden_gem_score":null,"kuadran":"JEBAKAN_GENGSI"}},{"type":"Feature","id":"898c10701d3ffff","geometry":{"type":"Polygon","coordinates":[[[106.811545,-6.390748],[106.811128,-6.389016],[106.809354,-6.388582],[106.807996,-6.389879],[106.808412,-6.39161],[106.810187,-6.392044],[106.811545,-6.390748]]]},"properties":{"h3_index":"898c10701d3ffff","kawasan":"Depok Baru","tingkat_keyakinan":"RENDAH","n_titik_misi":0,"data_source":"predicted","zona_izin_komersial":null,"indeks_churn":null,"harga_sewa_median":null,"harga_sewa_per_m2":null,"belanja_per_jam":null,"njop_m2":null,"opportunity_score":42.3,"hidden_gem_score":null,"kuadran":"JEBAKAN_GENGSI"}},{"type":"Feature","id":"898c10701d7ffff","geometry":{"type":"Polygon","coordinates":[[[106.808412,-6.39161],[106.807996,-6.389879],[106.806222,-6.389444],[106.804864,-6.390741],[106.80528,-6.392472],[106.807054,-6.392907],[106.808412,-6.39161]]]},"properties":{"h3_index":"898c10701d7ffff","kawasan":"Depok Baru","tingkat_keyakinan":"RENDAH","n_titik_misi":0,"data_source":"predicted","zona_izin_komersial":null,"indeks_churn":null,"harga_sewa_median":null,"harga_sewa_per_m2":null,"belanja_per_jam":null,"njop_m2":null,"opportunity_score":40.9,"hidden_gem_score":null,"kuadran":"JEBAKAN_GENGSI"}},{"type":"Feature","id":"898c10701dbffff","geometry":{"type":"Polygon","coordinates":[[[106.812486,-6.38772],[106.81207,-6.385988],[106.810296,-6.385554],[106.808938,-6.386851],[106.809354,-6.388582],[106.811128,-6.389016],[106.812486,-6.38772]]]},"properties":{"h3_index":"898c10701dbffff","kawasan":"Depok Baru","tingkat_keyakinan":"RENDAH","n_titik_misi":0,"data_source":"predicted","zona_izin_komersial":null,"indeks_churn":null,"harga_sewa_median":null,"harga_sewa_per_m2":null,"belanja_per_jam":null,"njop_m2":null,"opportunity_score":43.3,"hidden_gem_score":null,"kuadran":"JEBAKAN_GENGSI"}},{"type":"Feature","id":"898c1070393ffff","geometry":{"type":"Polygon","coordinates":[[[106.813121,-6.376469],[106.812705,-6.374738],[106.810931,-6.374303],[106.809572,-6.3756],[106.809989,-6.377332],[106.811763,-6.377766],[106.813121,-6.376469]]]},"properties":{"h3_index":"898c1070393ffff","kawasan":"Depok Baru","tingkat_keyakinan":"RENDAH","n_titik_misi":0,"data_source":"predicted","zona_izin_komersial":null,"indeks_churn":null,"harga_sewa_median":null,"harga_sewa_per_m2":null,"belanja_per_jam":null,"njop_m2":null,"opportunity_score":38.3,"hidden_gem_score":null,"kuadran":"HINDARI"}},{"type":"Feature","id":"898c1070397ffff","geometry":{"type":"Polygon","coordinates":[[[106.809989,-6.377332],[106.809572,-6.3756],[106.807798,-6.375166],[106.80644,-6.376462],[106.806856,-6.378194],[106.808631,-6.378628],[106.809989,-6.377332]]]},"properties":{"h3_index":"898c1070397ffff","kawasan":"Depok Baru","tingkat_keyakinan":"RENDAH","n_titik_misi":0,"data_source":"predicted","zona_izin_komersial":null,"indeks_churn":null,"harga_sewa_median":null,"harga_sewa_per_m2":null,"belanja_per_jam":null,"njop_m2":null,"opportunity_score":38.1,"hidden_gem_score":null,"kuadran":"HINDARI"}},{"type":"Feature","id":"898c1070407ffff","geometry":{"type":"Polygon","coordinates":[[[106.835024,-6.398125],[106.834608,-6.396394],[106.832834,-6.39596],[106.831476,-6.397257],[106.831893,-6.398987],[106.833666,-6.399422],[106.835024,-6.398125]]]},"properties":{"h3_index":"898c1070407ffff","kawasan":"Depok Baru","tingkat_keyakinan":"RENDAH","n_titik_misi":0,"data_source":"predicted","zona_izin_komersial":null,"indeks_churn":null,"harga_sewa_median":null,"harga_sewa_per_m2":null,"belanja_per_jam":null,"njop_m2":null,"opportunity_score":34.2,"hidden_gem_score":null,"kuadran":"JEBAKAN_GENGSI"}},{"type":"Feature","id":"898c107040fffff","geometry":{"type":"Polygon","coordinates":[[[106.835966,-6.395097],[106.83555,-6.393366],[106.833776,-6.392932],[106.832418,-6.394229],[106.832834,-6.39596],[106.834608,-6.396394],[106.835966,-6.395097]]]},"properties":{"h3_index":"898c107040fffff","kawasan":"Depok Baru","tingkat_keyakinan":"RENDAH","n_titik_misi":0,"data_source":"predicted","zona_izin_komersial":null,"indeks_churn":null,"harga_sewa_median":null,"harga_sewa_per_m2":null,"belanja_per_jam":null,"njop_m2":null,"opportunity_score":30.9,"hidden_gem_score":null,"kuadran":"JEBAKAN_GENGSI"}},{"type":"Feature","id":"898c1070423ffff","geometry":{"type":"Polygon","coordinates":[[[106.829702,-6.396822],[106.829286,-6.395091],[106.827512,-6.394657],[106.826154,-6.395954],[106.82657,-6.397685],[106.828345,-6.398119],[106.829702,-6.396822]]]},"properties":{"h3_index":"898c1070423ffff","kawasan":"Depok Baru","tingkat_keyakinan":"RENDAH","n_titik_misi":0,"data_source":"predicted","zona_izin_komersial":null,"indeks_churn":null,"harga_sewa_median":null,"harga_sewa_per_m2":null,"belanja_per_jam":null,"njop_m2":null,"opportunity_score":37.7,"hidden_gem_score":null,"kuadran":"HINDARI"}},{"type":"Feature","id":"898c1070427ffff","geometry":{"type":"Polygon","coordinates":[[[106.82657,-6.397685],[106.826154,-6.395954],[106.82438,-6.395519],[106.823022,-6.396816],[106.823439,-6.398547],[106.825213,-6.398981],[106.82657,-6.397685]]]},"properties":{"h3_index":"898c1070427ffff","kawasan":"Depok Baru","tingkat_keyakinan":"RENDAH","n_titik_misi":0,"data_source":"predicted","zona_izin_komersial":null,"indeks_churn":null,"harga_sewa_median":null,"harga_sewa_per_m2":null,"belanja_per_jam":null,"njop_m2":null,"opportunity_score":41.2,"hidden_gem_score":null,"kuadran":"HINDARI"}},{"type":"Feature","id":"898c107042bffff","geometry":{"type":"Polygon","coordinates":[[[106.830644,-6.393795],[106.830228,-6.392064],[106.828454,-6.391629],[106.827096,-6.392926],[106.827512,-6.394657],[106.829286,-6.395091],[106.830644,-6.393795]]]},"properties":{"h3_index":"898c107042bffff","kawasan":"Depok Baru","tingkat_keyakinan":"RENDAH","n_titik_misi":0,"data_source":"predicted","zona_izin_komersial":null,"indeks_churn":null,"harga_sewa_median":null,"harga_sewa_per_m2":null,"belanja_per_jam":null,"njop_m2":null,"opportunity_score":42.7,"hidden_gem_score":null,"kuadran":"JEBAKAN_GENGSI"}},{"type":"Feature","id":"898c107042fffff","geometry":{"type":"Polygon","coordinates":[[[106.827512,-6.394657],[106.827096,-6.392926],[106.825322,-6.392492],[106.823964,-6.393788],[106.82438,-6.395519],[106.826154,-6.395954],[106.827512,-6.394657]]]},"properties":{"h3_index":"898c107042fffff","kawasan":"Depok Baru","tingkat_keyakinan":"RENDAH","n_titik_misi":0,"data_source":"predicted","zona_izin_komersial":null,"indeks_churn":null,"harga_sewa_median":null,"harga_sewa_per_m2":null,"belanja_per_jam":null,"njop_m2":null,"opportunity_score":47.6,"hidden_gem_score":null,"kuadran":"HIDDEN_GEM"}},{"type":"Feature","id":"898c1070433ffff","geometry":{"type":"Polygon","coordinates":[[[106.831893,-6.398987],[106.831476,-6.397257],[106.829702,-6.396822],[106.828345,-6.398119],[106.828761,-6.39985],[106.830535,-6.400284],[106.831893,-6.398987]]]},"properties":{"h3_index":"898c1070433ffff","kawasan":"Depok Baru","tingkat_keyakinan":"RENDAH","n_titik_misi":0,"data_source":"predicted","zona_izin_komersial":null,"indeks_churn":null,"harga_sewa_median":null,"harga_sewa_per_m2":null,"belanja_per_jam":null,"njop_m2":null,"opportunity_score":36.6,"hidden_gem_score":null,"kuadran":"HINDARI"}},{"type":"Feature","id":"898c1070437ffff","geometry":{"type":"Polygon","coordinates":[[[106.828761,-6.39985],[106.828345,-6.398119],[106.82657,-6.397685],[106.825213,-6.398981],[106.825629,-6.400712],[106.827403,-6.401146],[106.828761,-6.39985]]]},"properties":{"h3_index":"898c1070437ffff","kawasan":"Depok Baru","tingkat_keyakinan":"RENDAH","n_titik_misi":1,"data_source":"observed","zona_izin_komersial":null,"indeks_churn":null,"harga_sewa_median":null,"harga_sewa_per_m2":null,"belanja_per_jam":null,"njop_m2":null,"opportunity_score":37.1,"hidden_gem_score":null,"kuadran":"HINDARI"}},{"type":"Feature","id":"898c107043bffff","geometry":{"type":"Polygon","coordinates":[[[106.832834,-6.39596],[106.832418,-6.394229],[106.830644,-6.393795],[106.829286,-6.395091],[106.829702,-6.396822],[106.831476,-6.397257],[106.832834,-6.39596]]]},"properties":{"h3_index":"898c107043bffff","kawasan":"Depok Baru","tingkat_keyakinan":"RENDAH","n_titik_misi":0,"data_source":"predicted","zona_izin_komersial":null,"indeks_churn":null,"harga_sewa_median":null,"harga_sewa_per_m2":null,"belanja_per_jam":null,"njop_m2":null,"opportunity_score":40.4,"hidden_gem_score":null,"kuadran":"HINDARI"}},{"type":"Feature","id":"898c1070463ffff","geometry":{"type":"Polygon","coordinates":[[[106.834718,-6.389904],[106.834302,-6.388173],[106.832528,-6.387739],[106.83117,-6.389036],[106.831586,-6.390767],[106.83336,-6.391201],[106.834718,-6.389904]]]},"properties":{"h3_index":"898c1070463ffff","kawasan":"Depok Baru","tingkat_keyakinan":"RENDAH","n_titik_misi":0,"data_source":"predicted","zona_izin_komersial":null,"indeks_churn":null,"harga_sewa_median":null,"harga_sewa_per_m2":null,"belanja_per_jam":null,"njop_m2":null,"opportunity_score":41.4,"hidden_gem_score":null,"kuadran":"JEBAKAN_GENGSI"}},{"type":"Feature","id":"898c1070467ffff","geometry":{"type":"Polygon","coordinates":[[[106.831586,-6.390767],[106.83117,-6.389036],[106.829396,-6.388601],[106.828038,-6.389898],[106.828454,-6.391629],[106.830228,-6.392064],[106.831586,-6.390767]]]},"properties":{"h3_index":"898c1070467ffff","kawasan":"Depok Baru","tingkat_keyakinan":"RENDAH","n_titik_misi":0,"data_source":"predicted","zona_izin_komersial":null,"indeks_churn":null,"harga_sewa_median":null,"harga_sewa_per_m2":null,"belanja_per_jam":null,"njop_m2":null,"opportunity_score":42.9,"hidden_gem_score":null,"kuadran":"JEBAKAN_GENGSI"}},{"type":"Feature","id":"898c107046bffff","geometry":{"type":"Polygon","coordinates":[[[106.83566,-6.386877],[106.835244,-6.385146],[106.83347,-6.384711],[106.832112,-6.386008],[106.832528,-6.387739],[106.834302,-6.388173],[106.83566,-6.386877]]]},"properties":{"h3_index":"898c107046bffff","kawasan":"Depok Baru","tingkat_keyakinan":"RENDAH","n_titik_misi":0,"data_source":"predicted","zona_izin_komersial":null,"indeks_churn":null,"harga_sewa_median":null,"harga_sewa_per_m2":null,"belanja_per_jam":null,"njop_m2":null,"opportunity_score":37.4,"hidden_gem_score":null,"kuadran":"JEBAKAN_GENGSI"}},{"type":"Feature","id":"898c107046fffff","geometry":{"type":"Polygon","coordinates":[[[106.832528,-6.387739],[106.832112,-6.386008],[106.830338,-6.385574],[106.82898,-6.38687],[106.829396,-6.388601],[106.83117,-6.389036],[106.832528,-6.387739]]]},"properties":{"h3_index":"898c107046fffff","kawasan":"Depok Baru","tingkat_keyakinan":"RENDAH","n_titik_misi":0,"data_source":"predicted","zona_izin_komersial":null,"indeks_churn":null,"harga_sewa_median":null,"harga_sewa_per_m2":null,"belanja_per_jam":null,"njop_m2":null,"opportunity_score":43.0,"hidden_gem_score":null,"kuadran":"HINDARI"}},{"type":"Feature","id":"898c1070473ffff","geometry":{"type":"Polygon","coordinates":[[[106.836908,-6.39207],[106.836492,-6.390339],[106.834718,-6.389904],[106.83336,-6.391201],[106.833776,-6.392932],[106.83555,-6.393366],[106.836908,-6.39207]]]},"properties":{"h3_index":"898c1070473ffff","kawasan":"Depok Baru","tingkat_keyakinan":"RENDAH","n_titik_misi":0,"data_source":"predicted","zona_izin_komersial":null,"indeks_churn":null,"harga_sewa_median":null,"harga_sewa_per_m2":null,"belanja_per_jam":null,"njop_m2":null,"opportunity_score":29.4,"hidden_gem_score":null,"kuadran":"JEBAKAN_GENGSI"}},{"type":"Feature","id":"898c1070477ffff","geometry":{"type":"Polygon","coordinates":[[[106.833776,-6.392932],[106.83336,-6.391201],[106.831586,-6.390767],[106.830228,-6.392064],[106.830644,-6.393795],[106.832418,-6.394229],[106.833776,-6.392932]]]},"properties":{"h3_index":"898c1070477ffff","kawasan":"Depok Baru","tingkat_keyakinan":"RENDAH","n_titik_misi":0,"data_source":"predicted","zona_izin_komersial":null,"indeks_churn":null,"harga_sewa_median":null,"harga_sewa_per_m2":null,"belanja_per_jam":null,"njop_m2":null,"opportunity_score":41.1,"hidden_gem_score":null,"kuadran":"JEBAKAN_GENGSI"}},{"type":"Feature","id":"898c107047bffff","geometry":{"type":"Polygon","coordinates":[[[106.83785,-6.389042],[106.837434,-6.387311],[106.83566,-6.386877],[106.834302,-6.388173],[106.834718,-6.389904],[106.836492,-6.390339],[106.83785,-6.389042]]]},"properties":{"h3_index":"898c107047bffff","kawasan":"Depok Baru","tingkat_keyakinan":"RENDAH","n_titik_misi":0,"data_source":"predicted","zona_izin_komersial":null,"indeks_churn":null,"harga_sewa_median":null,"harga_sewa_per_m2":null,"belanja_per_jam":null,"njop_m2":null,"opportunity_score":29.4,"hidden_gem_score":null,"kuadran":"JEBAKAN_GENGSI"}},{"type":"Feature","id":"898c10704a3ffff","geometry":{"type":"Polygon","coordinates":[[[106.833141,-6.40418],[106.832725,-6.402449],[106.830951,-6.402015],[106.829593,-6.403312],[106.830009,-6.405042],[106.831783,-6.405477],[106.833141,-6.40418]]]},"properties":{"h3_index":"898c10704a3ffff","kawasan":"Depok Baru","tingkat_keyakinan":"RENDAH","n_titik_misi":0,"data_source":"predicted","zona_izin_komersial":null,"indeks_churn":null,"harga_sewa_median":null,"harga_sewa_per_m2":null,"belanja_per_jam":null,"njop_m2":null,"opportunity_score":34.3,"hidden_gem_score":null,"kuadran":"HINDARI"}},{"type":"Feature","id":"898c10704a7ffff","geometry":{"type":"Polygon","coordinates":[[[106.830009,-6.405042],[106.829593,-6.403312],[106.827819,-6.402877],[106.826461,-6.404174],[106.826877,-6.405905],[106.828651,-6.406339],[106.830009,-6.405042]]]},"properties":{"h3_index":"898c10704a7ffff","kawasan":"Depok Baru","tingkat_keyakinan":"RENDAH","n_titik_misi":0,"data_source":"predicted","zona_izin_komersial":null,"indeks_churn":null,"harga_sewa_median":null,"harga_sewa_per_m2":null,"belanja_per_jam":null,"njop_m2":null,"opportunity_score":35.5,"hidden_gem_score":null,"kuadran":"HINDARI"}},{"type":"Feature","id":"898c10704abffff","geometry":{"type":"Polygon","coordinates":[[[106.834083,-6.401153],[106.833666,-6.399422],[106.831893,-6.398987],[106.830535,-6.400284],[106.830951,-6.402015],[106.832725,-6.402449],[106.834083,-6.401153]]]},"properties":{"h3_index":"898c10704abffff","kawasan":"Depok Baru","tingkat_keyakinan":"RENDAH","n_titik_misi":0,"data_source":"predicted","zona_izin_komersial":null,"indeks_churn":null,"harga_sewa_median":null,"harga_sewa_per_m2":null,"belanja_per_jam":null,"njop_m2":null,"opportunity_score":35.8,"hidden_gem_score":null,"kuadran":"HINDARI"}},{"type":"Feature","id":"898c10704afffff","geometry":{"type":"Polygon","coordinates":[[[106.830951,-6.402015],[106.830535,-6.400284],[106.828761,-6.39985],[106.827403,-6.401146],[106.827819,-6.402877],[106.829593,-6.403312],[106.830951,-6.402015]]]},"properties":{"h3_index":"898c10704afffff","kawasan":"Depok Baru","tingkat_keyakinan":"RENDAH","n_titik_misi":0,"data_source":"predicted","zona_izin_komersial":null,"indeks_churn":null,"harga_sewa_median":null,"harga_sewa_per_m2":null,"belanja_per_jam":null,"njop_m2":null,"opportunity_score":38.1,"hidden_gem_score":null,"kuadran":"HINDARI"}},{"type":"Feature","id":"898c1070503ffff","geometry":{"type":"Polygon","coordinates":[[[106.816233,-6.403299],[106.815816,-6.401568],[106.814042,-6.401134],[106.812684,-6.402431],[106.813101,-6.404162],[106.814875,-6.404596],[106.816233,-6.403299]]]},"properties":{"h3_index":"898c1070503ffff","kawasan":"Depok Baru","tingkat_keyakinan":"RENDAH","n_titik_misi":0,"data_source":"predicted","zona_izin_komersial":null,"indeks_churn":null,"harga_sewa_median":null,"harga_sewa_per_m2":null,"belanja_per_jam":null,"njop_m2":null,"opportunity_score":44.8,"hidden_gem_score":null,"kuadran":"HIDDEN_GEM"}},{"type":"Feature","id":"898c1070507ffff","geometry":{"type":"Polygon","coordinates":[[[106.813101,-6.404162],[106.812684,-6.402431],[106.81091,-6.401997],[106.809552,-6.403293],[106.809968,-6.405024],[106.811743,-6.405458],[106.813101,-6.404162]]]},"properties":{"h3_index":"898c1070507ffff","kawasan":"Depok Baru","tingkat_keyakinan":"RENDAH","n_titik_misi":0,"data_source":"predicted","zona_izin_komersial":null,"indeks_churn":null,"harga_sewa_median":null,"harga_sewa_per_m2":null,"belanja_per_jam":null,"njop_m2":null,"opportunity_score":38.1,"hidden_gem_score":null,"kuadran":"JEBAKAN_GENGSI"}},{"type":"Feature","id":"898c107050bffff","geometry":{"type":"Polygon","coordinates":[[[106.817174,-6.400272],[106.816758,-6.398541],[106.814984,-6.398106],[106.813626,-6.399403],[106.814042,-6.401134],[106.815816,-6.401568],[106.817174,-6.400272]]]},"properties":{"h3_index":"898c107050bffff","kawasan":"Depok Baru","tingkat_keyakinan":"RENDAH","n_titik_misi":0,"data_source":"predicted","zona_izin_komersial":null,"indeks_churn":null,"harga_sewa_median":null,"harga_sewa_per_m2":null,"belanja_per_jam":null,"njop_m2":null,"opportunity_score":47.7,"hidden_gem_score":null,"kuadran":"HIDDEN_GEM"}},{"type":"Feature","id":"898c107050fffff","geometry":{"type":"Polygon","coordinates":[[[106.814042,-6.401134],[106.813626,-6.399403],[106.811852,-6.398969],[106.810494,-6.400266],[106.81091,-6.401997],[106.812684,-6.402431],[106.814042,-6.401134]]]},"properties":{"h3_index":"898c107050fffff","kawasan":"Depok Baru","tingkat_keyakinan":"RENDAH","n_titik_misi":0,"data_source":"predicted","zona_izin_komersial":null,"indeks_churn":null,"harga_sewa_median":null,"harga_sewa_per_m2":null,"belanja_per_jam":null,"njop_m2":null,"opportunity_score":40.8,"hidden_gem_score":null,"kuadran":"JEBAKAN_GENGSI"}},{"type":"Feature","id":"898c1070513ffff","geometry":{"type":"Polygon","coordinates":[[[106.818423,-6.405465],[106.818007,-6.403734],[106.816233,-6.403299],[106.814875,-6.404596],[106.815291,-6.406327],[106.817065,-6.406761],[106.818423,-6.405465]]]},"properties":{"h3_index":"898c1070513ffff","kawasan":"Depok Baru","tingkat_keyakinan":"RENDAH","n_titik_misi":0,"data_source":"predicted","zona_izin_komersial":null,"indeks_churn":null,"harga_sewa_median":null,"harga_sewa_per_m2":null,"belanja_per_jam":null,"njop_m2":null,"opportunity_score":45.5,"hidden_gem_score":null,"kuadran":"HIDDEN_GEM"}},{"type":"Feature","id":"898c1070517ffff","geometry":{"type":"Polygon","coordinates":[[[106.815291,-6.406327],[106.814875,-6.404596],[106.813101,-6.404162],[106.811743,-6.405458],[106.812159,-6.407189],[106.813933,-6.407624],[106.815291,-6.406327]]]},"properties":{"h3_index":"898c1070517ffff","kawasan":"Depok Baru","tingkat_keyakinan":"RENDAH","n_titik_misi":0,"data_source":"predicted","zona_izin_komersial":null,"indeks_churn":null,"harga_sewa_median":null,"harga_sewa_per_m2":null,"belanja_per_jam":null,"njop_m2":null,"opportunity_score":45.4,"hidden_gem_score":null,"kuadran":"HIDDEN_GEM"}},{"type":"Feature","id":"898c107051bffff","geometry":{"type":"Polygon","coordinates":[[[106.819365,-6.402437],[106.818949,-6.400706],[106.817174,-6.400272],[106.815816,-6.401568],[106.816233,-6.403299],[106.818007,-6.403734],[106.819365,-6.402437]]]},"properties":{"h3_index":"898c107051bffff","kawasan":"Depok Baru","tingkat_keyakinan":"RENDAH","n_titik_misi":0,"data_source":"predicted","zona_izin_komersial":null,"indeks_churn":null,"harga_sewa_median":null,"harga_sewa_per_m2":null,"belanja_per_jam":null,"njop_m2":null,"opportunity_score":53.9,"hidden_gem_score":null,"kuadran":"HIDDEN_GEM"}},{"type":"Feature","id":"898c1070523ffff","geometry":{"type":"Polygon","coordinates":[[[106.807778,-6.402859],[106.807362,-6.401128],[106.805587,-6.400694],[106.804229,-6.40199],[106.804646,-6.403721],[106.80642,-6.404156],[106.807778,-6.402859]]]},"properties":{"h3_index":"898c1070523ffff","kawasan":"Depok Baru","tingkat_keyakinan":"RENDAH","n_titik_misi":0,"data_source":"predicted","zona_izin_komersial":null,"indeks_churn":null,"harga_sewa_median":null,"harga_sewa_per_m2":null,"belanja_per_jam":null,"njop_m2":null,"opportunity_score":35.3,"hidden_gem_score":null,"kuadran":"JEBAKAN_GENGSI"}},{"type":"Feature","id":"898c107052bffff","geometry":{"type":"Polygon","coordinates":[[[106.80872,-6.399831],[106.808303,-6.3981],[106.806529,-6.397666],[106.805171,-6.398962],[106.805587,-6.400694],[106.807362,-6.401128],[106.80872,-6.399831]]]},"properties":{"h3_index":"898c107052bffff","kawasan":"Depok Baru","tingkat_keyakinan":"RENDAH","n_titik_misi":0,"data_source":"predicted","zona_izin_komersial":null,"indeks_churn":null,"harga_sewa_median":null,"harga_sewa_per_m2":null,"belanja_per_jam":null,"njop_m2":null,"opportunity_score":37.7,"hidden_gem_score":null,"kuadran":"JEBAKAN_GENGSI"}},{"type":"Feature","id":"898c107052fffff","geometry":{"type":"Polygon","coordinates":[[[106.805587,-6.400694],[106.805171,-6.398962],[106.803397,-6.398528],[106.802039,-6.399825],[106.802455,-6.401556],[106.804229,-6.40199],[106.805587,-6.400694]]]},"properties":{"h3_index":"898c107052fffff","kawasan":"Depok Baru","tingkat_keyakinan":"RENDAH","n_titik_misi":0,"data_source":"predicted","zona_izin_komersial":null,"indeks_churn":null,"harga_sewa_median":null,"harga_sewa_per_m2":null,"belanja_per_jam":null,"njop_m2":null,"opportunity_score":32.7,"hidden_gem_score":null,"kuadran":"HINDARI"}},{"type":"Feature","id":"898c1070533ffff","geometry":{"type":"Polygon","coordinates":[[[106.809968,-6.405024],[106.809552,-6.403293],[106.807778,-6.402859],[106.80642,-6.404156],[106.806836,-6.405886],[106.80861,-6.406321],[106.809968,-6.405024]]]},"properties":{"h3_index":"898c1070533ffff","kawasan":"Depok Baru","tingkat_keyakinan":"RENDAH","n_titik_misi":0,"data_source":"predicted","zona_izin_komersial":null,"indeks_churn":null,"harga_sewa_median":null,"harga_sewa_per_m2":null,"belanja_per_jam":null,"njop_m2":null,"opportunity_score":36.8,"hidden_gem_score":null,"kuadran":"HINDARI"}},{"type":"Feature","id":"898c107053bffff","geometry":{"type":"Polygon","coordinates":[[[106.81091,-6.401997],[106.810494,-6.400266],[106.80872,-6.399831],[106.807362,-6.401128],[106.807778,-6.402859],[106.809552,-6.403293],[106.81091,-6.401997]]]},"properties":{"h3_index":"898c107053bffff","kawasan":"Depok Baru","tingkat_keyakinan":"RENDAH","n_titik_misi":0,"data_source":"predicted","zona_izin_komersial":null,"indeks_churn":null,"harga_sewa_median":null,"harga_sewa_per_m2":null,"belanja_per_jam":null,"njop_m2":null,"opportunity_score":39.5,"hidden_gem_score":null,"kuadran":"HINDARI"}},{"type":"Feature","id":"898c1070543ffff","geometry":{"type":"Polygon","coordinates":[[[106.821248,-6.396382],[106.820832,-6.394651],[106.819058,-6.394216],[106.8177,-6.395513],[106.818116,-6.397244],[106.81989,-6.397678],[106.821248,-6.396382]]]},"properties":{"h3_index":"898c1070543ffff","kawasan":"Depok Baru","tingkat_keyakinan":"RENDAH","n_titik_misi":0,"data_source":"predicted","zona_izin_komersial":null,"indeks_churn":null,"harga_sewa_median":null,"harga_sewa_per_m2":null,"belanja_per_jam":null,"njop_m2":null,"opportunity_score":64.8,"hidden_gem_score":null,"kuadran":"HIDDEN_GEM"}},{"type":"Feature","id":"898c1070547ffff","geometry":{"type":"Polygon","coordinates":[[[106.818116,-6.397244],[106.8177,-6.395513],[106.815926,-6.395079],[106.814568,-6.396375],[106.814984,-6.398106],[106.816758,-6.398541],[106.818116,-6.397244]]]},"properties":{"h3_index":"898c1070547ffff","kawasan":"Depok Baru","tingkat_keyakinan":"RENDAH","n_titik_misi":0,"data_source":"predicted","zona_izin_komersial":null,"indeks_churn":null,"harga_sewa_median":null,"harga_sewa_per_m2":null,"belanja_per_jam":null,"njop_m2":null,"opportunity_score":41.6,"hidden_gem_score":null,"kuadran":"HINDARI"}},{"type":"Feature","id":"898c107054bffff","geometry":{"type":"Polygon","coordinates":[[[106.82219,-6.393354],[106.821774,-6.391623],[106.82,-6.391189],[106.818642,-6.392485],[106.819058,-6.394216],[106.820832,-6.394651],[106.82219,-6.393354]]]},"properties":{"h3_index":"898c107054bffff","kawasan":"Depok Baru","tingkat_keyakinan":"RENDAH","n_titik_misi":0,"data_source":"predicted","zona_izin_komersial":null,"indeks_churn":null,"harga_sewa_median":null,"harga_sewa_per_m2":null,"belanja_per_jam":null,"njop_m2":null,"opportunity_score":62.0,"hidden_gem_score":null,"kuadran":"HIDDEN_GEM"}},{"type":"Feature","id":"898c107054fffff","geometry":{"type":"Polygon","coordinates":[[[106.819058,-6.394216],[106.818642,-6.392485],[106.816867,-6.392051],[106.815509,-6.393348],[106.815926,-6.395079],[106.8177,-6.395513],[106.819058,-6.394216]]]},"properties":{"h3_index":"898c107054fffff","kawasan":"Depok Baru","tingkat_keyakinan":"RENDAH","n_titik_misi":0,"data_source":"predicted","zona_izin_komersial":null,"indeks_churn":null,"harga_sewa_median":null,"harga_sewa_per_m2":null,"belanja_per_jam":null,"njop_m2":null,"opportunity_score":53.6,"hidden_gem_score":null,"kuadran":"HIDDEN_GEM"}},{"type":"Feature","id":"898c1070553ffff","geometry":{"type":"Polygon","coordinates":[[[106.823439,-6.398547],[106.823022,-6.396816],[106.821248,-6.396382],[106.81989,-6.397678],[106.820306,-6.399409],[106.822081,-6.399844],[106.823439,-6.398547]]]},"properties":{"h3_index":"898c1070553ffff","kawasan":"Depok Baru","tingkat_keyakinan":"RENDAH","n_titik_misi":0,"data_source":"predicted","zona_izin_komersial":null,"indeks_churn":null,"harga_sewa_median":null,"harga_sewa_per_m2":null,"belanja_per_jam":null,"njop_m2":null,"opportunity_score":53.7,"hidden_gem_score":null,"kuadran":"HIDDEN_GEM"}},{"type":"Feature","id":"898c1070557ffff","geometry":{"type":"Polygon","coordinates":[[[106.820306,-6.399409],[106.81989,-6.397678],[106.818116,-6.397244],[106.816758,-6.398541],[106.817174,-6.400272],[106.818949,-6.400706],[106.820306,-6.399409]]]},"properties":{"h3_index":"898c1070557ffff","kawasan":"Depok Baru","tingkat_keyakinan":"RENDAH","n_titik_misi":0,"data_source":"predicted","zona_izin_komersial":null,"indeks_churn":null,"harga_sewa_median":null,"harga_sewa_per_m2":null,"belanja_per_jam":null,"njop_m2":null,"opportunity_score":60.8,"hidden_gem_score":null,"kuadran":"HIDDEN_GEM"}},{"type":"Feature","id":"898c107055bffff","geometry":{"type":"Polygon","coordinates":[[[106.82438,-6.395519],[106.823964,-6.393788],[106.82219,-6.393354],[106.820832,-6.394651],[106.821248,-6.396382],[106.823022,-6.396816],[106.82438,-6.395519]]]},"properties":{"h3_index":"898c107055bffff","kawasan":"Depok Baru","tingkat_keyakinan":"RENDAH","n_titik_misi":0,"data_source":"predicted","zona_izin_komersial":null,"indeks_churn":null,"harga_sewa_median":null,"harga_sewa_per_m2":null,"belanja_per_jam":null,"njop_m2":null,"opportunity_score":64.3,"hidden_gem_score":null,"kuadran":"HIDDEN_GEM"}},{"type":"Feature","id":"898c1070563ffff","geometry":{"type":"Polygon","coordinates":[[[106.812794,-6.395941],[106.812377,-6.39421],[106.810603,-6.393776],[106.809245,-6.395072],[106.809661,-6.396803],[106.811436,-6.397238],[106.812794,-6.395941]]]},"properties":{"h3_index":"898c1070563ffff","kawasan":"Depok Baru","tingkat_keyakinan":"RENDAH","n_titik_misi":0,"data_source":"predicted","zona_izin_komersial":null,"indeks_churn":null,"harga_sewa_median":null,"harga_sewa_per_m2":null,"belanja_per_jam":null,"njop_m2":null,"opportunity_score":42.2,"hidden_gem_score":null,"kuadran":"JEBAKAN_GENGSI"}},{"type":"Feature","id":"898c1070567ffff","geometry":{"type":"Polygon","coordinates":[[[106.809661,-6.396803],[106.809245,-6.395072],[106.807471,-6.394638],[106.806113,-6.395935],[106.806529,-6.397666],[106.808303,-6.3981],[106.809661,-6.396803]]]},"properties":{"h3_index":"898c1070567ffff","kawasan":"Depok Baru","tingkat_keyakinan":"RENDAH","n_titik_misi":0,"data_source":"predicted","zona_izin_komersial":null,"indeks_churn":null,"harga_sewa_median":null,"harga_sewa_per_m2":null,"belanja_per_jam":null,"njop_m2":null,"opportunity_score":48.0,"hidden_gem_score":null,"kuadran":"HIDDEN_GEM"}},{"type":"Feature","id":"898c107056bffff","geometry":{"type":"Polygon","coordinates":[[[106.813735,-6.392913],[106.813319,-6.391182],[106.811545,-6.390748],[106.810187,-6.392044],[106.810603,-6.393776],[106.812377,-6.39421],[106.813735,-6.392913]]]},"properties":{"h3_index":"898c107056bffff","kawasan":"Depok Baru","tingkat_keyakinan":"RENDAH","n_titik_misi":0,"data_source":"predicted","zona_izin_komersial":null,"indeks_churn":null,"harga_sewa_median":null,"harga_sewa_per_m2":null,"belanja_per_jam":null,"njop_m2":null,"opportunity_score":44.2,"hidden_gem_score":null,"kuadran":"PEMENANG_JELAS"}},{"type":"Feature","id":"898c107056fffff","geometry":{"type":"Polygon","coordinates":[[[106.810603,-6.393776],[106.810187,-6.392044],[106.808412,-6.39161],[106.807054,-6.392907],[106.807471,-6.394638],[106.809245,-6.395072],[106.810603,-6.393776]]]},"properties":{"h3_index":"898c107056fffff","kawasan":"Depok Baru","tingkat_keyakinan":"RENDAH","n_titik_misi":0,"data_source":"predicted","zona_izin_komersial":null,"indeks_churn":null,"harga_sewa_median":null,"harga_sewa_per_m2":null,"belanja_per_jam":null,"njop_m2":null,"opportunity_score":42.2,"hidden_gem_score":null,"kuadran":"JEBAKAN_GENGSI"}},{"type":"Feature","id":"898c1070573ffff","geometry":{"type":"Polygon","coordinates":[[[106.814984,-6.398106],[106.814568,-6.396375],[106.812794,-6.395941],[106.811436,-6.397238],[106.811852,-6.398969],[106.813626,-6.399403],[106.814984,-6.398106]]]},"properties":{"h3_index":"898c1070573ffff","kawasan":"Depok Baru","tingkat_keyakinan":"RENDAH","n_titik_misi":0,"data_source":"predicted","zona_izin_komersial":null,"indeks_churn":null,"harga_sewa_median":null,"harga_sewa_per_m2":null,"belanja_per_jam":null,"njop_m2":null,"opportunity_score":56.6,"hidden_gem_score":null,"kuadran":"HIDDEN_GEM"}},{"type":"Feature","id":"898c107057bffff","geometry":{"type":"Polygon","coordinates":[[[106.815926,-6.395079],[106.815509,-6.393348],[106.813735,-6.392913],[106.812377,-6.39421],[106.812794,-6.395941],[106.814568,-6.396375],[106.815926,-6.395079]]]},"properties":{"h3_index":"898c107057bffff","kawasan":"Depok Baru","tingkat_keyakinan":"RENDAH","n_titik_misi":0,"data_source":"predicted","zona_izin_komersial":null,"indeks_churn":null,"harga_sewa_median":null,"harga_sewa_per_m2":null,"belanja_per_jam":null,"njop_m2":null,"opportunity_score":60.9,"hidden_gem_score":null,"kuadran":"PEMENANG_JELAS"}},{"type":"Feature","id":"898c107058bffff","geometry":{"type":"Polygon","coordinates":[[[106.820613,-6.40763],[106.820197,-6.405899],[106.818423,-6.405465],[106.817065,-6.406761],[106.817481,-6.408492],[106.819255,-6.408926],[106.820613,-6.40763]]]},"properties":{"h3_index":"898c107058bffff","kawasan":"Depok Baru","tingkat_keyakinan":"RENDAH","n_titik_misi":0,"data_source":"predicted","zona_izin_komersial":null,"indeks_churn":null,"harga_sewa_median":null,"harga_sewa_per_m2":null,"belanja_per_jam":null,"njop_m2":null,"opportunity_score":56.6,"hidden_gem_score":null,"kuadran":"HIDDEN_GEM"}},{"type":"Feature","id":"898c107058fffff","geometry":{"type":"Polygon","coordinates":[[[106.817481,-6.408492],[106.817065,-6.406761],[106.815291,-6.406327],[106.813933,-6.407624],[106.814349,-6.409354],[106.816123,-6.409789],[106.817481,-6.408492]]]},"properties":{"h3_index":"898c107058fffff","kawasan":"Depok Baru","tingkat_keyakinan":"RENDAH","n_titik_misi":0,"data_source":"predicted","zona_izin_komersial":null,"indeks_churn":null,"harga_sewa_median":null,"harga_sewa_per_m2":null,"belanja_per_jam":null,"njop_m2":null,"opportunity_score":43.9,"hidden_gem_score":null,"kuadran":"HINDARI"}},{"type":"Feature","id":"898c10705abffff","geometry":{"type":"Polygon","coordinates":[[[106.812159,-6.407189],[106.811743,-6.405458],[106.809968,-6.405024],[106.80861,-6.406321],[106.809027,-6.408052],[106.810801,-6.408486],[106.812159,-6.407189]]]},"properties":{"h3_index":"898c10705abffff","kawasan":"Depok Baru","tingkat_keyakinan":"RENDAH","n_titik_misi":0,"data_source":"predicted","zona_izin_komersial":null,"indeks_churn":null,"harga_sewa_median":null,"harga_sewa_per_m2":null,"belanja_per_jam":null,"njop_m2":null,"opportunity_score":36.1,"hidden_gem_score":null,"kuadran":"JEBAKAN_GENGSI"}},{"type":"Feature","id":"898c10705c3ffff","geometry":{"type":"Polygon","coordinates":[[[106.824687,-6.40374],[106.824271,-6.402009],[106.822497,-6.401575],[106.821139,-6.402871],[106.821555,-6.404602],[106.823329,-6.405036],[106.824687,-6.40374]]]},"properties":{"h3_index":"898c10705c3ffff","kawasan":"Depok Baru","tingkat_keyakinan":"RENDAH","n_titik_misi":1,"data_source":"observed","zona_izin_komersial":null,"indeks_churn":null,"harga_sewa_median":null,"harga_sewa_per_m2":null,"belanja_per_jam":null,"njop_m2":null,"opportunity_score":54.6,"hidden_gem_score":0.712788024359912,"kuadran":"HIDDEN_GEM"}},{"type":"Feature","id":"898c10705cbffff","geometry":{"type":"Polygon","coordinates":[[[106.825629,-6.400712],[106.825213,-6.398981],[106.823439,-6.398547],[106.822081,-6.399844],[106.822497,-6.401575],[106.824271,-6.402009],[106.825629,-6.400712]]]},"properties":{"h3_index":"898c10705cbffff","kawasan":"Depok Baru","tingkat_keyakinan":"RENDAH","n_titik_misi":0,"data_source":"predicted","zona_izin_komersial":null,"indeks_churn":null,"harga_sewa_median":null,"harga_sewa_per_m2":null,"belanja_per_jam":null,"njop_m2":null,"opportunity_score":38.9,"hidden_gem_score":null,"kuadran":"HINDARI"}},{"type":"Feature","id":"898c10705cfffff","geometry":{"type":"Polygon","coordinates":[[[106.822497,-6.401575],[106.822081,-6.399844],[106.820306,-6.399409],[106.818949,-6.400706],[106.819365,-6.402437],[106.821139,-6.402871],[106.822497,-6.401575]]]},"properties":{"h3_index":"898c10705cfffff","kawasan":"Depok Baru","tingkat_keyakinan":"RENDAH","n_titik_misi":0,"data_source":"predicted","zona_izin_komersial":null,"indeks_churn":null,"harga_sewa_median":null,"harga_sewa_per_m2":null,"belanja_per_jam":null,"njop_m2":null,"opportunity_score":45.6,"hidden_gem_score":null,"kuadran":"HIDDEN_GEM"}},{"type":"Feature","id":"898c10705d3ffff","geometry":{"type":"Polygon","coordinates":[[[106.826877,-6.405905],[106.826461,-6.404174],[106.824687,-6.40374],[106.823329,-6.405036],[106.823745,-6.406767],[106.825519,-6.407201],[106.826877,-6.405905]]]},"properties":{"h3_index":"898c10705d3ffff","kawasan":"Depok Baru","tingkat_keyakinan":"RENDAH","n_titik_misi":0,"data_source":"predicted","zona_izin_komersial":null,"indeks_churn":null,"harga_sewa_median":null,"harga_sewa_per_m2":null,"belanja_per_jam":null,"njop_m2":null,"opportunity_score":36.2,"hidden_gem_score":null,"kuadran":"HINDARI"}},{"type":"Feature","id":"898c10705d7ffff","geometry":{"type":"Polygon","coordinates":[[[106.823745,-6.406767],[106.823329,-6.405036],[106.821555,-6.404602],[106.820197,-6.405899],[106.820613,-6.40763],[106.822387,-6.408064],[106.823745,-6.406767]]]},"properties":{"h3_index":"898c10705d7ffff","kawasan":"Depok Baru","tingkat_keyakinan":"RENDAH","n_titik_misi":0,"data_source":"predicted","zona_izin_komersial":null,"indeks_churn":null,"harga_sewa_median":null,"harga_sewa_per_m2":null,"belanja_per_jam":null,"njop_m2":null,"opportunity_score":33.9,"hidden_gem_score":null,"kuadran":"HINDARI"}},{"type":"Feature","id":"898c10706b7ffff","geometry":{"type":"Polygon","coordinates":[[[106.838792,-6.386014],[106.838376,-6.384283],[106.836602,-6.383849],[106.835244,-6.385146],[106.83566,-6.386877],[106.837434,-6.387311],[106.838792,-6.386014]]]},"properties":{"h3_index":"898c10706b7ffff","kawasan":"Depok Baru","tingkat_keyakinan":"RENDAH","n_titik_misi":0,"data_source":"predicted","zona_izin_komersial":null,"indeks_churn":null,"harga_sewa_median":null,"harga_sewa_per_m2":null,"belanja_per_jam":null,"njop_m2":null,"opportunity_score":25.7,"hidden_gem_score":null,"kuadran":"JEBAKAN_GENGSI"}},{"type":"Feature","id":"898c1070577ffff","geometry":{"type":"Polygon","coordinates":[[[106.811852,-6.398969],[106.811436,-6.397238],[106.809661,-6.396803],[106.808303,-6.3981],[106.80872,-6.399831],[106.810494,-6.400266],[106.811852,-6.398969]]]},"properties":{"h3_index":"898c1070577ffff","kawasan":"Depok Baru","tingkat_keyakinan":"RENDAH","n_titik_misi":0,"data_source":"predicted","zona_izin_komersial":null,"indeks_churn":null,"harga_sewa_median":null,"harga_sewa_per_m2":null,"belanja_per_jam":null,"njop_m2":null,"opportunity_score":47.6,"hidden_gem_score":null,"kuadran":"HIDDEN_GEM"}},{"type":"Feature","id":"898c10705bbffff","geometry":{"type":"Polygon","coordinates":[[[106.814349,-6.409354],[106.813933,-6.407624],[106.812159,-6.407189],[106.810801,-6.408486],[106.811217,-6.410217],[106.812991,-6.410651],[106.814349,-6.409354]]]},"properties":{"h3_index":"898c10705bbffff","kawasan":"Depok Baru","tingkat_keyakinan":"RENDAH","n_titik_misi":0,"data_source":"predicted","zona_izin_komersial":null,"indeks_churn":null,"harga_sewa_median":null,"harga_sewa_per_m2":null,"belanja_per_jam":null,"njop_m2":null,"opportunity_score":33.2,"hidden_gem_score":null,"kuadran":"JEBAKAN_GENGSI"}},{"type":"Feature","id":"898c10705c7ffff","geometry":{"type":"Polygon","coordinates":[[[106.821555,-6.404602],[106.821139,-6.402871],[106.819365,-6.402437],[106.818007,-6.403734],[106.818423,-6.405465],[106.820197,-6.405899],[106.821555,-6.404602]]]},"properties":{"h3_index":"898c10705c7ffff","kawasan":"Depok Baru","tingkat_keyakinan":"RENDAH","n_titik_misi":0,"data_source":"predicted","zona_izin_komersial":null,"indeks_churn":null,"harga_sewa_median":null,"harga_sewa_per_m2":null,"belanja_per_jam":null,"njop_m2":null,"opportunity_score":44.7,"hidden_gem_score":null,"kuadran":"PEMENANG_JELAS"}},{"type":"Feature","id":"898c10705dbffff","geometry":{"type":"Polygon","coordinates":[[[106.827819,-6.402877],[106.827403,-6.401146],[106.825629,-6.400712],[106.824271,-6.402009],[106.824687,-6.40374],[106.826461,-6.404174],[106.827819,-6.402877]]]},"properties":{"h3_index":"898c10705dbffff","kawasan":"Depok Baru","tingkat_keyakinan":"RENDAH","n_titik_misi":0,"data_source":"predicted","zona_izin_komersial":null,"indeks_churn":null,"harga_sewa_median":null,"harga_sewa_per_m2":null,"belanja_per_jam":null,"njop_m2":null,"opportunity_score":37.6,"hidden_gem_score":null,"kuadran":"HINDARI"}},{"type":"Feature","id":"898c10706a7ffff","geometry":{"type":"Polygon","coordinates":[[[106.836602,-6.383849],[106.836185,-6.382118],[106.834411,-6.381683],[106.833054,-6.38298],[106.83347,-6.384711],[106.835244,-6.385146],[106.836602,-6.383849]]]},"properties":{"h3_index":"898c10706a7ffff","kawasan":"Depok Baru","tingkat_keyakinan":"RENDAH","n_titik_misi":0,"data_source":"predicted","zona_izin_komersial":null,"indeks_churn":null,"harga_sewa_median":null,"harga_sewa_per_m2":null,"belanja_per_jam":null,"njop_m2":null,"opportunity_score":36.0,"hidden_gem_score":null,"kuadran":"JEBAKAN_GENGSI"}}]}