{"type":"FeatureCollection","features":[{"type":"Feature","id":"898c1079d2bffff","geometry":{"type":"Polygon","coordinates":[[[106.8308,-6.199773],[106.830383,-6.198038],[106.828608,-6.197602],[106.827249,-6.1989],[106.827666,-6.200635],[106.829441,-6.201071],[106.8308,-6.199773]]]},"properties":{"h3_index":"898c1079d2bffff","kawasan":"Dukuh Atas BNI","tingkat_keyakinan":"RENDAH","n_titik_misi":0,"data_source":"predicted","zona_izin_komersial":true,"indeks_churn":null,"harga_sewa_median":null,"harga_sewa_per_m2":null,"belanja_per_jam":null,"njop_m2":null,"opportunity_score":68.7,"hidden_gem_score":0.557434159342798,"kuadran":"HIDDEN_GEM"}},{"type":"Feature","id":"898c106a493ffff","geometry":{"type":"Polygon","coordinates":[[[106.806669,-6.203636],[106.806253,-6.201901],[106.804477,-6.201465],[106.803119,-6.202763],[106.803535,-6.204498],[106.805311,-6.204934],[106.806669,-6.203636]]]},"properties":{"h3_index":"898c106a493ffff","kawasan":"Dukuh Atas BNI","tingkat_keyakinan":"RENDAH","n_titik_misi":0,"data_source":"predicted","zona_izin_komersial":true,"indeks_churn":null,"harga_sewa_median":null,"harga_sewa_per_m2":null,"belanja_per_jam":null,"njop_m2":null,"opportunity_score":37.8,"hidden_gem_score":null,"kuadran":"JEBAKAN_GENGSI"}},{"type":"Feature","id":"898c1078a03ffff","geometry":{"type":"Polygon","coordinates":[[[106.816379,-6.209287],[106.815963,-6.207552],[106.814187,-6.207116],[106.812829,-6.208415],[106.813245,-6.210149],[106.81502,-6.210585],[106.816379,-6.209287]]]},"properties":{"h3_index":"898c1078a03ffff","kawasan":"Dukuh Atas BNI","tingkat_keyakinan":"RENDAH","n_titik_misi":0,"data_source":"predicted","zona_izin_komersial":true,"indeks_churn":null,"harga_sewa_median":null,"harga_sewa_per_m2":null,"belanja_per_jam":null,"njop_m2":null,"opportunity_score":47.9,"hidden_gem_score":null,"kuadran":"HIDDEN_GEM"}},{"type":"Feature","id":"898c1078a07ffff","geometry":{"type":"Polygon","coordinates":[[[106.813245,-6.210149],[106.812829,-6.208415],[106.811053,-6.207978],[106.809694,-6.209277],[106.810111,-6.211011],[106.811886,-6.211447],[106.813245,-6.210149]]]},"properties":{"h3_index":"898c1078a07ffff","kawasan":"Dukuh Atas BNI","tingkat_keyakinan":"RENDAH","n_titik_misi":0,"data_source":"predicted","zona_izin_komersial":true,"indeks_churn":null,"harga_sewa_median":null,"harga_sewa_per_m2":null,"belanja_per_jam":null,"njop_m2":null,"opportunity_score":43.2,"hidden_gem_score":null,"kuadran":"JEBAKAN_GENGSI"}},{"type":"Feature","id":"898c1078a0bffff","geometry":{"type":"Polygon","coordinates":[[[106.817321,-6.206254],[106.816905,-6.204519],[106.81513,-6.204083],[106.813771,-6.205381],[106.814187,-6.207116],[106.815963,-6.207552],[106.817321,-6.206254]]]},"properties":{"h3_index":"898c1078a0bffff","kawasan":"Dukuh Atas BNI","tingkat_keyakinan":"RENDAH","n_titik_misi":0,"data_source":"predicted","zona_izin_komersial":true,"indeks_churn":null,"harga_sewa_median":null,"harga_sewa_per_m2":null,"belanja_per_jam":null,"njop_m2":null,"opportunity_score":56.2,"hidden_gem_score":null,"kuadran":"PEMENANG_JELAS"}},{"type":"Feature","id":"898c1078a0fffff","geometry":{"type":"Polygon","coordinates":[[[106.814187,-6.207116],[106.813771,-6.205381],[106.811996,-6.204945],[106.810637,-6.206243],[106.811053,-6.207978],[106.812829,-6.208415],[106.814187,-6.207116]]]},"properties":{"h3_index":"898c1078a0fffff","kawasan":"Dukuh Atas BNI","tingkat_keyakinan":"RENDAH","n_titik_misi":0,"data_source":"predicted","zona_izin_komersial":null,"indeks_churn":null,"harga_sewa_median":null,"harga_sewa_per_m2":null,"belanja_per_jam":null,"njop_m2":null,"opportunity_score":54.4,"hidden_gem_score":null,"kuadran":"HIDDEN_GEM"}},{"type":"Feature","id":"898c1078a13ffff","geometry":{"type":"Polygon","coordinates":[[[106.818571,-6.211458],[106.818154,-6.209723],[106.816379,-6.209287],[106.81502,-6.210585],[106.815437,-6.21232],[106.817212,-6.212756],[106.818571,-6.211458]]]},"properties":{"h3_index":"898c1078a13ffff","kawasan":"Dukuh Atas BNI","tingkat_keyakinan":"RENDAH","n_titik_misi":0,"data_source":"predicted","zona_izin_komersial":true,"indeks_churn":null,"harga_sewa_median":null,"harga_sewa_per_m2":null,"belanja_per_jam":null,"njop_m2":null,"opportunity_score":62.2,"hidden_gem_score":null,"kuadran":"HIDDEN_GEM"}},{"type":"Feature","id":"898c1078a17ffff","geometry":{"type":"Polygon","coordinates":[[[106.815437,-6.21232],[106.81502,-6.210585],[106.813245,-6.210149],[106.811886,-6.211447],[106.812303,-6.213182],[106.814078,-6.213618],[106.815437,-6.21232]]]},"properties":{"h3_index":"898c1078a17ffff","kawasan":"Dukuh Atas BNI","tingkat_keyakinan":"RENDAH","n_titik_misi":0,"data_source":"predicted","zona_izin_komersial":true,"indeks_churn":null,"harga_sewa_median":null,"harga_sewa_per_m2":null,"belanja_per_jam":null,"njop_m2":null,"opportunity_score":49.0,"hidden_gem_score":null,"kuadran":"PEMENANG_JELAS"}},{"type":"Feature","id":"898c1078a1bffff","geometry":{"type":"Polygon","coordinates":[[[106.819513,-6.208425],[106.819097,-6.20669],[106.817321,-6.206254],[106.815963,-6.207552],[106.816379,-6.209287],[106.818154,-6.209723],[106.819513,-6.208425]]]},"properties":{"h3_index":"898c1078a1bffff","kawasan":"Dukuh Atas BNI","tingkat_keyakinan":"RENDAH","n_titik_misi":1,"data_source":"observed","zona_izin_komersial":true,"indeks_churn":null,"harga_sewa_median":null,"harga_sewa_per_m2":null,"belanja_per_jam":null,"njop_m2":null,"opportunity_score":61.3,"hidden_gem_score":null,"kuadran":"HIDDEN_GEM"}},{"type":"Feature","id":"898c1078a23ffff","geometry":{"type":"Polygon","coordinates":[[[106.807919,-6.20884],[106.807502,-6.207105],[106.805727,-6.206669],[106.804368,-6.207968],[106.804785,-6.209702],[106.80656,-6.210139],[106.807919,-6.20884]]]},"properties":{"h3_index":"898c1078a23ffff","kawasan":"Dukuh Atas BNI","tingkat_keyakinan":"RENDAH","n_titik_misi":0,"data_source":"predicted","zona_izin_komersial":null,"indeks_churn":null,"harga_sewa_median":null,"harga_sewa_per_m2":null,"belanja_per_jam":null,"njop_m2":null,"opportunity_score":45.4,"hidden_gem_score":null,"kuadran":"PEMENANG_JELAS"}},{"type":"Feature","id":"898c1078a2bffff","geometry":{"type":"Polygon","coordinates":[[[106.808861,-6.205807],[106.808445,-6.204072],[106.806669,-6.203636],[106.805311,-6.204934],[106.805727,-6.206669],[106.807502,-6.207105],[106.808861,-6.205807]]]},"properties":{"h3_index":"898c1078a2bffff","kawasan":"Dukuh Atas BNI","tingkat_keyakinan":"RENDAH","n_titik_misi":0,"data_source":"predicted","zona_izin_komersial":true,"indeks_churn":null,"harga_sewa_median":null,"harga_sewa_per_m2":null,"belanja_per_jam":null,"njop_m2":null,"opportunity_score":44.3,"hidden_gem_score":null,"kuadran":"PEMENANG_JELAS"}},{"type":"Feature","id":"898c1078a2fffff","geometry":{"type":"Polygon","coordinates":[[[106.805727,-6.206669],[106.805311,-6.204934],[106.803535,-6.204498],[106.802176,-6.205796],[106.802593,-6.207531],[106.804368,-6.207968],[106.805727,-6.206669]]]},"properties":{"h3_index":"898c1078a2fffff","kawasan":"Dukuh Atas BNI","tingkat_keyakinan":"RENDAH","n_titik_misi":0,"data_source":"predicted","zona_izin_komersial":true,"indeks_churn":null,"harga_sewa_median":null,"harga_sewa_per_m2":null,"belanja_per_jam":null,"njop_m2":null,"opportunity_score":42.7,"hidden_gem_score":null,"kuadran":"JEBAKAN_GENGSI"}},{"type":"Feature","id":"898c1078a33ffff","geometry":{"type":"Polygon","coordinates":[[[106.810111,-6.211011],[106.809694,-6.209277],[106.807919,-6.20884],[106.80656,-6.210139],[106.806977,-6.211873],[106.808752,-6.21231],[106.810111,-6.211011]]]},"properties":{"h3_index":"898c1078a33ffff","kawasan":"Dukuh Atas BNI","tingkat_keyakinan":"RENDAH","n_titik_misi":0,"data_source":"predicted","zona_izin_komersial":null,"indeks_churn":null,"harga_sewa_median":null,"harga_sewa_per_m2":null,"belanja_per_jam":null,"njop_m2":null,"opportunity_score":52.7,"hidden_gem_score":0.511405965527384,"kuadran":"HIDDEN_GEM"}},{"type":"Feature","id":"898c1078a3bffff","geometry":{"type":"Polygon","coordinates":[[[106.811053,-6.207978],[106.810637,-6.206243],[106.808861,-6.205807],[106.807502,-6.207105],[106.807919,-6.20884],[106.809694,-6.209277],[106.811053,-6.207978]]]},"properties":{"h3_index":"898c1078a3bffff","kawasan":"Dukuh Atas BNI","tingkat_keyakinan":"RENDAH","n_titik_misi":0,"data_source":"predicted","zona_izin_komersial":true,"indeks_churn":null,"harga_sewa_median":null,"harga_sewa_per_m2":null,"belanja_per_jam":null,"njop_m2":null,"opportunity_score":40.9,"hidden_gem_score":null,"kuadran":"JEBAKAN_GENGSI"}},{"type":"Feature","id":"898c1078a43ffff","geometry":{"type":"Polygon","coordinates":[[[106.821398,-6.202359],[106.820981,-6.200624],[106.819206,-6.200188],[106.817847,-6.201486],[106.818264,-6.203221],[106.820039,-6.203657],[106.821398,-6.202359]]]},"properties":{"h3_index":"898c1078a43ffff","kawasan":"Dukuh Atas BNI","tingkat_keyakinan":"RENDAH","n_titik_misi":0,"data_source":"predicted","zona_izin_komersial":true,"indeks_churn":null,"harga_sewa_median":null,"harga_sewa_per_m2":null,"belanja_per_jam":null,"njop_m2":null,"opportunity_score":80.3,"hidden_gem_score":null,"kuadran":"PEMENANG_JELAS"}},{"type":"Feature","id":"898c1078a47ffff","geometry":{"type":"Polygon","coordinates":[[[106.818264,-6.203221],[106.817847,-6.201486],[106.816072,-6.20105],[106.814713,-6.202348],[106.81513,-6.204083],[106.816905,-6.204519],[106.818264,-6.203221]]]},"properties":{"h3_index":"898c1078a47ffff","kawasan":"Dukuh Atas BNI","tingkat_keyakinan":"RENDAH","n_titik_misi":0,"data_source":"predicted","zona_izin_komersial":true,"indeks_churn":null,"harga_sewa_median":null,"harga_sewa_per_m2":null,"belanja_per_jam":null,"njop_m2":null,"opportunity_score":63.9,"hidden_gem_score":null,"kuadran":"HIDDEN_GEM"}},{"type":"Feature","id":"898c1078a4bffff","geometry":{"type":"Polygon","coordinates":[[[106.82234,-6.199326],[106.821924,-6.197591],[106.820148,-6.197155],[106.81879,-6.198453],[106.819206,-6.200188],[106.820981,-6.200624],[106.82234,-6.199326]]]},"properties":{"h3_index":"898c1078a4bffff","kawasan":"Dukuh Atas BNI","tingkat_keyakinan":"RENDAH","n_titik_misi":0,"data_source":"predicted","zona_izin_komersial":true,"indeks_churn":null,"harga_sewa_median":null,"harga_sewa_per_m2":null,"belanja_per_jam":null,"njop_m2":null,"opportunity_score":74.2,"hidden_gem_score":null,"kuadran":"PEMENANG_JELAS"}},{"type":"Feature","id":"898c1078a4fffff","geometry":{"type":"Polygon","coordinates":[[[106.819206,-6.200188],[106.81879,-6.198453],[106.817014,-6.198017],[106.815655,-6.199315],[106.816072,-6.20105],[106.817847,-6.201486],[106.819206,-6.200188]]]},"properties":{"h3_index":"898c1078a4fffff","kawasan":"Dukuh Atas BNI","tingkat_keyakinan":"RENDAH","n_titik_misi":0,"data_source":"predicted","zona_izin_komersial":true,"indeks_churn":null,"harga_sewa_median":null,"harga_sewa_per_m2":null,"belanja_per_jam":null,"njop_m2":null,"opportunity_score":42.8,"hidden_gem_score":null,"kuadran":"JEBAKAN_GENGSI"}},{"type":"Feature","id":"898c1078a53ffff","geometry":{"type":"Polygon","coordinates":[[[106.823589,-6.20453],[106.823173,-6.202795],[106.821398,-6.202359],[106.820039,-6.203657],[106.820455,-6.205392],[106.822231,-6.205828],[106.823589,-6.20453]]]},"properties":{"h3_index":"898c1078a53ffff","kawasan":"Dukuh Atas BNI","tingkat_keyakinan":"RENDAH","n_titik_misi":0,"data_source":"predicted","zona_izin_komersial":true,"indeks_churn":null,"harga_sewa_median":null,"harga_sewa_per_m2":null,"belanja_per_jam":null,"njop_m2":null,"opportunity_score":71.1,"hidden_gem_score":null,"kuadran":"PEMENANG_JELAS"}},{"type":"Feature","id":"898c1078a57ffff","geometry":{"type":"Polygon","coordinates":[[[106.820455,-6.205392],[106.820039,-6.203657],[106.818264,-6.203221],[106.816905,-6.204519],[106.817321,-6.206254],[106.819097,-6.20669],[106.820455,-6.205392]]]},"properties":{"h3_index":"898c1078a57ffff","kawasan":"Dukuh Atas BNI","tingkat_keyakinan":"RENDAH","n_titik_misi":0,"data_source":"predicted","zona_izin_komersial":true,"indeks_churn":null,"harga_sewa_median":null,"harga_sewa_per_m2":null,"belanja_per_jam":null,"njop_m2":null,"opportunity_score":75.4,"hidden_gem_score":null,"kuadran":"PEMENANG_JELAS"}},{"type":"Feature","id":"898c1078a5bffff","geometry":{"type":"Polygon","coordinates":[[[106.824532,-6.201497],[106.824115,-6.199762],[106.82234,-6.199326],[106.820981,-6.200624],[106.821398,-6.202359],[106.823173,-6.202795],[106.824532,-6.201497]]]},"properties":{"h3_index":"898c1078a5bffff","kawasan":"Dukuh Atas BNI","tingkat_keyakinan":"RENDAH","n_titik_misi":4,"data_source":"observed","zona_izin_komersial":null,"indeks_churn":null,"harga_sewa_median":null,"harga_sewa_per_m2":null,"belanja_per_jam":null,"njop_m2":null,"opportunity_score":81.8,"hidden_gem_score":null,"kuadran":"PEMENANG_JELAS"}},{"type":"Feature","id":"898c1078a63ffff","geometry":{"type":"Polygon","coordinates":[[[106.812938,-6.201912],[106.812521,-6.200177],[106.810746,-6.199741],[106.809387,-6.201039],[106.809804,-6.202774],[106.811579,-6.20321],[106.812938,-6.201912]]]},"properties":{"h3_index":"898c1078a63ffff","kawasan":"Dukuh Atas BNI","tingkat_keyakinan":"RENDAH","n_titik_misi":0,"data_source":"predicted","zona_izin_komersial":true,"indeks_churn":null,"harga_sewa_median":null,"harga_sewa_per_m2":null,"belanja_per_jam":null,"njop_m2":null,"opportunity_score":49.2,"hidden_gem_score":null,"kuadran":"PEMENANG_JELAS"}},{"type":"Feature","id":"898c1078a67ffff","geometry":{"type":"Polygon","coordinates":[[[106.809804,-6.202774],[106.809387,-6.201039],[106.807612,-6.200603],[106.806253,-6.201901],[106.806669,-6.203636],[106.808445,-6.204072],[106.809804,-6.202774]]]},"properties":{"h3_index":"898c1078a67ffff","kawasan":"Dukuh Atas BNI","tingkat_keyakinan":"RENDAH","n_titik_misi":0,"data_source":"predicted","zona_izin_komersial":true,"indeks_churn":null,"harga_sewa_median":null,"harga_sewa_per_m2":null,"belanja_per_jam":null,"njop_m2":null,"opportunity_score":35.3,"hidden_gem_score":null,"kuadran":"JEBAKAN_GENGSI"}},{"type":"Feature","id":"898c1078a6bffff","geometry":{"type":"Polygon","coordinates":[[[106.81388,-6.198879],[106.813464,-6.197144],[106.811688,-6.196707],[106.810329,-6.198006],[106.810746,-6.199741],[106.812521,-6.200177],[106.81388,-6.198879]]]},"properties":{"h3_index":"898c1078a6bffff","kawasan":"Dukuh Atas BNI","tingkat_keyakinan":"RENDAH","n_titik_misi":0,"data_source":"predicted","zona_izin_komersial":null,"indeks_churn":null,"harga_sewa_median":null,"harga_sewa_per_m2":null,"belanja_per_jam":null,"njop_m2":null,"opportunity_score":51.1,"hidden_gem_score":null,"kuadran":"PEMENANG_JELAS"}},{"type":"Feature","id":"898c1078a73ffff","geometry":{"type":"Polygon","coordinates":[[[106.81513,-6.204083],[106.814713,-6.202348],[106.812938,-6.201912],[106.811579,-6.20321],[106.811996,-6.204945],[106.813771,-6.205381],[106.81513,-6.204083]]]},"properties":{"h3_index":"898c1078a73ffff","kawasan":"Dukuh Atas BNI","tingkat_keyakinan":"RENDAH","n_titik_misi":0,"data_source":"predicted","zona_izin_komersial":null,"indeks_churn":null,"harga_sewa_median":null,"harga_sewa_per_m2":null,"belanja_per_jam":null,"njop_m2":null,"opportunity_score":54.7,"hidden_gem_score":null,"kuadran":"HIDDEN_GEM"}},{"type":"Feature","id":"898c1078a77ffff","geometry":{"type":"Polygon","coordinates":[[[106.811996,-6.204945],[106.811579,-6.20321],[106.809804,-6.202774],[106.808445,-6.204072],[106.808861,-6.205807],[106.810637,-6.206243],[106.811996,-6.204945]]]},"properties":{"h3_index":"898c1078a77ffff","kawasan":"Dukuh Atas BNI","tingkat_keyakinan":"RENDAH","n_titik_misi":0,"data_source":"predicted","zona_izin_komersial":true,"indeks_churn":null,"harga_sewa_median":null,"harga_sewa_per_m2":null,"belanja_per_jam":null,"njop_m2":null,"opportunity_score":28.0,"hidden_gem_score":null,"kuadran":"JEBAKAN_GENGSI"}},{"type":"Feature","id":"898c1078a7bffff","geometry":{"type":"Polygon","coordinates":[[[106.816072,-6.20105],[106.815655,-6.199315],[106.81388,-6.198879],[106.812521,-6.200177],[106.812938,-6.201912],[106.814713,-6.202348],[106.816072,-6.20105]]]},"properties":{"h3_index":"898c1078a7bffff","kawasan":"Dukuh Atas BNI","tingkat_keyakinan":"RENDAH","n_titik_misi":0,"data_source":"predicted","zona_izin_komersial":true,"indeks_churn":null,"harga_sewa_median":null,"harga_sewa_per_m2":null,"belanja_per_jam":null,"njop_m2":null,"opportunity_score":36.7,"hidden_gem_score":null,"kuadran":"JEBAKAN_GENGSI"}},{"type":"Feature","id":"898c1078a83ffff","geometry":{"type":"Polygon","coordinates":[[[106.81982,-6.216662],[106.819404,-6.214927],[106.817628,-6.214491],[106.81627,-6.215789],[106.816686,-6.217524],[106.818461,-6.21796],[106.81982,-6.216662]]]},"properties":{"h3_index":"898c1078a83ffff","kawasan":"Dukuh Atas BNI","tingkat_keyakinan":"RENDAH","n_titik_misi":0,"data_source":"predicted","zona_izin_komersial":true,"indeks_churn":null,"harga_sewa_median":null,"harga_sewa_per_m2":null,"belanja_per_jam":null,"njop_m2":null,"opportunity_score":70.8,"hidden_gem_score":null,"kuadran":"HIDDEN_GEM"}},{"type":"Feature","id":"898c1078a87ffff","geometry":{"type":"Polygon","coordinates":[[[106.816686,-6.217524],[106.81627,-6.215789],[106.814495,-6.215353],[106.813136,-6.216651],[106.813552,-6.218386],[106.815327,-6.218822],[106.816686,-6.217524]]]},"properties":{"h3_index":"898c1078a87ffff","kawasan":"Dukuh Atas BNI","tingkat_keyakinan":"RENDAH","n_titik_misi":0,"data_source":"predicted","zona_izin_komersial":true,"indeks_churn":null,"harga_sewa_median":null,"harga_sewa_per_m2":null,"belanja_per_jam":null,"njop_m2":null,"opportunity_score":67.6,"hidden_gem_score":null,"kuadran":"PEMENANG_JELAS"}},{"type":"Feature","id":"898c1078a8bffff","geometry":{"type":"Polygon","coordinates":[[[106.820762,-6.213629],[106.820346,-6.211894],[106.818571,-6.211458],[106.817212,-6.212756],[106.817628,-6.214491],[106.819404,-6.214927],[106.820762,-6.213629]]]},"properties":{"h3_index":"898c1078a8bffff","kawasan":"Dukuh Atas BNI","tingkat_keyakinan":"RENDAH","n_titik_misi":0,"data_source":"predicted","zona_izin_komersial":true,"indeks_churn":null,"harga_sewa_median":null,"harga_sewa_per_m2":null,"belanja_per_jam":null,"njop_m2":null,"opportunity_score":60.4,"hidden_gem_score":null,"kuadran":"PEMENANG_JELAS"}},{"type":"Feature","id":"898c1078a8fffff","geometry":{"type":"Polygon","coordinates":[[[106.817628,-6.214491],[106.817212,-6.212756],[106.815437,-6.21232],[106.814078,-6.213618],[106.814495,-6.215353],[106.81627,-6.215789],[106.817628,-6.214491]]]},"properties":{"h3_index":"898c1078a8fffff","kawasan":"Dukuh Atas BNI","tingkat_keyakinan":"RENDAH","n_titik_misi":0,"data_source":"predicted","zona_izin_komersial":true,"indeks_churn":null,"harga_sewa_median":null,"harga_sewa_per_m2":null,"belanja_per_jam":null,"njop_m2":null,"opportunity_score":72.5,"hidden_gem_score":null,"kuadran":"HIDDEN_GEM"}},{"type":"Feature","id":"898c1078a93ffff","geometry":{"type":"Polygon","coordinates":[[[106.822012,-6.218832],[106.821595,-6.217098],[106.81982,-6.216662],[106.818461,-6.21796],[106.818878,-6.219694],[106.820653,-6.22013],[106.822012,-6.218832]]]},"properties":{"h3_index":"898c1078a93ffff","kawasan":"Dukuh Atas BNI","tingkat_keyakinan":"RENDAH","n_titik_misi":0,"data_source":"predicted","zona_izin_komersial":true,"indeks_churn":null,"harga_sewa_median":null,"harga_sewa_per_m2":null,"belanja_per_jam":null,"njop_m2":null,"opportunity_score":67.0,"hidden_gem_score":null,"kuadran":"PEMENANG_JELAS"}},{"type":"Feature","id":"898c1078a97ffff","geometry":{"type":"Polygon","coordinates":[[[106.818878,-6.219694],[106.818461,-6.21796],[106.816686,-6.217524],[106.815327,-6.218822],[106.815744,-6.220556],[106.817519,-6.220993],[106.818878,-6.219694]]]},"properties":{"h3_index":"898c1078a97ffff","kawasan":"Dukuh Atas BNI","tingkat_keyakinan":"RENDAH","n_titik_misi":0,"data_source":"predicted","zona_izin_komersial":true,"indeks_churn":null,"harga_sewa_median":null,"harga_sewa_per_m2":null,"belanja_per_jam":null,"njop_m2":null,"opportunity_score":72.9,"hidden_gem_score":null,"kuadran":"PEMENANG_JELAS"}},{"type":"Feature","id":"898c1078a9bffff","geometry":{"type":"Polygon","coordinates":[[[106.822954,-6.215799],[106.822538,-6.214065],[106.820762,-6.213629],[106.819404,-6.214927],[106.81982,-6.216662],[106.821595,-6.217098],[106.822954,-6.215799]]]},"properties":{"h3_index":"898c1078a9bffff","kawasan":"Dukuh Atas BNI","tingkat_keyakinan":"RENDAH","n_titik_misi":0,"data_source":"predicted","zona_izin_komersial":true,"indeks_churn":null,"harga_sewa_median":null,"harga_sewa_per_m2":null,"belanja_per_jam":null,"njop_m2":null,"opportunity_score":48.4,"hidden_gem_score":null,"kuadran":"PEMENANG_JELAS"}},{"type":"Feature","id":"898c1078aabffff","geometry":{"type":"Polygon","coordinates":[[[106.812303,-6.213182],[106.811886,-6.211447],[106.810111,-6.211011],[106.808752,-6.21231],[106.809169,-6.214044],[106.810944,-6.21448],[106.812303,-6.213182]]]},"properties":{"h3_index":"898c1078aabffff","kawasan":"Dukuh Atas BNI","tingkat_keyakinan":"RENDAH","n_titik_misi":0,"data_source":"predicted","zona_izin_komersial":true,"indeks_churn":null,"harga_sewa_median":null,"harga_sewa_per_m2":null,"belanja_per_jam":null,"njop_m2":null,"opportunity_score":52.6,"hidden_gem_score":null,"kuadran":"PEMENANG_JELAS"}},{"type":"Feature","id":"898c1078abbffff","geometry":{"type":"Polygon","coordinates":[[[106.814495,-6.215353],[106.814078,-6.213618],[106.812303,-6.213182],[106.810944,-6.21448],[106.81136,-6.216215],[106.813136,-6.216651],[106.814495,-6.215353]]]},"properties":{"h3_index":"898c1078abbffff","kawasan":"Dukuh Atas BNI","tingkat_keyakinan":"RENDAH","n_titik_misi":1,"data_source":"observed","zona_izin_komersial":true,"indeks_churn":null,"harga_sewa_median":null,"harga_sewa_per_m2":null,"belanja_per_jam":null,"njop_m2":null,"opportunity_score":49.3,"hidden_gem_score":null,"kuadran":"PEMENANG_JELAS"}},{"type":"Feature","id":"898c1078ac3ffff","geometry":{"type":"Polygon","coordinates":[[[106.824839,-6.209734],[106.824422,-6.207999],[106.822647,-6.207563],[106.821288,-6.208861],[106.821705,-6.210596],[106.82348,-6.211032],[106.824839,-6.209734]]]},"properties":{"h3_index":"898c1078ac3ffff","kawasan":"Dukuh Atas BNI","tingkat_keyakinan":"RENDAH","n_titik_misi":0,"data_source":"predicted","zona_izin_komersial":true,"indeks_churn":null,"harga_sewa_median":null,"harga_sewa_per_m2":null,"belanja_per_jam":null,"njop_m2":null,"opportunity_score":59.1,"hidden_gem_score":null,"kuadran":"PEMENANG_JELAS"}},{"type":"Feature","id":"898c1078ac7ffff","geometry":{"type":"Polygon","coordinates":[[[106.821705,-6.210596],[106.821288,-6.208861],[106.819513,-6.208425],[106.818154,-6.209723],[106.818571,-6.211458],[106.820346,-6.211894],[106.821705,-6.210596]]]},"properties":{"h3_index":"898c1078ac7ffff","kawasan":"Dukuh Atas BNI","tingkat_keyakinan":"RENDAH","n_titik_misi":0,"data_source":"predicted","zona_izin_komersial":true,"indeks_churn":null,"harga_sewa_median":null,"harga_sewa_per_m2":null,"belanja_per_jam":null,"njop_m2":null,"opportunity_score":75.8,"hidden_gem_score":null,"kuadran":"PEMENANG_JELAS"}},{"type":"Feature","id":"898c1078acbffff","geometry":{"type":"Polygon","coordinates":[[[106.825781,-6.206701],[106.825365,-6.204966],[106.823589,-6.20453],[106.822231,-6.205828],[106.822647,-6.207563],[106.824422,-6.207999],[106.825781,-6.206701]]]},"properties":{"h3_index":"898c1078acbffff","kawasan":"Dukuh Atas BNI","tingkat_keyakinan":"RENDAH","n_titik_misi":0,"data_source":"predicted","zona_izin_komersial":true,"indeks_churn":null,"harga_sewa_median":null,"harga_sewa_per_m2":null,"belanja_per_jam":null,"njop_m2":null,"opportunity_score":87.1,"hidden_gem_score":null,"kuadran":"PEMENANG_JELAS"}},{"type":"Feature","id":"898c1078acfffff","geometry":{"type":"Polygon","coordinates":[[[106.822647,-6.207563],[106.822231,-6.205828],[106.820455,-6.205392],[106.819097,-6.20669],[106.819513,-6.208425],[106.821288,-6.208861],[106.822647,-6.207563]]]},"properties":{"h3_index":"898c1078acfffff","kawasan":"Dukuh Atas BNI","tingkat_keyakinan":"RENDAH","n_titik_misi":0,"data_source":"predicted","zona_izin_komersial":true,"indeks_churn":null,"harga_sewa_median":null,"harga_sewa_per_m2":null,"belanja_per_jam":null,"njop_m2":null,"opportunity_score":74.6,"hidden_gem_score":null,"kuadran":"PEMENANG_JELAS"}},{"type":"Feature","id":"898c1078ad3ffff","geometry":{"type":"Polygon","coordinates":[[[106.82703,-6.211905],[106.826614,-6.21017],[106.824839,-6.209734],[106.82348,-6.211032],[106.823896,-6.212767],[106.825671,-6.213203],[106.82703,-6.211905]]]},"properties":{"h3_index":"898c1078ad3ffff","kawasan":"Dukuh Atas BNI","tingkat_keyakinan":"RENDAH","n_titik_misi":0,"data_source":"predicted","zona_izin_komersial":true,"indeks_churn":null,"harga_sewa_median":null,"harga_sewa_per_m2":null,"belanja_per_jam":null,"njop_m2":null,"opportunity_score":45.5,"hidden_gem_score":null,"kuadran":"PEMENANG_JELAS"}},{"type":"Feature","id":"898c1078ad7ffff","geometry":{"type":"Polygon","coordinates":[[[106.823896,-6.212767],[106.82348,-6.211032],[106.821705,-6.210596],[106.820346,-6.211894],[106.820762,-6.213629],[106.822538,-6.214065],[106.823896,-6.212767]]]},"properties":{"h3_index":"898c1078ad7ffff","kawasan":"Dukuh Atas BNI","tingkat_keyakinan":"RENDAH","n_titik_misi":0,"data_source":"predicted","zona_izin_komersial":true,"indeks_churn":null,"harga_sewa_median":null,"harga_sewa_per_m2":null,"belanja_per_jam":null,"njop_m2":null,"opportunity_score":63.7,"hidden_gem_score":0.539040880348641,"kuadran":"HIDDEN_GEM"}},{"type":"Feature","id":"898c1078adbffff","geometry":{"type":"Polygon","coordinates":[[[106.827972,-6.208872],[106.827556,-6.207137],[106.825781,-6.206701],[106.824422,-6.207999],[106.824839,-6.209734],[106.826614,-6.21017],[106.827972,-6.208872]]]},"properties":{"h3_index":"898c1078adbffff","kawasan":"Dukuh Atas BNI","tingkat_keyakinan":"RENDAH","n_titik_misi":0,"data_source":"predicted","zona_izin_komersial":true,"indeks_churn":null,"harga_sewa_median":null,"harga_sewa_per_m2":null,"belanja_per_jam":null,"njop_m2":null,"opportunity_score":63.5,"hidden_gem_score":null,"kuadran":"PEMENANG_JELAS"}},{"type":"Feature","id":"898c1078e63ffff","geometry":{"type":"Polygon","coordinates":[[[106.828279,-6.217108],[106.827863,-6.215374],[106.826088,-6.214937],[106.824729,-6.216236],[106.825145,-6.21797],[106.826921,-6.218406],[106.828279,-6.217108]]]},"properties":{"h3_index":"898c1078e63ffff","kawasan":"Dukuh Atas BNI","tingkat_keyakinan":"RENDAH","n_titik_misi":0,"data_source":"predicted","zona_izin_komersial":null,"indeks_churn":null,"harga_sewa_median":null,"harga_sewa_per_m2":null,"belanja_per_jam":null,"njop_m2":null,"opportunity_score":56.3,"hidden_gem_score":null,"kuadran":"PEMENANG_JELAS"}},{"type":"Feature","id":"898c1078e67ffff","geometry":{"type":"Polygon","coordinates":[[[106.825145,-6.21797],[106.824729,-6.216236],[106.822954,-6.215799],[106.821595,-6.217098],[106.822012,-6.218832],[106.823787,-6.219268],[106.825145,-6.21797]]]},"properties":{"h3_index":"898c1078e67ffff","kawasan":"Dukuh Atas BNI","tingkat_keyakinan":"RENDAH","n_titik_misi":0,"data_source":"predicted","zona_izin_komersial":true,"indeks_churn":null,"harga_sewa_median":null,"harga_sewa_per_m2":null,"belanja_per_jam":null,"njop_m2":null,"opportunity_score":48.5,"hidden_gem_score":null,"kuadran":"PEMENANG_JELAS"}},{"type":"Feature","id":"898c1078e6bffff","geometry":{"type":"Polygon","coordinates":[[[106.829222,-6.214075],[106.828805,-6.212341],[106.82703,-6.211905],[106.825671,-6.213203],[106.826088,-6.214937],[106.827863,-6.215374],[106.829222,-6.214075]]]},"properties":{"h3_index":"898c1078e6bffff","kawasan":"Dukuh Atas BNI","tingkat_keyakinan":"RENDAH","n_titik_misi":0,"data_source":"predicted","zona_izin_komersial":true,"indeks_churn":null,"harga_sewa_median":null,"harga_sewa_per_m2":null,"belanja_per_jam":null,"njop_m2":null,"opportunity_score":64.4,"hidden_gem_score":0.564144618821187,"kuadran":"HIDDEN_GEM"}},{"type":"Feature","id":"898c1078e6fffff","geometry":{"type":"Polygon","coordinates":[[[106.826088,-6.214937],[106.825671,-6.213203],[106.823896,-6.212767],[106.822538,-6.214065],[106.822954,-6.215799],[106.824729,-6.216236],[106.826088,-6.214937]]]},"properties":{"h3_index":"898c1078e6fffff","kawasan":"Dukuh Atas BNI","tingkat_keyakinan":"RENDAH","n_titik_misi":0,"data_source":"predicted","zona_izin_komersial":null,"indeks_churn":null,"harga_sewa_median":null,"harga_sewa_per_m2":null,"belanja_per_jam":null,"njop_m2":null,"opportunity_score":21.9,"hidden_gem_score":null,"kuadran":"JEBAKAN_GENGSI"}},{"type":"Feature","id":"898c1078e7bffff","geometry":{"type":"Polygon","coordinates":[[[106.831413,-6.216246],[106.830997,-6.214511],[106.829222,-6.214075],[106.827863,-6.215374],[106.828279,-6.217108],[106.830054,-6.217544],[106.831413,-6.216246]]]},"properties":{"h3_index":"898c1078e7bffff","kawasan":"Dukuh Atas BNI","tingkat_keyakinan":"RENDAH","n_titik_misi":0,"data_source":"predicted","zona_izin_komersial":true,"indeks_churn":null,"harga_sewa_median":null,"harga_sewa_per_m2":null,"belanja_per_jam":null,"njop_m2":null,"opportunity_score":48.7,"hidden_gem_score":null,"kuadran":"PEMENANG_JELAS"}},{"type":"Feature","id":"898c10798a7ffff","geometry":{"type":"Polygon","coordinates":[[[106.836761,-6.189811],[106.836344,-6.188076],[106.834569,-6.18764],[106.83321,-6.188938],[106.833627,-6.190673],[106.835402,-6.19111],[106.836761,-6.189811]]]},"properties":{"h3_index":"898c10798a7ffff","kawasan":"Dukuh Atas BNI","tingkat_keyakinan":"RENDAH","n_titik_misi":0,"data_source":"predicted","zona_izin_komersial":true,"indeks_churn":null,"harga_sewa_median":null,"harga_sewa_per_m2":null,"belanja_per_jam":null,"njop_m2":null,"opportunity_score":64.4,"hidden_gem_score":null,"kuadran":"PEMENANG_JELAS"}},{"type":"Feature","id":"898c10798b7ffff","geometry":{"type":"Polygon","coordinates":[[[106.838952,-6.191982],[106.838536,-6.190247],[106.836761,-6.189811],[106.835402,-6.19111],[106.835818,-6.192844],[106.837593,-6.193281],[106.838952,-6.191982]]]},"properties":{"h3_index":"898c10798b7ffff","kawasan":"Dukuh Atas BNI","tingkat_keyakinan":"RENDAH","n_titik_misi":0,"data_source":"predicted","zona_izin_komersial":true,"indeks_churn":null,"harga_sewa_median":null,"harga_sewa_per_m2":null,"belanja_per_jam":null,"njop_m2":null,"opportunity_score":53.5,"hidden_gem_score":null,"kuadran":"PEMENANG_JELAS"}},{"type":"Feature","id":"898c1079913ffff","geometry":{"type":"Polygon","coordinates":[[[106.825167,-6.190226],[106.824751,-6.188491],[106.822976,-6.188054],[106.821617,-6.189353],[106.822033,-6.191088],[106.823808,-6.191524],[106.825167,-6.190226]]]},"properties":{"h3_index":"898c1079913ffff","kawasan":"Dukuh Atas BNI","tingkat_keyakinan":"RENDAH","n_titik_misi":0,"data_source":"predicted","zona_izin_komersial":true,"indeks_churn":null,"harga_sewa_median":null,"harga_sewa_per_m2":null,"belanja_per_jam":null,"njop_m2":null,"opportunity_score":70.1,"hidden_gem_score":null,"kuadran":"PEMENANG_JELAS"}},{"type":"Feature","id":"898c1079983ffff","geometry":{"type":"Polygon","coordinates":[[[106.826416,-6.195431],[106.826,-6.193696],[106.824225,-6.193259],[106.822866,-6.194558],[106.823282,-6.196293],[106.825058,-6.196729],[106.826416,-6.195431]]]},"properties":{"h3_index":"898c1079983ffff","kawasan":"Dukuh Atas BNI","tingkat_keyakinan":"RENDAH","n_titik_misi":0,"data_source":"predicted","zona_izin_komersial":true,"indeks_churn":null,"harga_sewa_median":null,"harga_sewa_per_m2":null,"belanja_per_jam":null,"njop_m2":null,"opportunity_score":69.1,"hidden_gem_score":null,"kuadran":"PEMENANG_JELAS"}},{"type":"Feature","id":"898c1079987ffff","geometry":{"type":"Polygon","coordinates":[[[106.823282,-6.196293],[106.822866,-6.194558],[106.821091,-6.194121],[106.819732,-6.19542],[106.820148,-6.197155],[106.821924,-6.197591],[106.823282,-6.196293]]]},"properties":{"h3_index":"898c1079987ffff","kawasan":"Dukuh Atas BNI","tingkat_keyakinan":"RENDAH","n_titik_misi":0,"data_source":"predicted","zona_izin_komersial":true,"indeks_churn":null,"harga_sewa_median":null,"harga_sewa_per_m2":null,"belanja_per_jam":null,"njop_m2":null,"opportunity_score":74.0,"hidden_gem_score":null,"kuadran":"PEMENANG_JELAS"}},{"type":"Feature","id":"898c107998bffff","geometry":{"type":"Polygon","coordinates":[[[106.827359,-6.192397],[106.826942,-6.190662],[106.825167,-6.190226],[106.823808,-6.191524],[106.824225,-6.193259],[106.826,-6.193696],[106.827359,-6.192397]]]},"properties":{"h3_index":"898c107998bffff","kawasan":"Dukuh Atas BNI","tingkat_keyakinan":"RENDAH","n_titik_misi":0,"data_source":"predicted","zona_izin_komersial":true,"indeks_churn":null,"harga_sewa_median":null,"harga_sewa_per_m2":null,"belanja_per_jam":null,"njop_m2":null,"opportunity_score":67.9,"hidden_gem_score":null,"kuadran":"PEMENANG_JELAS"}},{"type":"Feature","id":"898c107998fffff","geometry":{"type":"Polygon","coordinates":[[[106.824225,-6.193259],[106.823808,-6.191524],[106.822033,-6.191088],[106.820674,-6.192386],[106.821091,-6.194121],[106.822866,-6.194558],[106.824225,-6.193259]]]},"properties":{"h3_index":"898c107998fffff","kawasan":"Dukuh Atas BNI","tingkat_keyakinan":"RENDAH","n_titik_misi":0,"data_source":"predicted","zona_izin_komersial":true,"indeks_churn":null,"harga_sewa_median":null,"harga_sewa_per_m2":null,"belanja_per_jam":null,"njop_m2":null,"opportunity_score":70.3,"hidden_gem_score":null,"kuadran":"PEMENANG_JELAS"}},{"type":"Feature","id":"898c1079993ffff","geometry":{"type":"Polygon","coordinates":[[[106.828608,-6.197602],[106.828192,-6.195867],[106.826416,-6.195431],[106.825058,-6.196729],[106.825474,-6.198464],[106.827249,-6.1989],[106.828608,-6.197602]]]},"properties":{"h3_index":"898c1079993ffff","kawasan":"Dukuh Atas BNI","tingkat_keyakinan":"RENDAH","n_titik_misi":0,"data_source":"predicted","zona_izin_komersial":true,"indeks_churn":null,"harga_sewa_median":null,"harga_sewa_per_m2":null,"belanja_per_jam":null,"njop_m2":null,"opportunity_score":70.1,"hidden_gem_score":null,"kuadran":"PEMENANG_JELAS"}},{"type":"Feature","id":"898c1079997ffff","geometry":{"type":"Polygon","coordinates":[[[106.825474,-6.198464],[106.825058,-6.196729],[106.823282,-6.196293],[106.821924,-6.197591],[106.82234,-6.199326],[106.824115,-6.199762],[106.825474,-6.198464]]]},"properties":{"h3_index":"898c1079997ffff","kawasan":"Dukuh Atas BNI","tingkat_keyakinan":"RENDAH","n_titik_misi":0,"data_source":"predicted","zona_izin_komersial":true,"indeks_churn":null,"harga_sewa_median":null,"harga_sewa_per_m2":null,"belanja_per_jam":null,"njop_m2":null,"opportunity_score":68.8,"hidden_gem_score":null,"kuadran":"PEMENANG_JELAS"}},{"type":"Feature","id":"898c107999bffff","geometry":{"type":"Polygon","coordinates":[[[106.82955,-6.194568],[106.829134,-6.192834],[106.827359,-6.192397],[106.826,-6.193696],[106.826416,-6.195431],[106.828192,-6.195867],[106.82955,-6.194568]]]},"properties":{"h3_index":"898c107999bffff","kawasan":"Dukuh Atas BNI","tingkat_keyakinan":"RENDAH","n_titik_misi":0,"data_source":"predicted","zona_izin_komersial":null,"indeks_churn":null,"harga_sewa_median":null,"harga_sewa_per_m2":null,"belanja_per_jam":null,"njop_m2":null,"opportunity_score":57.6,"hidden_gem_score":null,"kuadran":"PEMENANG_JELAS"}},{"type":"Feature","id":"898c10799a3ffff","geometry":{"type":"Polygon","coordinates":[[[106.817957,-6.194983],[106.81754,-6.193248],[106.815765,-6.192812],[106.814406,-6.19411],[106.814822,-6.195845],[106.816598,-6.196282],[106.817957,-6.194983]]]},"properties":{"h3_index":"898c10799a3ffff","kawasan":"Dukuh Atas BNI","tingkat_keyakinan":"RENDAH","n_titik_misi":0,"data_source":"predicted","zona_izin_komersial":true,"indeks_churn":null,"harga_sewa_median":null,"harga_sewa_per_m2":null,"belanja_per_jam":null,"njop_m2":null,"opportunity_score":57.5,"hidden_gem_score":null,"kuadran":"PEMENANG_JELAS"}},{"type":"Feature","id":"898c10799b3ffff","geometry":{"type":"Polygon","coordinates":[[[106.820148,-6.197155],[106.819732,-6.19542],[106.817957,-6.194983],[106.816598,-6.196282],[106.817014,-6.198017],[106.81879,-6.198453],[106.820148,-6.197155]]]},"properties":{"h3_index":"898c10799b3ffff","kawasan":"Dukuh Atas BNI","tingkat_keyakinan":"RENDAH","n_titik_misi":1,"data_source":"observed","zona_izin_komersial":true,"indeks_churn":null,"harga_sewa_median":null,"harga_sewa_per_m2":null,"belanja_per_jam":null,"njop_m2":null,"opportunity_score":54.6,"hidden_gem_score":0.517710602045185,"kuadran":"HIDDEN_GEM"}},{"type":"Feature","id":"898c10799b7ffff","geometry":{"type":"Polygon","coordinates":[[[106.817014,-6.198017],[106.816598,-6.196282],[106.814822,-6.195845],[106.813464,-6.197144],[106.81388,-6.198879],[106.815655,-6.199315],[106.817014,-6.198017]]]},"properties":{"h3_index":"898c10799b7ffff","kawasan":"Dukuh Atas BNI","tingkat_keyakinan":"RENDAH","n_titik_misi":0,"data_source":"predicted","zona_izin_komersial":true,"indeks_churn":null,"harga_sewa_median":null,"harga_sewa_per_m2":null,"belanja_per_jam":null,"njop_m2":null,"opportunity_score":59.8,"hidden_gem_score":null,"kuadran":"PEMENANG_JELAS"}},{"type":"Feature","id":"898c10799bbffff","geometry":{"type":"Polygon","coordinates":[[[106.821091,-6.194121],[106.820674,-6.192386],[106.818899,-6.19195],[106.81754,-6.193248],[106.817957,-6.194983],[106.819732,-6.19542],[106.821091,-6.194121]]]},"properties":{"h3_index":"898c10799bbffff","kawasan":"Dukuh Atas BNI","tingkat_keyakinan":"RENDAH","n_titik_misi":1,"data_source":"observed","zona_izin_komersial":true,"indeks_churn":null,"harga_sewa_median":null,"harga_sewa_per_m2":null,"belanja_per_jam":null,"njop_m2":null,"opportunity_score":72.3,"hidden_gem_score":null,"kuadran":"PEMENANG_JELAS"}},{"type":"Feature","id":"898c10799c3ffff","geometry":{"type":"Polygon","coordinates":[[[106.831435,-6.188502],[106.831019,-6.186767],[106.829244,-6.18633],[106.827885,-6.187629],[106.828301,-6.189364],[106.830076,-6.1898],[106.831435,-6.188502]]]},"properties":{"h3_index":"898c10799c3ffff","kawasan":"Dukuh Atas BNI","tingkat_keyakinan":"RENDAH","n_titik_misi":0,"data_source":"predicted","zona_izin_komersial":true,"indeks_churn":null,"harga_sewa_median":null,"harga_sewa_per_m2":null,"belanja_per_jam":null,"njop_m2":null,"opportunity_score":70.4,"hidden_gem_score":null,"kuadran":"PEMENANG_JELAS"}},{"type":"Feature","id":"898c10799c7ffff","geometry":{"type":"Polygon","coordinates":[[[106.828301,-6.189364],[106.827885,-6.187629],[106.82611,-6.187192],[106.824751,-6.188491],[106.825167,-6.190226],[106.826942,-6.190662],[106.828301,-6.189364]]]},"properties":{"h3_index":"898c10799c7ffff","kawasan":"Dukuh Atas BNI","tingkat_keyakinan":"RENDAH","n_titik_misi":0,"data_source":"predicted","zona_izin_komersial":true,"indeks_churn":null,"harga_sewa_median":null,"harga_sewa_per_m2":null,"belanja_per_jam":null,"njop_m2":null,"opportunity_score":65.4,"hidden_gem_score":null,"kuadran":"PEMENANG_JELAS"}},{"type":"Feature","id":"898c10799cbffff","geometry":{"type":"Polygon","coordinates":[[[106.832378,-6.185468],[106.831961,-6.183733],[106.830186,-6.183297],[106.828827,-6.184595],[106.829244,-6.18633],[106.831019,-6.186767],[106.832378,-6.185468]]]},"properties":{"h3_index":"898c10799cbffff","kawasan":"Dukuh Atas BNI","tingkat_keyakinan":"RENDAH","n_titik_misi":0,"data_source":"predicted","zona_izin_komersial":true,"indeks_churn":null,"harga_sewa_median":null,"harga_sewa_per_m2":null,"belanja_per_jam":null,"njop_m2":null,"opportunity_score":64.8,"hidden_gem_score":null,"kuadran":"PEMENANG_JELAS"}},{"type":"Feature","id":"898c10799cfffff","geometry":{"type":"Polygon","coordinates":[[[106.829244,-6.18633],[106.828827,-6.184595],[106.827052,-6.184159],[106.825693,-6.185457],[106.82611,-6.187192],[106.827885,-6.187629],[106.829244,-6.18633]]]},"properties":{"h3_index":"898c10799cfffff","kawasan":"Dukuh Atas BNI","tingkat_keyakinan":"RENDAH","n_titik_misi":0,"data_source":"predicted","zona_izin_komersial":true,"indeks_churn":null,"harga_sewa_median":null,"harga_sewa_per_m2":null,"belanja_per_jam":null,"njop_m2":null,"opportunity_score":57.9,"hidden_gem_score":0.554059741923137,"kuadran":"HIDDEN_GEM"}},{"type":"Feature","id":"898c10799d3ffff","geometry":{"type":"Polygon","coordinates":[[[106.833627,-6.190673],[106.83321,-6.188938],[106.831435,-6.188502],[106.830076,-6.1898],[106.830493,-6.191535],[106.832268,-6.191972],[106.833627,-6.190673]]]},"properties":{"h3_index":"898c10799d3ffff","kawasan":"Dukuh Atas BNI","tingkat_keyakinan":"RENDAH","n_titik_misi":0,"data_source":"predicted","zona_izin_komersial":true,"indeks_churn":null,"harga_sewa_median":null,"harga_sewa_per_m2":null,"belanja_per_jam":null,"njop_m2":null,"opportunity_score":57.9,"hidden_gem_score":null,"kuadran":"PEMENANG_JELAS"}},{"type":"Feature","id":"898c10799d7ffff","geometry":{"type":"Polygon","coordinates":[[[106.830493,-6.191535],[106.830076,-6.1898],[106.828301,-6.189364],[106.826942,-6.190662],[106.827359,-6.192397],[106.829134,-6.192834],[106.830493,-6.191535]]]},"properties":{"h3_index":"898c10799d7ffff","kawasan":"Dukuh Atas BNI","tingkat_keyakinan":"RENDAH","n_titik_misi":0,"data_source":"predicted","zona_izin_komersial":true,"indeks_churn":null,"harga_sewa_median":null,"harga_sewa_per_m2":null,"belanja_per_jam":null,"njop_m2":null,"opportunity_score":61.9,"hidden_gem_score":null,"kuadran":"PEMENANG_JELAS"}},{"type":"Feature","id":"898c10799dbffff","geometry":{"type":"Polygon","coordinates":[[[106.834569,-6.18764],[106.834153,-6.185905],[106.832378,-6.185468],[106.831019,-6.186767],[106.831435,-6.188502],[106.83321,-6.188938],[106.834569,-6.18764]]]},"properties":{"h3_index":"898c10799dbffff","kawasan":"Dukuh Atas BNI","tingkat_keyakinan":"RENDAH","n_titik_misi":0,"data_source":"predicted","zona_izin_komersial":true,"indeks_churn":null,"harga_sewa_median":null,"harga_sewa_per_m2":null,"belanja_per_jam":null,"njop_m2":null,"opportunity_score":64.8,"hidden_gem_score":null,"kuadran":"PEMENANG_JELAS"}},{"type":"Feature","id":"898c1079d03ffff","geometry":{"type":"Polygon","coordinates":[[[106.838316,-6.203253],[106.8379,-6.201518],[106.836125,-6.201082],[106.834766,-6.20238],[106.835182,-6.204115],[106.836957,-6.204551],[106.838316,-6.203253]]]},"properties":{"h3_index":"898c1079d03ffff","kawasan":"Dukuh Atas BNI","tingkat_keyakinan":"RENDAH","n_titik_misi":0,"data_source":"predicted","zona_izin_komersial":null,"indeks_churn":null,"harga_sewa_median":null,"harga_sewa_per_m2":null,"belanja_per_jam":null,"njop_m2":null,"opportunity_score":53.8,"hidden_gem_score":null,"kuadran":"PEMENANG_JELAS"}},{"type":"Feature","id":"898c1079d07ffff","geometry":{"type":"Polygon","coordinates":[[[106.835182,-6.204115],[106.834766,-6.20238],[106.832991,-6.201944],[106.831632,-6.203242],[106.832049,-6.204977],[106.833824,-6.205413],[106.835182,-6.204115]]]},"properties":{"h3_index":"898c1079d07ffff","kawasan":"Dukuh Atas BNI","tingkat_keyakinan":"RENDAH","n_titik_misi":0,"data_source":"predicted","zona_izin_komersial":null,"indeks_churn":null,"harga_sewa_median":null,"harga_sewa_per_m2":null,"belanja_per_jam":null,"njop_m2":null,"opportunity_score":56.2,"hidden_gem_score":null,"kuadran":"PEMENANG_JELAS"}},{"type":"Feature","id":"898c1079d0bffff","geometry":{"type":"Polygon","coordinates":[[[106.839259,-6.20022],[106.838842,-6.198485],[106.837067,-6.198049],[106.835708,-6.199347],[106.836125,-6.201082],[106.8379,-6.201518],[106.839259,-6.20022]]]},"properties":{"h3_index":"898c1079d0bffff","kawasan":"Dukuh Atas BNI","tingkat_keyakinan":"RENDAH","n_titik_misi":0,"data_source":"predicted","zona_izin_komersial":true,"indeks_churn":null,"harga_sewa_median":null,"harga_sewa_per_m2":null,"belanja_per_jam":null,"njop_m2":null,"opportunity_score":66.8,"hidden_gem_score":null,"kuadran":"PEMENANG_JELAS"}},{"type":"Feature","id":"898c1079d0fffff","geometry":{"type":"Polygon","coordinates":[[[106.836125,-6.201082],[106.835708,-6.199347],[106.833933,-6.198911],[106.832575,-6.200209],[106.832991,-6.201944],[106.834766,-6.20238],[106.836125,-6.201082]]]},"properties":{"h3_index":"898c1079d0fffff","kawasan":"Dukuh Atas BNI","tingkat_keyakinan":"RENDAH","n_titik_misi":0,"data_source":"predicted","zona_izin_komersial":null,"indeks_churn":null,"harga_sewa_median":null,"harga_sewa_per_m2":null,"belanja_per_jam":null,"njop_m2":null,"opportunity_score":62.2,"hidden_gem_score":null,"kuadran":"PEMENANG_JELAS"}},{"type":"Feature","id":"898c1079d17ffff","geometry":{"type":"Polygon","coordinates":[[[106.837374,-6.206286],[106.836957,-6.204551],[106.835182,-6.204115],[106.833824,-6.205413],[106.83424,-6.207148],[106.836015,-6.207584],[106.837374,-6.206286]]]},"properties":{"h3_index":"898c1079d17ffff","kawasan":"Dukuh Atas BNI","tingkat_keyakinan":"RENDAH","n_titik_misi":0,"data_source":"predicted","zona_izin_komersial":true,"indeks_churn":null,"harga_sewa_median":null,"harga_sewa_per_m2":null,"belanja_per_jam":null,"njop_m2":null,"opportunity_score":51.8,"hidden_gem_score":null,"kuadran":"HIDDEN_GEM"}},{"type":"Feature","id":"898c1079d23ffff","geometry":{"type":"Polygon","coordinates":[[[106.829857,-6.202806],[106.829441,-6.201071],[106.827666,-6.200635],[106.826307,-6.201933],[106.826723,-6.203668],[106.828498,-6.204104],[106.829857,-6.202806]]]},"properties":{"h3_index":"898c1079d23ffff","kawasan":"Dukuh Atas BNI","tingkat_keyakinan":"RENDAH","n_titik_misi":0,"data_source":"predicted","zona_izin_komersial":true,"indeks_churn":null,"harga_sewa_median":null,"harga_sewa_per_m2":null,"belanja_per_jam":null,"njop_m2":null,"opportunity_score":90.1,"hidden_gem_score":null,"kuadran":"HIDDEN_GEM"}},{"type":"Feature","id":"898c1079d27ffff","geometry":{"type":"Polygon","coordinates":[[[106.826723,-6.203668],[106.826307,-6.201933],[106.824532,-6.201497],[106.823173,-6.202795],[106.823589,-6.20453],[106.825365,-6.204966],[106.826723,-6.203668]]]},"properties":{"h3_index":"898c1079d27ffff","kawasan":"Dukuh Atas BNI","tingkat_keyakinan":"RENDAH","n_titik_misi":2,"data_source":"observed","zona_izin_komersial":true,"indeks_churn":null,"harga_sewa_median":null,"harga_sewa_per_m2":null,"belanja_per_jam":null,"njop_m2":null,"opportunity_score":100.0,"hidden_gem_score":null,"kuadran":"PEMENANG_JELAS"}},{"type":"Feature","id":"898c1079d2fffff","geometry":{"type":"Polygon","coordinates":[[[106.827666,-6.200635],[106.827249,-6.1989],[106.825474,-6.198464],[106.824115,-6.199762],[106.824532,-6.201497],[106.826307,-6.201933],[106.827666,-6.200635]]]},"properties":{"h3_index":"898c1079d2fffff","kawasan":"Dukuh Atas BNI","tingkat_keyakinan":"RENDAH","n_titik_misi":0,"data_source":"predicted","zona_izin_komersial":null,"indeks_churn":null,"harga_sewa_median":null,"harga_sewa_per_m2":null,"belanja_per_jam":null,"njop_m2":null,"opportunity_score":95.6,"hidden_gem_score":null,"kuadran":"HIDDEN_GEM"}},{"type":"Feature","id":"898c1079d33ffff","geometry":{"type":"Polygon","coordinates":[[[106.832049,-6.204977],[106.831632,-6.203242],[106.829857,-6.202806],[106.828498,-6.204104],[106.828915,-6.205839],[106.83069,-6.206275],[106.832049,-6.204977]]]},"properties":{"h3_index":"898c1079d33ffff","kawasan":"Dukuh Atas BNI","tingkat_keyakinan":"RENDAH","n_titik_misi":0,"data_source":"predicted","zona_izin_komersial":true,"indeks_churn":null,"harga_sewa_median":null,"harga_sewa_per_m2":null,"belanja_per_jam":null,"njop_m2":null,"opportunity_score":71.0,"hidden_gem_score":null,"kuadran":"HIDDEN_GEM"}},{"type":"Feature","id":"898c1079d37ffff","geometry":{"type":"Polygon","coordinates":[[[106.828915,-6.205839],[106.828498,-6.204104],[106.826723,-6.203668],[106.825365,-6.204966],[106.825781,-6.206701],[106.827556,-6.207137],[106.828915,-6.205839]]]},"properties":{"h3_index":"898c1079d37ffff","kawasan":"Dukuh Atas BNI","tingkat_keyakinan":"RENDAH","n_titik_misi":0,"data_source":"predicted","zona_izin_komersial":true,"indeks_churn":null,"harga_sewa_median":null,"harga_sewa_per_m2":null,"belanja_per_jam":null,"njop_m2":null,"opportunity_score":80.7,"hidden_gem_score":null,"kuadran":"PEMENANG_JELAS"}},{"type":"Feature","id":"898c1079d3bffff","geometry":{"type":"Polygon","coordinates":[[[106.832991,-6.201944],[106.832575,-6.200209],[106.8308,-6.199773],[106.829441,-6.201071],[106.829857,-6.202806],[106.831632,-6.203242],[106.832991,-6.201944]]]},"properties":{"h3_index":"898c1079d3bffff","kawasan":"Dukuh Atas BNI","tingkat_keyakinan":"RENDAH","n_titik_misi":0,"data_source":"predicted","zona_izin_komersial":null,"indeks_churn":null,"harga_sewa_median":null,"harga_sewa_per_m2":null,"belanja_per_jam":null,"njop_m2":null,"opportunity_score":64.4,"hidden_gem_score":null,"kuadran":"PEMENANG_JELAS"}},{"type":"Feature","id":"898c1079d43ffff","geometry":{"type":"Polygon","coordinates":[[[106.843335,-6.196324],[106.842918,-6.19459],[106.841143,-6.194153],[106.839785,-6.195452],[106.840201,-6.197187],[106.841976,-6.197623],[106.843335,-6.196324]]]},"properties":{"h3_index":"898c1079d43ffff","kawasan":"Dukuh Atas BNI","tingkat_keyakinan":"RENDAH","n_titik_misi":0,"data_source":"predicted","zona_izin_komersial":true,"indeks_churn":null,"harga_sewa_median":null,"harga_sewa_per_m2":null,"belanja_per_jam":null,"njop_m2":null,"opportunity_score":46.4,"hidden_gem_score":null,"kuadran":"PEMENANG_JELAS"}},{"type":"Feature","id":"898c1079d47ffff","geometry":{"type":"Polygon","coordinates":[[[106.840201,-6.197187],[106.839785,-6.195452],[106.83801,-6.195015],[106.836651,-6.196314],[106.837067,-6.198049],[106.838842,-6.198485],[106.840201,-6.197187]]]},"properties":{"h3_index":"898c1079d47ffff","kawasan":"Dukuh Atas BNI","tingkat_keyakinan":"RENDAH","n_titik_misi":1,"data_source":"observed","zona_izin_komersial":true,"indeks_churn":null,"harga_sewa_median":null,"harga_sewa_per_m2":null,"belanja_per_jam":null,"njop_m2":null,"opportunity_score":59.4,"hidden_gem_score":null,"kuadran":"PEMENANG_JELAS"}},{"type":"Feature","id":"898c1079d4fffff","geometry":{"type":"Polygon","coordinates":[[[106.841143,-6.194153],[106.840727,-6.192419],[106.838952,-6.191982],[106.837593,-6.193281],[106.83801,-6.195015],[106.839785,-6.195452],[106.841143,-6.194153]]]},"properties":{"h3_index":"898c1079d4fffff","kawasan":"Dukuh Atas BNI","tingkat_keyakinan":"RENDAH","n_titik_misi":0,"data_source":"predicted","zona_izin_komersial":true,"indeks_churn":null,"harga_sewa_median":null,"harga_sewa_per_m2":null,"belanja_per_jam":null,"njop_m2":null,"opportunity_score":48.1,"hidden_gem_score":null,"kuadran":"PEMENANG_JELAS"}},{"type":"Feature","id":"898c1079d63ffff","geometry":{"type":"Polygon","coordinates":[[[106.834876,-6.195878],[106.834459,-6.194143],[106.832684,-6.193706],[106.831326,-6.195005],[106.831742,-6.19674],[106.833517,-6.197176],[106.834876,-6.195878]]]},"properties":{"h3_index":"898c1079d63ffff","kawasan":"Dukuh Atas BNI","tingkat_keyakinan":"RENDAH","n_titik_misi":0,"data_source":"predicted","zona_izin_komersial":null,"indeks_churn":null,"harga_sewa_median":null,"harga_sewa_per_m2":null,"belanja_per_jam":null,"njop_m2":null,"opportunity_score":52.9,"hidden_gem_score":null,"kuadran":"PEMENANG_JELAS"}},{"type":"Feature","id":"898c1079d67ffff","geometry":{"type":"Polygon","coordinates":[[[106.831742,-6.19674],[106.831326,-6.195005],[106.82955,-6.194568],[106.828192,-6.195867],[106.828608,-6.197602],[106.830383,-6.198038],[106.831742,-6.19674]]]},"properties":{"h3_index":"898c1079d67ffff","kawasan":"Dukuh Atas BNI","tingkat_keyakinan":"RENDAH","n_titik_misi":0,"data_source":"predicted","zona_izin_komersial":true,"indeks_churn":null,"harga_sewa_median":null,"harga_sewa_per_m2":null,"belanja_per_jam":null,"njop_m2":null,"opportunity_score":57.7,"hidden_gem_score":null,"kuadran":"PEMENANG_JELAS"}},{"type":"Feature","id":"898c1079d6bffff","geometry":{"type":"Polygon","coordinates":[[[106.835818,-6.192844],[106.835402,-6.19111],[106.833627,-6.190673],[106.832268,-6.191972],[106.832684,-6.193706],[106.834459,-6.194143],[106.835818,-6.192844]]]},"properties":{"h3_index":"898c1079d6bffff","kawasan":"Dukuh Atas BNI","tingkat_keyakinan":"RENDAH","n_titik_misi":0,"data_source":"predicted","zona_izin_komersial":null,"indeks_churn":null,"harga_sewa_median":null,"harga_sewa_per_m2":null,"belanja_per_jam":null,"njop_m2":null,"opportunity_score":51.0,"hidden_gem_score":null,"kuadran":"PEMENANG_JELAS"}},{"type":"Feature","id":"898c1079d6fffff","geometry":{"type":"Polygon","coordinates":[[[106.832684,-6.193706],[106.832268,-6.191972],[106.830493,-6.191535],[106.829134,-6.192834],[106.82955,-6.194568],[106.831326,-6.195005],[106.832684,-6.193706]]]},"properties":{"h3_index":"898c1079d6fffff","kawasan":"Dukuh Atas BNI","tingkat_keyakinan":"RENDAH","n_titik_misi":0,"data_source":"predicted","zona_izin_komersial":null,"indeks_churn":null,"harga_sewa_median":null,"harga_sewa_per_m2":null,"belanja_per_jam":null,"njop_m2":null,"opportunity_score":51.5,"hidden_gem_score":null,"kuadran":"PEMENANG_JELAS"}},{"type":"Feature","id":"898c1079d73ffff","geometry":{"type":"Polygon","coordinates":[[[106.837067,-6.198049],[106.836651,-6.196314],[106.834876,-6.195878],[106.833517,-6.197176],[106.833933,-6.198911],[106.835708,-6.199347],[106.837067,-6.198049]]]},"properties":{"h3_index":"898c1079d73ffff","kawasan":"Dukuh Atas BNI","tingkat_keyakinan":"RENDAH","n_titik_misi":0,"data_source":"predicted","zona_izin_komersial":true,"indeks_churn":null,"harga_sewa_median":null,"harga_sewa_per_m2":null,"belanja_per_jam":null,"njop_m2":null,"opportunity_score":52.7,"hidden_gem_score":0.527412673352153,"kuadran":"HIDDEN_GEM"}},{"type":"Feature","id":"898c1079d77ffff","geometry":{"type":"Polygon","coordinates":[[[106.833933,-6.198911],[106.833517,-6.197176],[106.831742,-6.19674],[106.830383,-6.198038],[106.8308,-6.199773],[106.832575,-6.200209],[106.833933,-6.198911]]]},"properties":{"h3_index":"898c1079d77ffff","kawasan":"Dukuh Atas BNI","tingkat_keyakinan":"RENDAH","n_titik_misi":0,"data_source":"predicted","zona_izin_komersial":null,"indeks_churn":null,"harga_sewa_median":null,"harga_sewa_per_m2":null,"belanja_per_jam":null,"njop_m2":null,"opportunity_score":52.7,"hidden_gem_score":null,"kuadran":"PEMENANG_JELAS"}},{"type":"Feature","id":"898c1079d7bffff","geometry":{"type":"Polygon","coordinates":[[[106.83801,-6.195015],[106.837593,-6.193281],[106.835818,-6.192844],[106.834459,-6.194143],[106.834876,-6.195878],[106.836651,-6.196314],[106.83801,-6.195015]]]},"properties":{"h3_index":"898c1079d7bffff","kawasan":"Dukuh Atas BNI","tingkat_keyakinan":"RENDAH","n_titik_misi":0,"data_source":"predicted","zona_izin_komersial":true,"indeks_churn":null,"harga_sewa_median":null,"harga_sewa_per_m2":null,"belanja_per_jam":null,"njop_m2":null,"opportunity_score":55.0,"hidden_gem_score":0.54594176223288,"kuadran":"HIDDEN_GEM"}},{"type":"Feature","id":"898c1079da3ffff","geometry":{"type":"Polygon","coordinates":[[[106.833298,-6.21018],[106.832881,-6.208446],[106.831106,-6.20801],[106.829748,-6.209308],[106.830164,-6.211043],[106.831939,-6.211479],[106.833298,-6.21018]]]},"properties":{"h3_index":"898c1079da3ffff","kawasan":"Dukuh Atas BNI","tingkat_keyakinan":"RENDAH","n_titik_misi":0,"data_source":"predicted","zona_izin_komersial":true,"indeks_churn":null,"harga_sewa_median":null,"harga_sewa_per_m2":null,"belanja_per_jam":null,"njop_m2":null,"opportunity_score":64.5,"hidden_gem_score":0.545766100691691,"kuadran":"HIDDEN_GEM"}},{"type":"Feature","id":"898c1079da7ffff","geometry":{"type":"Polygon","coordinates":[[[106.830164,-6.211043],[106.829748,-6.209308],[106.827972,-6.208872],[106.826614,-6.21017],[106.82703,-6.211905],[106.828805,-6.212341],[106.830164,-6.211043]]]},"properties":{"h3_index":"898c1079da7ffff","kawasan":"Dukuh Atas BNI","tingkat_keyakinan":"RENDAH","n_titik_misi":0,"data_source":"predicted","zona_izin_komersial":true,"indeks_churn":null,"harga_sewa_median":null,"harga_sewa_per_m2":null,"belanja_per_jam":null,"njop_m2":null,"opportunity_score":63.9,"hidden_gem_score":null,"kuadran":"PEMENANG_JELAS"}},{"type":"Feature","id":"898c1079dabffff","geometry":{"type":"Polygon","coordinates":[[[106.83424,-6.207148],[106.833824,-6.205413],[106.832049,-6.204977],[106.83069,-6.206275],[106.831106,-6.20801],[106.832881,-6.208446],[106.83424,-6.207148]]]},"properties":{"h3_index":"898c1079dabffff","kawasan":"Dukuh Atas BNI","tingkat_keyakinan":"RENDAH","n_titik_misi":0,"data_source":"predicted","zona_izin_komersial":true,"indeks_churn":null,"harga_sewa_median":null,"harga_sewa_per_m2":null,"belanja_per_jam":null,"njop_m2":null,"opportunity_score":64.2,"hidden_gem_score":null,"kuadran":"PEMENANG_JELAS"}},{"type":"Feature","id":"898c1079dafffff","geometry":{"type":"Polygon","coordinates":[[[106.831106,-6.20801],[106.83069,-6.206275],[106.828915,-6.205839],[106.827556,-6.207137],[106.827972,-6.208872],[106.829748,-6.209308],[106.831106,-6.20801]]]},"properties":{"h3_index":"898c1079dafffff","kawasan":"Dukuh Atas BNI","tingkat_keyakinan":"RENDAH","n_titik_misi":0,"data_source":"predicted","zona_izin_komersial":true,"indeks_churn":null,"harga_sewa_median":null,"harga_sewa_per_m2":null,"belanja_per_jam":null,"njop_m2":null,"opportunity_score":65.5,"hidden_gem_score":0.562085402772955,"kuadran":"HIDDEN_GEM"}},{"type":"Feature","id":"898c1079db3ffff","geometry":{"type":"Polygon","coordinates":[[[106.835489,-6.212351],[106.835073,-6.210617],[106.833298,-6.21018],[106.831939,-6.211479],[106.832355,-6.213213],[106.83413,-6.213649],[106.835489,-6.212351]]]},"properties":{"h3_index":"898c1079db3ffff","kawasan":"Dukuh Atas BNI","tingkat_keyakinan":"RENDAH","n_titik_misi":0,"data_source":"predicted","zona_izin_komersial":true,"indeks_churn":null,"harga_sewa_median":null,"harga_sewa_per_m2":null,"belanja_per_jam":null,"njop_m2":null,"opportunity_score":61.2,"hidden_gem_score":0.563664334232641,"kuadran":"HIDDEN_GEM"}},{"type":"Feature","id":"898c1079db7ffff","geometry":{"type":"Polygon","coordinates":[[[106.832355,-6.213213],[106.831939,-6.211479],[106.830164,-6.211043],[106.828805,-6.212341],[106.829222,-6.214075],[106.830997,-6.214511],[106.832355,-6.213213]]]},"properties":{"h3_index":"898c1079db7ffff","kawasan":"Dukuh Atas BNI","tingkat_keyakinan":"RENDAH","n_titik_misi":0,"data_source":"predicted","zona_izin_komersial":true,"indeks_churn":null,"harga_sewa_median":null,"harga_sewa_per_m2":null,"belanja_per_jam":null,"njop_m2":null,"opportunity_score":62.4,"hidden_gem_score":null,"kuadran":"PEMENANG_JELAS"}},{"type":"Feature","id":"898c1079dbbffff","geometry":{"type":"Polygon","coordinates":[[[106.836431,-6.209318],[106.836015,-6.207584],[106.83424,-6.207148],[106.832881,-6.208446],[106.833298,-6.21018],[106.835073,-6.210617],[106.836431,-6.209318]]]},"properties":{"h3_index":"898c1079dbbffff","kawasan":"Dukuh Atas BNI","tingkat_keyakinan":"RENDAH","n_titik_misi":0,"data_source":"predicted","zona_izin_komersial":true,"indeks_churn":null,"harga_sewa_median":null,"harga_sewa_per_m2":null,"belanja_per_jam":null,"njop_m2":null,"opportunity_score":63.1,"hidden_gem_score":null,"kuadran":"PEMENANG_JELAS"}}]}