{"type":"FeatureCollection","features":[{"type":"Feature","id":"898c1078067ffff","geometry":{"type":"Polygon","coordinates":[[[106.862417,-6.227127],[106.862,-6.225393],[106.860226,-6.224957],[106.858867,-6.226255],[106.859284,-6.227989],[106.861058,-6.228425],[106.862417,-6.227127]]]},"properties":{"h3_index":"898c1078067ffff","kawasan":"Manggarai","tingkat_keyakinan":"RENDAH","n_titik_misi":0,"data_source":"predicted","zona_izin_komersial":true,"indeks_churn":null,"harga_sewa_median":null,"harga_sewa_per_m2":null,"belanja_per_jam":null,"njop_m2":null,"opportunity_score":55.4,"hidden_gem_score":null,"kuadran":"PEMENANG_JELAS"}},{"type":"Feature","id":"898c107806fffff","geometry":{"type":"Polygon","coordinates":[[[106.863359,-6.224094],[106.862943,-6.22236],[106.861168,-6.221924],[106.85981,-6.223223],[106.860226,-6.224957],[106.862,-6.225393],[106.863359,-6.224094]]]},"properties":{"h3_index":"898c107806fffff","kawasan":"Manggarai","tingkat_keyakinan":"RENDAH","n_titik_misi":0,"data_source":"predicted","zona_izin_komersial":true,"indeks_churn":null,"harga_sewa_median":null,"harga_sewa_per_m2":null,"belanja_per_jam":null,"njop_m2":null,"opportunity_score":59.0,"hidden_gem_score":null,"kuadran":"HIDDEN_GEM"}},{"type":"Feature","id":"898c107814bffff","geometry":{"type":"Polygon","coordinates":[[[106.853017,-6.229713],[106.852601,-6.227979],[106.850826,-6.227543],[106.849468,-6.228841],[106.849884,-6.230575],[106.851659,-6.231011],[106.853017,-6.229713]]]},"properties":{"h3_index":"898c107814bffff","kawasan":"Manggarai","tingkat_keyakinan":"RENDAH","n_titik_misi":0,"data_source":"predicted","zona_izin_komersial":true,"indeks_churn":null,"harga_sewa_median":null,"harga_sewa_per_m2":null,"belanja_per_jam":null,"njop_m2":null,"opportunity_score":51.3,"hidden_gem_score":null,"kuadran":"PEMENANG_JELAS"}},{"type":"Feature","id":"898c107814fffff","geometry":{"type":"Polygon","coordinates":[[[106.849884,-6.230575],[106.849468,-6.228841],[106.847693,-6.228405],[106.846335,-6.229704],[106.846751,-6.231438],[106.848526,-6.231873],[106.849884,-6.230575]]]},"properties":{"h3_index":"898c107814fffff","kawasan":"Manggarai","tingkat_keyakinan":"RENDAH","n_titik_misi":0,"data_source":"predicted","zona_izin_komersial":true,"indeks_churn":null,"harga_sewa_median":null,"harga_sewa_per_m2":null,"belanja_per_jam":null,"njop_m2":null,"opportunity_score":42.0,"hidden_gem_score":null,"kuadran":"JEBAKAN_GENGSI"}},{"type":"Feature","id":"898c107816bffff","geometry":{"type":"Polygon","coordinates":[[[106.84456,-6.229268],[106.844144,-6.227534],[106.842369,-6.227098],[106.84101,-6.228396],[106.841427,-6.23013],[106.843201,-6.230566],[106.84456,-6.229268]]]},"properties":{"h3_index":"898c107816bffff","kawasan":"Manggarai","tingkat_keyakinan":"RENDAH","n_titik_misi":0,"data_source":"predicted","zona_izin_komersial":null,"indeks_churn":null,"harga_sewa_median":null,"harga_sewa_per_m2":null,"belanja_per_jam":null,"njop_m2":null,"opportunity_score":48.0,"hidden_gem_score":0.523202118883647,"kuadran":"HIDDEN_GEM"}},{"type":"Feature","id":"898c107817bffff","geometry":{"type":"Polygon","coordinates":[[[106.846751,-6.231438],[106.846335,-6.229704],[106.84456,-6.229268],[106.843201,-6.230566],[106.843618,-6.2323],[106.845392,-6.232736],[106.846751,-6.231438]]]},"properties":{"h3_index":"898c107817bffff","kawasan":"Manggarai","tingkat_keyakinan":"RENDAH","n_titik_misi":0,"data_source":"predicted","zona_izin_komersial":true,"indeks_churn":null,"harga_sewa_median":null,"harga_sewa_per_m2":null,"belanja_per_jam":null,"njop_m2":null,"opportunity_score":41.1,"hidden_gem_score":null,"kuadran":"JEBAKAN_GENGSI"}},{"type":"Feature","id":"898c1078223ffff","geometry":{"type":"Polygon","coordinates":[[[106.867129,-6.211965],[106.866713,-6.210231],[106.864938,-6.209795],[106.86358,-6.211093],[106.863996,-6.212827],[106.86577,-6.213263],[106.867129,-6.211965]]]},"properties":{"h3_index":"898c1078223ffff","kawasan":"Manggarai","tingkat_keyakinan":"RENDAH","n_titik_misi":0,"data_source":"predicted","zona_izin_komersial":true,"indeks_churn":null,"harga_sewa_median":null,"harga_sewa_per_m2":null,"belanja_per_jam":null,"njop_m2":null,"opportunity_score":35.2,"hidden_gem_score":null,"kuadran":"JEBAKAN_GENGSI"}},{"type":"Feature","id":"898c1078227ffff","geometry":{"type":"Polygon","coordinates":[[[106.863996,-6.212827],[106.86358,-6.211093],[106.861805,-6.210657],[106.860446,-6.211955],[106.860862,-6.21369],[106.862637,-6.214126],[106.863996,-6.212827]]]},"properties":{"h3_index":"898c1078227ffff","kawasan":"Manggarai","tingkat_keyakinan":"RENDAH","n_titik_misi":0,"data_source":"predicted","zona_izin_komersial":true,"indeks_churn":null,"harga_sewa_median":null,"harga_sewa_per_m2":null,"belanja_per_jam":null,"njop_m2":null,"opportunity_score":59.8,"hidden_gem_score":null,"kuadran":"HIDDEN_GEM"}},{"type":"Feature","id":"898c107822bffff","geometry":{"type":"Polygon","coordinates":[[[106.868071,-6.208933],[106.867655,-6.207198],[106.865881,-6.206762],[106.864522,-6.208061],[106.864938,-6.209795],[106.866713,-6.210231],[106.868071,-6.208933]]]},"properties":{"h3_index":"898c107822bffff","kawasan":"Manggarai","tingkat_keyakinan":"RENDAH","n_titik_misi":0,"data_source":"predicted","zona_izin_komersial":true,"indeks_churn":null,"harga_sewa_median":null,"harga_sewa_per_m2":null,"belanja_per_jam":null,"njop_m2":null,"opportunity_score":52.8,"hidden_gem_score":0.547722053049143,"kuadran":"HIDDEN_GEM"}},{"type":"Feature","id":"898c107822fffff","geometry":{"type":"Polygon","coordinates":[[[106.864938,-6.209795],[106.864522,-6.208061],[106.862747,-6.207624],[106.861389,-6.208923],[106.861805,-6.210657],[106.86358,-6.211093],[106.864938,-6.209795]]]},"properties":{"h3_index":"898c107822fffff","kawasan":"Manggarai","tingkat_keyakinan":"RENDAH","n_titik_misi":1,"data_source":"observed","zona_izin_komersial":true,"indeks_churn":null,"harga_sewa_median":null,"harga_sewa_per_m2":null,"belanja_per_jam":null,"njop_m2":null,"opportunity_score":29.2,"hidden_gem_score":null,"kuadran":"JEBAKAN_GENGSI"}},{"type":"Feature","id":"898c1078233ffff","geometry":{"type":"Polygon","coordinates":[[[106.869319,-6.214135],[106.868903,-6.212401],[106.867129,-6.211965],[106.86577,-6.213263],[106.866186,-6.214998],[106.867961,-6.215434],[106.869319,-6.214135]]]},"properties":{"h3_index":"898c1078233ffff","kawasan":"Manggarai","tingkat_keyakinan":"RENDAH","n_titik_misi":0,"data_source":"predicted","zona_izin_komersial":true,"indeks_churn":null,"harga_sewa_median":null,"harga_sewa_per_m2":null,"belanja_per_jam":null,"njop_m2":null,"opportunity_score":73.2,"hidden_gem_score":null,"kuadran":"PEMENANG_JELAS"}},{"type":"Feature","id":"898c1078237ffff","geometry":{"type":"Polygon","coordinates":[[[106.866186,-6.214998],[106.86577,-6.213263],[106.863996,-6.212827],[106.862637,-6.214126],[106.863053,-6.21586],[106.864828,-6.216296],[106.866186,-6.214998]]]},"properties":{"h3_index":"898c1078237ffff","kawasan":"Manggarai","tingkat_keyakinan":"RENDAH","n_titik_misi":0,"data_source":"predicted","zona_izin_komersial":true,"indeks_churn":null,"harga_sewa_median":null,"harga_sewa_per_m2":null,"belanja_per_jam":null,"njop_m2":null,"opportunity_score":64.8,"hidden_gem_score":null,"kuadran":"HIDDEN_GEM"}},{"type":"Feature","id":"898c107823bffff","geometry":{"type":"Polygon","coordinates":[[[106.870262,-6.211103],[106.869846,-6.209369],[106.868071,-6.208933],[106.866713,-6.210231],[106.867129,-6.211965],[106.868903,-6.212401],[106.870262,-6.211103]]]},"properties":{"h3_index":"898c107823bffff","kawasan":"Manggarai","tingkat_keyakinan":"RENDAH","n_titik_misi":0,"data_source":"predicted","zona_izin_komersial":true,"indeks_churn":null,"harga_sewa_median":null,"harga_sewa_per_m2":null,"belanja_per_jam":null,"njop_m2":null,"opportunity_score":44.8,"hidden_gem_score":0.534425530901761,"kuadran":"HIDDEN_GEM"}},{"type":"Feature","id":"898c1078267ffff","geometry":{"type":"Polygon","coordinates":[[[106.869014,-6.2059],[106.868598,-6.204166],[106.866823,-6.20373],[106.865464,-6.205028],[106.865881,-6.206762],[106.867655,-6.207198],[106.869014,-6.2059]]]},"properties":{"h3_index":"898c1078267ffff","kawasan":"Manggarai","tingkat_keyakinan":"RENDAH","n_titik_misi":0,"data_source":"predicted","zona_izin_komersial":true,"indeks_churn":null,"harga_sewa_median":null,"harga_sewa_per_m2":null,"belanja_per_jam":null,"njop_m2":null,"opportunity_score":32.2,"hidden_gem_score":null,"kuadran":"JEBAKAN_GENGSI"}},{"type":"Feature","id":"898c1078277ffff","geometry":{"type":"Polygon","coordinates":[[[106.871204,-6.20807],[106.870788,-6.206336],[106.869014,-6.2059],[106.867655,-6.207198],[106.868071,-6.208933],[106.869846,-6.209369],[106.871204,-6.20807]]]},"properties":{"h3_index":"898c1078277ffff","kawasan":"Manggarai","tingkat_keyakinan":"RENDAH","n_titik_misi":0,"data_source":"predicted","zona_izin_komersial":null,"indeks_churn":null,"harga_sewa_median":null,"harga_sewa_per_m2":null,"belanja_per_jam":null,"njop_m2":null,"opportunity_score":42.3,"hidden_gem_score":null,"kuadran":"JEBAKAN_GENGSI"}},{"type":"Feature","id":"898c10782a7ffff","geometry":{"type":"Polygon","coordinates":[[[106.867434,-6.2202],[106.867018,-6.218466],[106.865244,-6.21803],[106.863885,-6.219328],[106.864301,-6.221062],[106.866076,-6.221498],[106.867434,-6.2202]]]},"properties":{"h3_index":"898c10782a7ffff","kawasan":"Manggarai","tingkat_keyakinan":"RENDAH","n_titik_misi":0,"data_source":"predicted","zona_izin_komersial":true,"indeks_churn":null,"harga_sewa_median":null,"harga_sewa_per_m2":null,"belanja_per_jam":null,"njop_m2":null,"opportunity_score":57.1,"hidden_gem_score":null,"kuadran":"HIDDEN_GEM"}},{"type":"Feature","id":"898c10782afffff","geometry":{"type":"Polygon","coordinates":[[[106.868377,-6.217168],[106.867961,-6.215434],[106.866186,-6.214998],[106.864828,-6.216296],[106.865244,-6.21803],[106.867018,-6.218466],[106.868377,-6.217168]]]},"properties":{"h3_index":"898c10782afffff","kawasan":"Manggarai","tingkat_keyakinan":"RENDAH","n_titik_misi":0,"data_source":"predicted","zona_izin_komersial":true,"indeks_churn":null,"harga_sewa_median":null,"harga_sewa_per_m2":null,"belanja_per_jam":null,"njop_m2":null,"opportunity_score":63.6,"hidden_gem_score":null,"kuadran":"PEMENANG_JELAS"}},{"type":"Feature","id":"898c1078303ffff","geometry":{"type":"Polygon","coordinates":[[[106.853654,-6.218446],[106.853237,-6.216712],[106.851463,-6.216276],[106.850104,-6.217574],[106.85052,-6.219309],[106.852295,-6.219745],[106.853654,-6.218446]]]},"properties":{"h3_index":"898c1078303ffff","kawasan":"Manggarai","tingkat_keyakinan":"RENDAH","n_titik_misi":0,"data_source":"predicted","zona_izin_komersial":true,"indeks_churn":null,"harga_sewa_median":null,"harga_sewa_per_m2":null,"belanja_per_jam":null,"njop_m2":null,"opportunity_score":46.4,"hidden_gem_score":null,"kuadran":"PEMENANG_JELAS"}},{"type":"Feature","id":"898c1078307ffff","geometry":{"type":"Polygon","coordinates":[[[106.85052,-6.219309],[106.850104,-6.217574],[106.848329,-6.217138],[106.846971,-6.218436],[106.847387,-6.220171],[106.849162,-6.220607],[106.85052,-6.219309]]]},"properties":{"h3_index":"898c1078307ffff","kawasan":"Manggarai","tingkat_keyakinan":"RENDAH","n_titik_misi":0,"data_source":"predicted","zona_izin_komersial":null,"indeks_churn":null,"harga_sewa_median":null,"harga_sewa_per_m2":null,"belanja_per_jam":null,"njop_m2":null,"opportunity_score":48.1,"hidden_gem_score":null,"kuadran":"PEMENANG_JELAS"}},{"type":"Feature","id":"898c107830bffff","geometry":{"type":"Polygon","coordinates":[[[106.854596,-6.215414],[106.85418,-6.21368],[106.852405,-6.213244],[106.851047,-6.214542],[106.851463,-6.216276],[106.853237,-6.216712],[106.854596,-6.215414]]]},"properties":{"h3_index":"898c107830bffff","kawasan":"Manggarai","tingkat_keyakinan":"RENDAH","n_titik_misi":0,"data_source":"predicted","zona_izin_komersial":null,"indeks_churn":null,"harga_sewa_median":null,"harga_sewa_per_m2":null,"belanja_per_jam":null,"njop_m2":null,"opportunity_score":58.6,"hidden_gem_score":null,"kuadran":"HIDDEN_GEM"}},{"type":"Feature","id":"898c107830fffff","geometry":{"type":"Polygon","coordinates":[[[106.851463,-6.216276],[106.851047,-6.214542],[106.849272,-6.214106],[106.847913,-6.215404],[106.848329,-6.217138],[106.850104,-6.217574],[106.851463,-6.216276]]]},"properties":{"h3_index":"898c107830fffff","kawasan":"Manggarai","tingkat_keyakinan":"RENDAH","n_titik_misi":0,"data_source":"predicted","zona_izin_komersial":true,"indeks_churn":null,"harga_sewa_median":null,"harga_sewa_per_m2":null,"belanja_per_jam":null,"njop_m2":null,"opportunity_score":36.0,"hidden_gem_score":null,"kuadran":"JEBAKAN_GENGSI"}},{"type":"Feature","id":"898c1078313ffff","geometry":{"type":"Polygon","coordinates":[[[106.855844,-6.220617],[106.855428,-6.218882],[106.853654,-6.218446],[106.852295,-6.219745],[106.852711,-6.221479],[106.854486,-6.221915],[106.855844,-6.220617]]]},"properties":{"h3_index":"898c1078313ffff","kawasan":"Manggarai","tingkat_keyakinan":"RENDAH","n_titik_misi":0,"data_source":"predicted","zona_izin_komersial":true,"indeks_churn":null,"harga_sewa_median":null,"harga_sewa_per_m2":null,"belanja_per_jam":null,"njop_m2":null,"opportunity_score":25.5,"hidden_gem_score":null,"kuadran":"JEBAKAN_GENGSI"}},{"type":"Feature","id":"898c1078317ffff","geometry":{"type":"Polygon","coordinates":[[[106.852711,-6.221479],[106.852295,-6.219745],[106.85052,-6.219309],[106.849162,-6.220607],[106.849578,-6.222341],[106.851353,-6.222777],[106.852711,-6.221479]]]},"properties":{"h3_index":"898c1078317ffff","kawasan":"Manggarai","tingkat_keyakinan":"RENDAH","n_titik_misi":0,"data_source":"predicted","zona_izin_komersial":null,"indeks_churn":null,"harga_sewa_median":null,"harga_sewa_per_m2":null,"belanja_per_jam":null,"njop_m2":null,"opportunity_score":61.3,"hidden_gem_score":null,"kuadran":"PEMENANG_JELAS"}},{"type":"Feature","id":"898c107831bffff","geometry":{"type":"Polygon","coordinates":[[[106.856787,-6.217584],[106.856371,-6.21585],[106.854596,-6.215414],[106.853237,-6.216712],[106.853654,-6.218446],[106.855428,-6.218882],[106.856787,-6.217584]]]},"properties":{"h3_index":"898c107831bffff","kawasan":"Manggarai","tingkat_keyakinan":"RENDAH","n_titik_misi":0,"data_source":"predicted","zona_izin_komersial":true,"indeks_churn":null,"harga_sewa_median":null,"harga_sewa_per_m2":null,"belanja_per_jam":null,"njop_m2":null,"opportunity_score":45.2,"hidden_gem_score":null,"kuadran":"PEMENANG_JELAS"}},{"type":"Feature","id":"898c1078323ffff","geometry":{"type":"Polygon","coordinates":[[[106.845196,-6.218],[106.84478,-6.216266],[106.843005,-6.21583],[106.841646,-6.217128],[106.842063,-6.218863],[106.843837,-6.219299],[106.845196,-6.218]]]},"properties":{"h3_index":"898c1078323ffff","kawasan":"Manggarai","tingkat_keyakinan":"RENDAH","n_titik_misi":0,"data_source":"predicted","zona_izin_komersial":true,"indeks_churn":null,"harga_sewa_median":null,"harga_sewa_per_m2":null,"belanja_per_jam":null,"njop_m2":null,"opportunity_score":56.2,"hidden_gem_score":null,"kuadran":"PEMENANG_JELAS"}},{"type":"Feature","id":"898c1078327ffff","geometry":{"type":"Polygon","coordinates":[[[106.842063,-6.218863],[106.841646,-6.217128],[106.839871,-6.216692],[106.838513,-6.21799],[106.838929,-6.219725],[106.840704,-6.220161],[106.842063,-6.218863]]]},"properties":{"h3_index":"898c1078327ffff","kawasan":"Manggarai","tingkat_keyakinan":"RENDAH","n_titik_misi":1,"data_source":"observed","zona_izin_komersial":true,"indeks_churn":null,"harga_sewa_median":null,"harga_sewa_per_m2":null,"belanja_per_jam":null,"njop_m2":null,"opportunity_score":48.3,"hidden_gem_score":null,"kuadran":"PEMENANG_JELAS"}},{"type":"Feature","id":"898c107832bffff","geometry":{"type":"Polygon","coordinates":[[[106.846138,-6.214968],[106.845722,-6.213234],[106.843947,-6.212797],[106.842589,-6.214096],[106.843005,-6.21583],[106.84478,-6.216266],[106.846138,-6.214968]]]},"properties":{"h3_index":"898c107832bffff","kawasan":"Manggarai","tingkat_keyakinan":"RENDAH","n_titik_misi":0,"data_source":"predicted","zona_izin_komersial":true,"indeks_churn":null,"harga_sewa_median":null,"harga_sewa_per_m2":null,"belanja_per_jam":null,"njop_m2":null,"opportunity_score":44.6,"hidden_gem_score":null,"kuadran":"PEMENANG_JELAS"}},{"type":"Feature","id":"898c107832fffff","geometry":{"type":"Polygon","coordinates":[[[106.843005,-6.21583],[106.842589,-6.214096],[106.840814,-6.21366],[106.839455,-6.214958],[106.839871,-6.216692],[106.841646,-6.217128],[106.843005,-6.21583]]]},"properties":{"h3_index":"898c107832fffff","kawasan":"Manggarai","tingkat_keyakinan":"RENDAH","n_titik_misi":0,"data_source":"predicted","zona_izin_komersial":null,"indeks_churn":null,"harga_sewa_median":null,"harga_sewa_per_m2":null,"belanja_per_jam":null,"njop_m2":null,"opportunity_score":48.4,"hidden_gem_score":0.498336513050683,"kuadran":"HIDDEN_GEM"}},{"type":"Feature","id":"898c1078333ffff","geometry":{"type":"Polygon","coordinates":[[[106.847387,-6.220171],[106.846971,-6.218436],[106.845196,-6.218],[106.843837,-6.219299],[106.844254,-6.221033],[106.846028,-6.221469],[106.847387,-6.220171]]]},"properties":{"h3_index":"898c1078333ffff","kawasan":"Manggarai","tingkat_keyakinan":"RENDAH","n_titik_misi":0,"data_source":"predicted","zona_izin_komersial":true,"indeks_churn":null,"harga_sewa_median":null,"harga_sewa_per_m2":null,"belanja_per_jam":null,"njop_m2":null,"opportunity_score":61.2,"hidden_gem_score":null,"kuadran":"PEMENANG_JELAS"}},{"type":"Feature","id":"898c1078337ffff","geometry":{"type":"Polygon","coordinates":[[[106.844254,-6.221033],[106.843837,-6.219299],[106.842063,-6.218863],[106.840704,-6.220161],[106.84112,-6.221895],[106.842895,-6.222331],[106.844254,-6.221033]]]},"properties":{"h3_index":"898c1078337ffff","kawasan":"Manggarai","tingkat_keyakinan":"RENDAH","n_titik_misi":0,"data_source":"predicted","zona_izin_komersial":true,"indeks_churn":null,"harga_sewa_median":null,"harga_sewa_per_m2":null,"belanja_per_jam":null,"njop_m2":null,"opportunity_score":48.2,"hidden_gem_score":null,"kuadran":"PEMENANG_JELAS"}},{"type":"Feature","id":"898c107833bffff","geometry":{"type":"Polygon","coordinates":[[[106.848329,-6.217138],[106.847913,-6.215404],[106.846138,-6.214968],[106.84478,-6.216266],[106.845196,-6.218],[106.846971,-6.218436],[106.848329,-6.217138]]]},"properties":{"h3_index":"898c107833bffff","kawasan":"Manggarai","tingkat_keyakinan":"RENDAH","n_titik_misi":0,"data_source":"predicted","zona_izin_komersial":true,"indeks_churn":null,"harga_sewa_median":null,"harga_sewa_per_m2":null,"belanja_per_jam":null,"njop_m2":null,"opportunity_score":45.4,"hidden_gem_score":null,"kuadran":"PEMENANG_JELAS"}},{"type":"Feature","id":"898c1078343ffff","geometry":{"type":"Polygon","coordinates":[[[106.858672,-6.211519],[106.858256,-6.209785],[106.856481,-6.209349],[106.855122,-6.210647],[106.855538,-6.212381],[106.857313,-6.212817],[106.858672,-6.211519]]]},"properties":{"h3_index":"898c1078343ffff","kawasan":"Manggarai","tingkat_keyakinan":"RENDAH","n_titik_misi":0,"data_source":"predicted","zona_izin_komersial":null,"indeks_churn":null,"harga_sewa_median":null,"harga_sewa_per_m2":null,"belanja_per_jam":null,"njop_m2":null,"opportunity_score":55.2,"hidden_gem_score":null,"kuadran":"HIDDEN_GEM"}},{"type":"Feature","id":"898c1078347ffff","geometry":{"type":"Polygon","coordinates":[[[106.855538,-6.212381],[106.855122,-6.210647],[106.853348,-6.210211],[106.851989,-6.211509],[106.852405,-6.213244],[106.85418,-6.21368],[106.855538,-6.212381]]]},"properties":{"h3_index":"898c1078347ffff","kawasan":"Manggarai","tingkat_keyakinan":"RENDAH","n_titik_misi":0,"data_source":"predicted","zona_izin_komersial":null,"indeks_churn":null,"harga_sewa_median":null,"harga_sewa_per_m2":null,"belanja_per_jam":null,"njop_m2":null,"opportunity_score":62.3,"hidden_gem_score":null,"kuadran":"HIDDEN_GEM"}},{"type":"Feature","id":"898c107834bffff","geometry":{"type":"Polygon","coordinates":[[[106.859614,-6.208487],[106.859198,-6.206752],[106.857423,-6.206316],[106.856065,-6.207614],[106.856481,-6.209349],[106.858256,-6.209785],[106.859614,-6.208487]]]},"properties":{"h3_index":"898c107834bffff","kawasan":"Manggarai","tingkat_keyakinan":"RENDAH","n_titik_misi":0,"data_source":"predicted","zona_izin_komersial":true,"indeks_churn":null,"harga_sewa_median":null,"harga_sewa_per_m2":null,"belanja_per_jam":null,"njop_m2":null,"opportunity_score":56.1,"hidden_gem_score":null,"kuadran":"HIDDEN_GEM"}},{"type":"Feature","id":"898c107834fffff","geometry":{"type":"Polygon","coordinates":[[[106.856481,-6.209349],[106.856065,-6.207614],[106.85429,-6.207178],[106.852931,-6.208477],[106.853348,-6.210211],[106.855122,-6.210647],[106.856481,-6.209349]]]},"properties":{"h3_index":"898c107834fffff","kawasan":"Manggarai","tingkat_keyakinan":"RENDAH","n_titik_misi":0,"data_source":"predicted","zona_izin_komersial":null,"indeks_churn":null,"harga_sewa_median":null,"harga_sewa_per_m2":null,"belanja_per_jam":null,"njop_m2":null,"opportunity_score":58.1,"hidden_gem_score":null,"kuadran":"PEMENANG_JELAS"}},{"type":"Feature","id":"898c1078353ffff","geometry":{"type":"Polygon","coordinates":[[[106.860862,-6.21369],[106.860446,-6.211955],[106.858672,-6.211519],[106.857313,-6.212817],[106.857729,-6.214552],[106.859504,-6.214988],[106.860862,-6.21369]]]},"properties":{"h3_index":"898c1078353ffff","kawasan":"Manggarai","tingkat_keyakinan":"RENDAH","n_titik_misi":0,"data_source":"predicted","zona_izin_komersial":true,"indeks_churn":null,"harga_sewa_median":null,"harga_sewa_per_m2":null,"belanja_per_jam":null,"njop_m2":null,"opportunity_score":37.1,"hidden_gem_score":null,"kuadran":"JEBAKAN_GENGSI"}},{"type":"Feature","id":"898c1078357ffff","geometry":{"type":"Polygon","coordinates":[[[106.857729,-6.214552],[106.857313,-6.212817],[106.855538,-6.212381],[106.85418,-6.21368],[106.854596,-6.215414],[106.856371,-6.21585],[106.857729,-6.214552]]]},"properties":{"h3_index":"898c1078357ffff","kawasan":"Manggarai","tingkat_keyakinan":"RENDAH","n_titik_misi":0,"data_source":"predicted","zona_izin_komersial":null,"indeks_churn":null,"harga_sewa_median":null,"harga_sewa_per_m2":null,"belanja_per_jam":null,"njop_m2":null,"opportunity_score":48.7,"hidden_gem_score":null,"kuadran":"HIDDEN_GEM"}},{"type":"Feature","id":"898c107835bffff","geometry":{"type":"Polygon","coordinates":[[[106.861805,-6.210657],[106.861389,-6.208923],[106.859614,-6.208487],[106.858256,-6.209785],[106.858672,-6.211519],[106.860446,-6.211955],[106.861805,-6.210657]]]},"properties":{"h3_index":"898c107835bffff","kawasan":"Manggarai","tingkat_keyakinan":"RENDAH","n_titik_misi":0,"data_source":"predicted","zona_izin_komersial":true,"indeks_churn":null,"harga_sewa_median":null,"harga_sewa_per_m2":null,"belanja_per_jam":null,"njop_m2":null,"opportunity_score":59.1,"hidden_gem_score":null,"kuadran":"PEMENANG_JELAS"}},{"type":"Feature","id":"898c1078363ffff","geometry":{"type":"Polygon","coordinates":[[[106.850214,-6.211073],[106.849798,-6.209339],[106.848023,-6.208903],[106.846665,-6.210201],[106.847081,-6.211935],[106.848856,-6.212371],[106.850214,-6.211073]]]},"properties":{"h3_index":"898c1078363ffff","kawasan":"Manggarai","tingkat_keyakinan":"RENDAH","n_titik_misi":0,"data_source":"predicted","zona_izin_komersial":true,"indeks_churn":null,"harga_sewa_median":null,"harga_sewa_per_m2":null,"belanja_per_jam":null,"njop_m2":null,"opportunity_score":44.7,"hidden_gem_score":null,"kuadran":"PEMENANG_JELAS"}},{"type":"Feature","id":"898c1078367ffff","geometry":{"type":"Polygon","coordinates":[[[106.847081,-6.211935],[106.846665,-6.210201],[106.84489,-6.209765],[106.843531,-6.211063],[106.843947,-6.212797],[106.845722,-6.213234],[106.847081,-6.211935]]]},"properties":{"h3_index":"898c1078367ffff","kawasan":"Manggarai","tingkat_keyakinan":"RENDAH","n_titik_misi":0,"data_source":"predicted","zona_izin_komersial":true,"indeks_churn":null,"harga_sewa_median":null,"harga_sewa_per_m2":null,"belanja_per_jam":null,"njop_m2":null,"opportunity_score":72.1,"hidden_gem_score":null,"kuadran":"PEMENANG_JELAS"}},{"type":"Feature","id":"898c107836bffff","geometry":{"type":"Polygon","coordinates":[[[106.851157,-6.20804],[106.85074,-6.206306],[106.848966,-6.20587],[106.847607,-6.207168],[106.848023,-6.208903],[106.849798,-6.209339],[106.851157,-6.20804]]]},"properties":{"h3_index":"898c107836bffff","kawasan":"Manggarai","tingkat_keyakinan":"RENDAH","n_titik_misi":0,"data_source":"predicted","zona_izin_komersial":true,"indeks_churn":null,"harga_sewa_median":null,"harga_sewa_per_m2":null,"belanja_per_jam":null,"njop_m2":null,"opportunity_score":60.0,"hidden_gem_score":null,"kuadran":"HIDDEN_GEM"}},{"type":"Feature","id":"898c107836fffff","geometry":{"type":"Polygon","coordinates":[[[106.848023,-6.208903],[106.847607,-6.207168],[106.845832,-6.206732],[106.844473,-6.20803],[106.84489,-6.209765],[106.846665,-6.210201],[106.848023,-6.208903]]]},"properties":{"h3_index":"898c107836fffff","kawasan":"Manggarai","tingkat_keyakinan":"RENDAH","n_titik_misi":0,"data_source":"predicted","zona_izin_komersial":true,"indeks_churn":null,"harga_sewa_median":null,"harga_sewa_per_m2":null,"belanja_per_jam":null,"njop_m2":null,"opportunity_score":64.9,"hidden_gem_score":null,"kuadran":"HIDDEN_GEM"}},{"type":"Feature","id":"898c1078373ffff","geometry":{"type":"Polygon","coordinates":[[[106.852405,-6.213244],[106.851989,-6.211509],[106.850214,-6.211073],[106.848856,-6.212371],[106.849272,-6.214106],[106.851047,-6.214542],[106.852405,-6.213244]]]},"properties":{"h3_index":"898c1078373ffff","kawasan":"Manggarai","tingkat_keyakinan":"RENDAH","n_titik_misi":0,"data_source":"predicted","zona_izin_komersial":null,"indeks_churn":null,"harga_sewa_median":null,"harga_sewa_per_m2":null,"belanja_per_jam":null,"njop_m2":null,"opportunity_score":68.3,"hidden_gem_score":null,"kuadran":"PEMENANG_JELAS"}},{"type":"Feature","id":"898c1078377ffff","geometry":{"type":"Polygon","coordinates":[[[106.849272,-6.214106],[106.848856,-6.212371],[106.847081,-6.211935],[106.845722,-6.213234],[106.846138,-6.214968],[106.847913,-6.215404],[106.849272,-6.214106]]]},"properties":{"h3_index":"898c1078377ffff","kawasan":"Manggarai","tingkat_keyakinan":"RENDAH","n_titik_misi":0,"data_source":"predicted","zona_izin_komersial":true,"indeks_churn":null,"harga_sewa_median":null,"harga_sewa_per_m2":null,"belanja_per_jam":null,"njop_m2":null,"opportunity_score":60.2,"hidden_gem_score":null,"kuadran":"PEMENANG_JELAS"}},{"type":"Feature","id":"898c107837bffff","geometry":{"type":"Polygon","coordinates":[[[106.853348,-6.210211],[106.852931,-6.208477],[106.851157,-6.20804],[106.849798,-6.209339],[106.850214,-6.211073],[106.851989,-6.211509],[106.853348,-6.210211]]]},"properties":{"h3_index":"898c107837bffff","kawasan":"Manggarai","tingkat_keyakinan":"RENDAH","n_titik_misi":0,"data_source":"predicted","zona_izin_komersial":null,"indeks_churn":null,"harga_sewa_median":null,"harga_sewa_per_m2":null,"belanja_per_jam":null,"njop_m2":null,"opportunity_score":57.3,"hidden_gem_score":null,"kuadran":"PEMENANG_JELAS"}},{"type":"Feature","id":"898c1078383ffff","geometry":{"type":"Polygon","coordinates":[[[106.857093,-6.225819],[106.856677,-6.224085],[106.854902,-6.223649],[106.853544,-6.224947],[106.85396,-6.226681],[106.855734,-6.227117],[106.857093,-6.225819]]]},"properties":{"h3_index":"898c1078383ffff","kawasan":"Manggarai","tingkat_keyakinan":"RENDAH","n_titik_misi":0,"data_source":"predicted","zona_izin_komersial":true,"indeks_churn":null,"harga_sewa_median":null,"harga_sewa_per_m2":null,"belanja_per_jam":null,"njop_m2":null,"opportunity_score":63.6,"hidden_gem_score":null,"kuadran":"PEMENANG_JELAS"}},{"type":"Feature","id":"898c1078387ffff","geometry":{"type":"Polygon","coordinates":[[[106.85396,-6.226681],[106.853544,-6.224947],[106.851769,-6.224511],[106.85041,-6.225809],[106.850826,-6.227543],[106.852601,-6.227979],[106.85396,-6.226681]]]},"properties":{"h3_index":"898c1078387ffff","kawasan":"Manggarai","tingkat_keyakinan":"RENDAH","n_titik_misi":0,"data_source":"predicted","zona_izin_komersial":true,"indeks_churn":null,"harga_sewa_median":null,"harga_sewa_per_m2":null,"belanja_per_jam":null,"njop_m2":null,"opportunity_score":28.8,"hidden_gem_score":null,"kuadran":"JEBAKAN_GENGSI"}},{"type":"Feature","id":"898c107838bffff","geometry":{"type":"Polygon","coordinates":[[[106.858035,-6.222787],[106.857619,-6.221053],[106.855844,-6.220617],[106.854486,-6.221915],[106.854902,-6.223649],[106.856677,-6.224085],[106.858035,-6.222787]]]},"properties":{"h3_index":"898c107838bffff","kawasan":"Manggarai","tingkat_keyakinan":"RENDAH","n_titik_misi":0,"data_source":"predicted","zona_izin_komersial":true,"indeks_churn":null,"harga_sewa_median":null,"harga_sewa_per_m2":null,"belanja_per_jam":null,"njop_m2":null,"opportunity_score":65.2,"hidden_gem_score":null,"kuadran":"PEMENANG_JELAS"}},{"type":"Feature","id":"898c107838fffff","geometry":{"type":"Polygon","coordinates":[[[106.854902,-6.223649],[106.854486,-6.221915],[106.852711,-6.221479],[106.851353,-6.222777],[106.851769,-6.224511],[106.853544,-6.224947],[106.854902,-6.223649]]]},"properties":{"h3_index":"898c107838fffff","kawasan":"Manggarai","tingkat_keyakinan":"RENDAH","n_titik_misi":0,"data_source":"predicted","zona_izin_komersial":true,"indeks_churn":null,"harga_sewa_median":null,"harga_sewa_per_m2":null,"belanja_per_jam":null,"njop_m2":null,"opportunity_score":51.6,"hidden_gem_score":null,"kuadran":"PEMENANG_JELAS"}},{"type":"Feature","id":"898c1078393ffff","geometry":{"type":"Polygon","coordinates":[[[106.859284,-6.227989],[106.858867,-6.226255],[106.857093,-6.225819],[106.855734,-6.227117],[106.85615,-6.228851],[106.857925,-6.229287],[106.859284,-6.227989]]]},"properties":{"h3_index":"898c1078393ffff","kawasan":"Manggarai","tingkat_keyakinan":"RENDAH","n_titik_misi":0,"data_source":"predicted","zona_izin_komersial":true,"indeks_churn":null,"harga_sewa_median":null,"harga_sewa_per_m2":null,"belanja_per_jam":null,"njop_m2":null,"opportunity_score":52.9,"hidden_gem_score":null,"kuadran":"PEMENANG_JELAS"}},{"type":"Feature","id":"898c1078397ffff","geometry":{"type":"Polygon","coordinates":[[[106.85615,-6.228851],[106.855734,-6.227117],[106.85396,-6.226681],[106.852601,-6.227979],[106.853017,-6.229713],[106.854792,-6.230149],[106.85615,-6.228851]]]},"properties":{"h3_index":"898c1078397ffff","kawasan":"Manggarai","tingkat_keyakinan":"RENDAH","n_titik_misi":0,"data_source":"predicted","zona_izin_komersial":true,"indeks_churn":null,"harga_sewa_median":null,"harga_sewa_per_m2":null,"belanja_per_jam":null,"njop_m2":null,"opportunity_score":58.2,"hidden_gem_score":null,"kuadran":"PEMENANG_JELAS"}},{"type":"Feature","id":"898c107839bffff","geometry":{"type":"Polygon","coordinates":[[[106.860226,-6.224957],[106.85981,-6.223223],[106.858035,-6.222787],[106.856677,-6.224085],[106.857093,-6.225819],[106.858867,-6.226255],[106.860226,-6.224957]]]},"properties":{"h3_index":"898c107839bffff","kawasan":"Manggarai","tingkat_keyakinan":"RENDAH","n_titik_misi":1,"data_source":"observed","zona_izin_komersial":true,"indeks_churn":null,"harga_sewa_median":null,"harga_sewa_per_m2":null,"belanja_per_jam":null,"njop_m2":null,"opportunity_score":59.7,"hidden_gem_score":null,"kuadran":"PEMENANG_JELAS"}},{"type":"Feature","id":"898c10783a3ffff","geometry":{"type":"Polygon","coordinates":[[[106.848636,-6.225373],[106.848219,-6.223639],[106.846445,-6.223203],[106.845086,-6.224501],[106.845502,-6.226235],[106.847277,-6.226671],[106.848636,-6.225373]]]},"properties":{"h3_index":"898c10783a3ffff","kawasan":"Manggarai","tingkat_keyakinan":"RENDAH","n_titik_misi":0,"data_source":"predicted","zona_izin_komersial":true,"indeks_churn":null,"harga_sewa_median":null,"harga_sewa_per_m2":null,"belanja_per_jam":null,"njop_m2":null,"opportunity_score":56.6,"hidden_gem_score":null,"kuadran":"PEMENANG_JELAS"}},{"type":"Feature","id":"898c10783a7ffff","geometry":{"type":"Polygon","coordinates":[[[106.845502,-6.226235],[106.845086,-6.224501],[106.843311,-6.224065],[106.841953,-6.225363],[106.842369,-6.227098],[106.844144,-6.227534],[106.845502,-6.226235]]]},"properties":{"h3_index":"898c10783a7ffff","kawasan":"Manggarai","tingkat_keyakinan":"RENDAH","n_titik_misi":0,"data_source":"predicted","zona_izin_komersial":true,"indeks_churn":null,"harga_sewa_median":null,"harga_sewa_per_m2":null,"belanja_per_jam":null,"njop_m2":null,"opportunity_score":54.3,"hidden_gem_score":0.547498821047181,"kuadran":"HIDDEN_GEM"}},{"type":"Feature","id":"898c10783abffff","geometry":{"type":"Polygon","coordinates":[[[106.849578,-6.222341],[106.849162,-6.220607],[106.847387,-6.220171],[106.846028,-6.221469],[106.846445,-6.223203],[106.848219,-6.223639],[106.849578,-6.222341]]]},"properties":{"h3_index":"898c10783abffff","kawasan":"Manggarai","tingkat_keyakinan":"RENDAH","n_titik_misi":0,"data_source":"predicted","zona_izin_komersial":true,"indeks_churn":null,"harga_sewa_median":null,"harga_sewa_per_m2":null,"belanja_per_jam":null,"njop_m2":null,"opportunity_score":58.9,"hidden_gem_score":null,"kuadran":"PEMENANG_JELAS"}},{"type":"Feature","id":"898c10783afffff","geometry":{"type":"Polygon","coordinates":[[[106.846445,-6.223203],[106.846028,-6.221469],[106.844254,-6.221033],[106.842895,-6.222331],[106.843311,-6.224065],[106.845086,-6.224501],[106.846445,-6.223203]]]},"properties":{"h3_index":"898c10783afffff","kawasan":"Manggarai","tingkat_keyakinan":"RENDAH","n_titik_misi":1,"data_source":"observed","zona_izin_komersial":true,"indeks_churn":null,"harga_sewa_median":null,"harga_sewa_per_m2":null,"belanja_per_jam":null,"njop_m2":null,"opportunity_score":45.1,"hidden_gem_score":null,"kuadran":"PEMENANG_JELAS"}},{"type":"Feature","id":"898c10783b3ffff","geometry":{"type":"Polygon","coordinates":[[[106.850826,-6.227543],[106.85041,-6.225809],[106.848636,-6.225373],[106.847277,-6.226671],[106.847693,-6.228405],[106.849468,-6.228841],[106.850826,-6.227543]]]},"properties":{"h3_index":"898c10783b3ffff","kawasan":"Manggarai","tingkat_keyakinan":"RENDAH","n_titik_misi":0,"data_source":"predicted","zona_izin_komersial":true,"indeks_churn":null,"harga_sewa_median":null,"harga_sewa_per_m2":null,"belanja_per_jam":null,"njop_m2":null,"opportunity_score":49.9,"hidden_gem_score":null,"kuadran":"PEMENANG_JELAS"}},{"type":"Feature","id":"898c10783b7ffff","geometry":{"type":"Polygon","coordinates":[[[106.847693,-6.228405],[106.847277,-6.226671],[106.845502,-6.226235],[106.844144,-6.227534],[106.84456,-6.229268],[106.846335,-6.229704],[106.847693,-6.228405]]]},"properties":{"h3_index":"898c10783b7ffff","kawasan":"Manggarai","tingkat_keyakinan":"RENDAH","n_titik_misi":0,"data_source":"predicted","zona_izin_komersial":true,"indeks_churn":null,"harga_sewa_median":null,"harga_sewa_per_m2":null,"belanja_per_jam":null,"njop_m2":null,"opportunity_score":61.0,"hidden_gem_score":0.53625779865848,"kuadran":"HIDDEN_GEM"}},{"type":"Feature","id":"898c10783bbffff","geometry":{"type":"Polygon","coordinates":[[[106.851769,-6.224511],[106.851353,-6.222777],[106.849578,-6.222341],[106.848219,-6.223639],[106.848636,-6.225373],[106.85041,-6.225809],[106.851769,-6.224511]]]},"properties":{"h3_index":"898c10783bbffff","kawasan":"Manggarai","tingkat_keyakinan":"RENDAH","n_titik_misi":0,"data_source":"predicted","zona_izin_komersial":true,"indeks_churn":null,"harga_sewa_median":null,"harga_sewa_per_m2":null,"belanja_per_jam":null,"njop_m2":null,"opportunity_score":54.3,"hidden_gem_score":0.526672359807654,"kuadran":"HIDDEN_GEM"}},{"type":"Feature","id":"898c10783c3ffff","geometry":{"type":"Polygon","coordinates":[[[106.862111,-6.218892],[106.861695,-6.217158],[106.85992,-6.216722],[106.858562,-6.21802],[106.858978,-6.219754],[106.860752,-6.22019],[106.862111,-6.218892]]]},"properties":{"h3_index":"898c10783c3ffff","kawasan":"Manggarai","tingkat_keyakinan":"RENDAH","n_titik_misi":0,"data_source":"predicted","zona_izin_komersial":null,"indeks_churn":null,"harga_sewa_median":null,"harga_sewa_per_m2":null,"belanja_per_jam":null,"njop_m2":null,"opportunity_score":46.8,"hidden_gem_score":null,"kuadran":"HIDDEN_GEM"}},{"type":"Feature","id":"898c10783c7ffff","geometry":{"type":"Polygon","coordinates":[[[106.858978,-6.219754],[106.858562,-6.21802],[106.856787,-6.217584],[106.855428,-6.218882],[106.855844,-6.220617],[106.857619,-6.221053],[106.858978,-6.219754]]]},"properties":{"h3_index":"898c10783c7ffff","kawasan":"Manggarai","tingkat_keyakinan":"RENDAH","n_titik_misi":0,"data_source":"predicted","zona_izin_komersial":true,"indeks_churn":null,"harga_sewa_median":null,"harga_sewa_per_m2":null,"belanja_per_jam":null,"njop_m2":null,"opportunity_score":22.0,"hidden_gem_score":null,"kuadran":"JEBAKAN_GENGSI"}},{"type":"Feature","id":"898c10783cbffff","geometry":{"type":"Polygon","coordinates":[[[106.863053,-6.21586],[106.862637,-6.214126],[106.860862,-6.21369],[106.859504,-6.214988],[106.85992,-6.216722],[106.861695,-6.217158],[106.863053,-6.21586]]]},"properties":{"h3_index":"898c10783cbffff","kawasan":"Manggarai","tingkat_keyakinan":"RENDAH","n_titik_misi":0,"data_source":"predicted","zona_izin_komersial":true,"indeks_churn":null,"harga_sewa_median":null,"harga_sewa_per_m2":null,"belanja_per_jam":null,"njop_m2":null,"opportunity_score":48.9,"hidden_gem_score":null,"kuadran":"PEMENANG_JELAS"}},{"type":"Feature","id":"898c10783cfffff","geometry":{"type":"Polygon","coordinates":[[[106.85992,-6.216722],[106.859504,-6.214988],[106.857729,-6.214552],[106.856371,-6.21585],[106.856787,-6.217584],[106.858562,-6.21802],[106.85992,-6.216722]]]},"properties":{"h3_index":"898c10783cfffff","kawasan":"Manggarai","tingkat_keyakinan":"RENDAH","n_titik_misi":0,"data_source":"predicted","zona_izin_komersial":null,"indeks_churn":null,"harga_sewa_median":null,"harga_sewa_per_m2":null,"belanja_per_jam":null,"njop_m2":null,"opportunity_score":48.4,"hidden_gem_score":null,"kuadran":"HIDDEN_GEM"}},{"type":"Feature","id":"898c10783d3ffff","geometry":{"type":"Polygon","coordinates":[[[106.864301,-6.221062],[106.863885,-6.219328],[106.862111,-6.218892],[106.860752,-6.22019],[106.861168,-6.221924],[106.862943,-6.22236],[106.864301,-6.221062]]]},"properties":{"h3_index":"898c10783d3ffff","kawasan":"Manggarai","tingkat_keyakinan":"RENDAH","n_titik_misi":0,"data_source":"predicted","zona_izin_komersial":null,"indeks_churn":null,"harga_sewa_median":null,"harga_sewa_per_m2":null,"belanja_per_jam":null,"njop_m2":null,"opportunity_score":43.3,"hidden_gem_score":null,"kuadran":"HINDARI"}},{"type":"Feature","id":"898c10783d7ffff","geometry":{"type":"Polygon","coordinates":[[[106.861168,-6.221924],[106.860752,-6.22019],[106.858978,-6.219754],[106.857619,-6.221053],[106.858035,-6.222787],[106.85981,-6.223223],[106.861168,-6.221924]]]},"properties":{"h3_index":"898c10783d7ffff","kawasan":"Manggarai","tingkat_keyakinan":"RENDAH","n_titik_misi":0,"data_source":"predicted","zona_izin_komersial":true,"indeks_churn":null,"harga_sewa_median":null,"harga_sewa_per_m2":null,"belanja_per_jam":null,"njop_m2":null,"opportunity_score":53.2,"hidden_gem_score":null,"kuadran":"PEMENANG_JELAS"}},{"type":"Feature","id":"898c10783dbffff","geometry":{"type":"Polygon","coordinates":[[[106.865244,-6.21803],[106.864828,-6.216296],[106.863053,-6.21586],[106.861695,-6.217158],[106.862111,-6.218892],[106.863885,-6.219328],[106.865244,-6.21803]]]},"properties":{"h3_index":"898c10783dbffff","kawasan":"Manggarai","tingkat_keyakinan":"RENDAH","n_titik_misi":0,"data_source":"predicted","zona_izin_komersial":true,"indeks_churn":null,"harga_sewa_median":null,"harga_sewa_per_m2":null,"belanja_per_jam":null,"njop_m2":null,"opportunity_score":48.3,"hidden_gem_score":null,"kuadran":"HIDDEN_GEM"}},{"type":"Feature","id":"898c1078e43ffff","geometry":{"type":"Polygon","coordinates":[[[106.836738,-6.217554],[106.836322,-6.21582],[106.834547,-6.215384],[106.833188,-6.216682],[106.833604,-6.218416],[106.835379,-6.218853],[106.836738,-6.217554]]]},"properties":{"h3_index":"898c1078e43ffff","kawasan":"Manggarai","tingkat_keyakinan":"RENDAH","n_titik_misi":0,"data_source":"predicted","zona_izin_komersial":true,"indeks_churn":null,"harga_sewa_median":null,"harga_sewa_per_m2":null,"belanja_per_jam":null,"njop_m2":null,"opportunity_score":44.6,"hidden_gem_score":null,"kuadran":"PEMENANG_JELAS"}},{"type":"Feature","id":"898c1078e47ffff","geometry":{"type":"Polygon","coordinates":[[[106.833604,-6.218416],[106.833188,-6.216682],[106.831413,-6.216246],[106.830054,-6.217544],[106.830471,-6.219279],[106.832246,-6.219715],[106.833604,-6.218416]]]},"properties":{"h3_index":"898c1078e47ffff","kawasan":"Manggarai","tingkat_keyakinan":"RENDAH","n_titik_misi":0,"data_source":"predicted","zona_izin_komersial":true,"indeks_churn":null,"harga_sewa_median":null,"harga_sewa_per_m2":null,"belanja_per_jam":null,"njop_m2":null,"opportunity_score":62.9,"hidden_gem_score":null,"kuadran":"PEMENANG_JELAS"}},{"type":"Feature","id":"898c1078e4bffff","geometry":{"type":"Polygon","coordinates":[[[106.83768,-6.214522],[106.837264,-6.212787],[106.835489,-6.212351],[106.83413,-6.213649],[106.834547,-6.215384],[106.836322,-6.21582],[106.83768,-6.214522]]]},"properties":{"h3_index":"898c1078e4bffff","kawasan":"Manggarai","tingkat_keyakinan":"RENDAH","n_titik_misi":0,"data_source":"predicted","zona_izin_komersial":true,"indeks_churn":null,"harga_sewa_median":null,"harga_sewa_per_m2":null,"belanja_per_jam":null,"njop_m2":null,"opportunity_score":35.7,"hidden_gem_score":null,"kuadran":"JEBAKAN_GENGSI"}},{"type":"Feature","id":"898c1078e4fffff","geometry":{"type":"Polygon","coordinates":[[[106.834547,-6.215384],[106.83413,-6.213649],[106.832355,-6.213213],[106.830997,-6.214511],[106.831413,-6.216246],[106.833188,-6.216682],[106.834547,-6.215384]]]},"properties":{"h3_index":"898c1078e4fffff","kawasan":"Manggarai","tingkat_keyakinan":"RENDAH","n_titik_misi":0,"data_source":"predicted","zona_izin_komersial":true,"indeks_churn":null,"harga_sewa_median":null,"harga_sewa_per_m2":null,"belanja_per_jam":null,"njop_m2":null,"opportunity_score":44.8,"hidden_gem_score":0.519069454052984,"kuadran":"HIDDEN_GEM"}},{"type":"Feature","id":"898c1078e53ffff","geometry":{"type":"Polygon","coordinates":[[[106.838929,-6.219725],[106.838513,-6.21799],[106.836738,-6.217554],[106.835379,-6.218853],[106.835796,-6.220587],[106.83757,-6.221023],[106.838929,-6.219725]]]},"properties":{"h3_index":"898c1078e53ffff","kawasan":"Manggarai","tingkat_keyakinan":"RENDAH","n_titik_misi":0,"data_source":"predicted","zona_izin_komersial":true,"indeks_churn":null,"harga_sewa_median":null,"harga_sewa_per_m2":null,"belanja_per_jam":null,"njop_m2":null,"opportunity_score":50.0,"hidden_gem_score":0.550976936728299,"kuadran":"HIDDEN_GEM"}},{"type":"Feature","id":"898c1078e57ffff","geometry":{"type":"Polygon","coordinates":[[[106.835796,-6.220587],[106.835379,-6.218853],[106.833604,-6.218416],[106.832246,-6.219715],[106.832662,-6.221449],[106.834437,-6.221885],[106.835796,-6.220587]]]},"properties":{"h3_index":"898c1078e57ffff","kawasan":"Manggarai","tingkat_keyakinan":"RENDAH","n_titik_misi":0,"data_source":"predicted","zona_izin_komersial":true,"indeks_churn":null,"harga_sewa_median":null,"harga_sewa_per_m2":null,"belanja_per_jam":null,"njop_m2":null,"opportunity_score":63.8,"hidden_gem_score":null,"kuadran":"PEMENANG_JELAS"}},{"type":"Feature","id":"898c1078e5bffff","geometry":{"type":"Polygon","coordinates":[[[106.839871,-6.216692],[106.839455,-6.214958],[106.83768,-6.214522],[106.836322,-6.21582],[106.836738,-6.217554],[106.838513,-6.21799],[106.839871,-6.216692]]]},"properties":{"h3_index":"898c1078e5bffff","kawasan":"Manggarai","tingkat_keyakinan":"RENDAH","n_titik_misi":0,"data_source":"predicted","zona_izin_komersial":true,"indeks_churn":null,"harga_sewa_median":null,"harga_sewa_per_m2":null,"belanja_per_jam":null,"njop_m2":null,"opportunity_score":39.6,"hidden_gem_score":null,"kuadran":"JEBAKAN_GENGSI"}},{"type":"Feature","id":"898c1078ec3ffff","geometry":{"type":"Polygon","coordinates":[[[106.840178,-6.224927],[106.839762,-6.223193],[106.837987,-6.222757],[106.836628,-6.224055],[106.837044,-6.22579],[106.838819,-6.226226],[106.840178,-6.224927]]]},"properties":{"h3_index":"898c1078ec3ffff","kawasan":"Manggarai","tingkat_keyakinan":"RENDAH","n_titik_misi":0,"data_source":"predicted","zona_izin_komersial":true,"indeks_churn":null,"harga_sewa_median":null,"harga_sewa_per_m2":null,"belanja_per_jam":null,"njop_m2":null,"opportunity_score":36.7,"hidden_gem_score":null,"kuadran":"JEBAKAN_GENGSI"}},{"type":"Feature","id":"898c1078ecbffff","geometry":{"type":"Polygon","coordinates":[[[106.84112,-6.221895],[106.840704,-6.220161],[106.838929,-6.219725],[106.83757,-6.221023],[106.837987,-6.222757],[106.839762,-6.223193],[106.84112,-6.221895]]]},"properties":{"h3_index":"898c1078ecbffff","kawasan":"Manggarai","tingkat_keyakinan":"RENDAH","n_titik_misi":0,"data_source":"predicted","zona_izin_komersial":true,"indeks_churn":null,"harga_sewa_median":null,"harga_sewa_per_m2":null,"belanja_per_jam":null,"njop_m2":null,"opportunity_score":58.0,"hidden_gem_score":0.585496178378395,"kuadran":"HIDDEN_GEM"}},{"type":"Feature","id":"898c1078ecfffff","geometry":{"type":"Polygon","coordinates":[[[106.837987,-6.222757],[106.83757,-6.221023],[106.835796,-6.220587],[106.834437,-6.221885],[106.834853,-6.223619],[106.836628,-6.224055],[106.837987,-6.222757]]]},"properties":{"h3_index":"898c1078ecfffff","kawasan":"Manggarai","tingkat_keyakinan":"RENDAH","n_titik_misi":0,"data_source":"predicted","zona_izin_komersial":true,"indeks_churn":null,"harga_sewa_median":null,"harga_sewa_per_m2":null,"belanja_per_jam":null,"njop_m2":null,"opportunity_score":44.9,"hidden_gem_score":0.53210349678381,"kuadran":"HIDDEN_GEM"}},{"type":"Feature","id":"898c1078ed3ffff","geometry":{"type":"Polygon","coordinates":[[[106.842369,-6.227098],[106.841953,-6.225363],[106.840178,-6.224927],[106.838819,-6.226226],[106.839236,-6.22796],[106.84101,-6.228396],[106.842369,-6.227098]]]},"properties":{"h3_index":"898c1078ed3ffff","kawasan":"Manggarai","tingkat_keyakinan":"RENDAH","n_titik_misi":0,"data_source":"predicted","zona_izin_komersial":true,"indeks_churn":null,"harga_sewa_median":null,"harga_sewa_per_m2":null,"belanja_per_jam":null,"njop_m2":null,"opportunity_score":45.2,"hidden_gem_score":0.548984862333566,"kuadran":"HIDDEN_GEM"}},{"type":"Feature","id":"898c1078edbffff","geometry":{"type":"Polygon","coordinates":[[[106.843311,-6.224065],[106.842895,-6.222331],[106.84112,-6.221895],[106.839762,-6.223193],[106.840178,-6.224927],[106.841953,-6.225363],[106.843311,-6.224065]]]},"properties":{"h3_index":"898c1078edbffff","kawasan":"Manggarai","tingkat_keyakinan":"RENDAH","n_titik_misi":1,"data_source":"observed","zona_izin_komersial":true,"indeks_churn":null,"harga_sewa_median":null,"harga_sewa_per_m2":null,"belanja_per_jam":null,"njop_m2":null,"opportunity_score":50.9,"hidden_gem_score":null,"kuadran":"PEMENANG_JELAS"}},{"type":"Feature","id":"898c1079c03ffff","geometry":{"type":"Polygon","coordinates":[[[106.860251,-6.197218],[106.859835,-6.195483],[106.85806,-6.195047],[106.856701,-6.196345],[106.857117,-6.19808],[106.858892,-6.198516],[106.860251,-6.197218]]]},"properties":{"h3_index":"898c1079c03ffff","kawasan":"Manggarai","tingkat_keyakinan":"RENDAH","n_titik_misi":0,"data_source":"predicted","zona_izin_komersial":true,"indeks_churn":null,"harga_sewa_median":null,"harga_sewa_per_m2":null,"belanja_per_jam":null,"njop_m2":null,"opportunity_score":49.2,"hidden_gem_score":null,"kuadran":"PEMENANG_JELAS"}},{"type":"Feature","id":"898c1079c07ffff","geometry":{"type":"Polygon","coordinates":[[[106.857117,-6.19808],[106.856701,-6.196345],[106.854926,-6.195909],[106.853568,-6.197207],[106.853984,-6.198942],[106.855759,-6.199378],[106.857117,-6.19808]]]},"properties":{"h3_index":"898c1079c07ffff","kawasan":"Manggarai","tingkat_keyakinan":"RENDAH","n_titik_misi":0,"data_source":"predicted","zona_izin_komersial":true,"indeks_churn":null,"harga_sewa_median":null,"harga_sewa_per_m2":null,"belanja_per_jam":null,"njop_m2":null,"opportunity_score":48.5,"hidden_gem_score":null,"kuadran":"PEMENANG_JELAS"}},{"type":"Feature","id":"898c1079c0fffff","geometry":{"type":"Polygon","coordinates":[[[106.85806,-6.195047],[106.857644,-6.193312],[106.855869,-6.192876],[106.85451,-6.194174],[106.854926,-6.195909],[106.856701,-6.196345],[106.85806,-6.195047]]]},"properties":{"h3_index":"898c1079c0fffff","kawasan":"Manggarai","tingkat_keyakinan":"RENDAH","n_titik_misi":0,"data_source":"predicted","zona_izin_komersial":true,"indeks_churn":null,"harga_sewa_median":null,"harga_sewa_per_m2":null,"belanja_per_jam":null,"njop_m2":null,"opportunity_score":56.2,"hidden_gem_score":null,"kuadran":"HIDDEN_GEM"}},{"type":"Feature","id":"898c1079c13ffff","geometry":{"type":"Polygon","coordinates":[[[106.862442,-6.199388],[106.862025,-6.197654],[106.860251,-6.197218],[106.858892,-6.198516],[106.859308,-6.200251],[106.861083,-6.200687],[106.862442,-6.199388]]]},"properties":{"h3_index":"898c1079c13ffff","kawasan":"Manggarai","tingkat_keyakinan":"RENDAH","n_titik_misi":0,"data_source":"predicted","zona_izin_komersial":true,"indeks_churn":null,"harga_sewa_median":null,"harga_sewa_per_m2":null,"belanja_per_jam":null,"njop_m2":null,"opportunity_score":20.5,"hidden_gem_score":null,"kuadran":"JEBAKAN_GENGSI"}},{"type":"Feature","id":"898c1079c17ffff","geometry":{"type":"Polygon","coordinates":[[[106.859308,-6.200251],[106.858892,-6.198516],[106.857117,-6.19808],[106.855759,-6.199378],[106.856175,-6.201113],[106.85795,-6.201549],[106.859308,-6.200251]]]},"properties":{"h3_index":"898c1079c17ffff","kawasan":"Manggarai","tingkat_keyakinan":"RENDAH","n_titik_misi":0,"data_source":"predicted","zona_izin_komersial":true,"indeks_churn":null,"harga_sewa_median":null,"harga_sewa_per_m2":null,"belanja_per_jam":null,"njop_m2":null,"opportunity_score":46.0,"hidden_gem_score":null,"kuadran":"PEMENANG_JELAS"}},{"type":"Feature","id":"898c1079c23ffff","geometry":{"type":"Polygon","coordinates":[[[106.851793,-6.196771],[106.851377,-6.195036],[106.849602,-6.1946],[106.848243,-6.195899],[106.848659,-6.197633],[106.850434,-6.19807],[106.851793,-6.196771]]]},"properties":{"h3_index":"898c1079c23ffff","kawasan":"Manggarai","tingkat_keyakinan":"RENDAH","n_titik_misi":0,"data_source":"predicted","zona_izin_komersial":true,"indeks_churn":null,"harga_sewa_median":null,"harga_sewa_per_m2":null,"belanja_per_jam":null,"njop_m2":null,"opportunity_score":37.5,"hidden_gem_score":null,"kuadran":"JEBAKAN_GENGSI"}},{"type":"Feature","id":"898c1079c27ffff","geometry":{"type":"Polygon","coordinates":[[[106.848659,-6.197633],[106.848243,-6.195899],[106.846468,-6.195462],[106.84511,-6.196761],[106.845526,-6.198495],[106.847301,-6.198932],[106.848659,-6.197633]]]},"properties":{"h3_index":"898c1079c27ffff","kawasan":"Manggarai","tingkat_keyakinan":"RENDAH","n_titik_misi":0,"data_source":"predicted","zona_izin_komersial":null,"indeks_churn":null,"harga_sewa_median":null,"harga_sewa_per_m2":null,"belanja_per_jam":null,"njop_m2":null,"opportunity_score":34.2,"hidden_gem_score":null,"kuadran":"JEBAKAN_GENGSI"}},{"type":"Feature","id":"898c1079c33ffff","geometry":{"type":"Polygon","coordinates":[[[106.853984,-6.198942],[106.853568,-6.197207],[106.851793,-6.196771],[106.850434,-6.19807],[106.85085,-6.199804],[106.852625,-6.20024],[106.853984,-6.198942]]]},"properties":{"h3_index":"898c1079c33ffff","kawasan":"Manggarai","tingkat_keyakinan":"RENDAH","n_titik_misi":0,"data_source":"predicted","zona_izin_komersial":true,"indeks_churn":null,"harga_sewa_median":null,"harga_sewa_per_m2":null,"belanja_per_jam":null,"njop_m2":null,"opportunity_score":59.5,"hidden_gem_score":null,"kuadran":"PEMENANG_JELAS"}},{"type":"Feature","id":"898c1079c37ffff","geometry":{"type":"Polygon","coordinates":[[[106.85085,-6.199804],[106.850434,-6.19807],[106.848659,-6.197633],[106.847301,-6.198932],[106.847717,-6.200666],[106.849492,-6.201102],[106.85085,-6.199804]]]},"properties":{"h3_index":"898c1079c37ffff","kawasan":"Manggarai","tingkat_keyakinan":"RENDAH","n_titik_misi":0,"data_source":"predicted","zona_izin_komersial":true,"indeks_churn":null,"harga_sewa_median":null,"harga_sewa_per_m2":null,"belanja_per_jam":null,"njop_m2":null,"opportunity_score":25.2,"hidden_gem_score":null,"kuadran":"JEBAKAN_GENGSI"}},{"type":"Feature","id":"898c1079c3bffff","geometry":{"type":"Polygon","coordinates":[[[106.854926,-6.195909],[106.85451,-6.194174],[106.852735,-6.193738],[106.851377,-6.195036],[106.851793,-6.196771],[106.853568,-6.197207],[106.854926,-6.195909]]]},"properties":{"h3_index":"898c1079c3bffff","kawasan":"Manggarai","tingkat_keyakinan":"RENDAH","n_titik_misi":0,"data_source":"predicted","zona_izin_komersial":true,"indeks_churn":null,"harga_sewa_median":null,"harga_sewa_per_m2":null,"belanja_per_jam":null,"njop_m2":null,"opportunity_score":52.1,"hidden_gem_score":null,"kuadran":"HIDDEN_GEM"}},{"type":"Feature","id":"898c1079c83ffff","geometry":{"type":"Polygon","coordinates":[[[106.86369,-6.204592],[106.863274,-6.202857],[106.861499,-6.202421],[106.860141,-6.20372],[106.860557,-6.205454],[106.862331,-6.20589],[106.86369,-6.204592]]]},"properties":{"h3_index":"898c1079c83ffff","kawasan":"Manggarai","tingkat_keyakinan":"RENDAH","n_titik_misi":0,"data_source":"predicted","zona_izin_komersial":true,"indeks_churn":null,"harga_sewa_median":null,"harga_sewa_per_m2":null,"belanja_per_jam":null,"njop_m2":null,"opportunity_score":41.6,"hidden_gem_score":null,"kuadran":"JEBAKAN_GENGSI"}},{"type":"Feature","id":"898c1079c87ffff","geometry":{"type":"Polygon","coordinates":[[[106.860557,-6.205454],[106.860141,-6.20372],[106.858366,-6.203283],[106.857007,-6.204582],[106.857423,-6.206316],[106.859198,-6.206752],[106.860557,-6.205454]]]},"properties":{"h3_index":"898c1079c87ffff","kawasan":"Manggarai","tingkat_keyakinan":"RENDAH","n_titik_misi":0,"data_source":"predicted","zona_izin_komersial":true,"indeks_churn":null,"harga_sewa_median":null,"harga_sewa_per_m2":null,"belanja_per_jam":null,"njop_m2":null,"opportunity_score":49.7,"hidden_gem_score":null,"kuadran":"PEMENANG_JELAS"}},{"type":"Feature","id":"898c1079c8bffff","geometry":{"type":"Polygon","coordinates":[[[106.864632,-6.201559],[106.864216,-6.199825],[106.862442,-6.199388],[106.861083,-6.200687],[106.861499,-6.202421],[106.863274,-6.202857],[106.864632,-6.201559]]]},"properties":{"h3_index":"898c1079c8bffff","kawasan":"Manggarai","tingkat_keyakinan":"RENDAH","n_titik_misi":0,"data_source":"predicted","zona_izin_komersial":true,"indeks_churn":null,"harga_sewa_median":null,"harga_sewa_per_m2":null,"belanja_per_jam":null,"njop_m2":null,"opportunity_score":15.1,"hidden_gem_score":null,"kuadran":"JEBAKAN_GENGSI"}},{"type":"Feature","id":"898c1079c8fffff","geometry":{"type":"Polygon","coordinates":[[[106.861499,-6.202421],[106.861083,-6.200687],[106.859308,-6.200251],[106.85795,-6.201549],[106.858366,-6.203283],[106.860141,-6.20372],[106.861499,-6.202421]]]},"properties":{"h3_index":"898c1079c8fffff","kawasan":"Manggarai","tingkat_keyakinan":"RENDAH","n_titik_misi":0,"data_source":"predicted","zona_izin_komersial":true,"indeks_churn":null,"harga_sewa_median":null,"harga_sewa_per_m2":null,"belanja_per_jam":null,"njop_m2":null,"opportunity_score":55.7,"hidden_gem_score":null,"kuadran":"HIDDEN_GEM"}},{"type":"Feature","id":"898c1079c93ffff","geometry":{"type":"Polygon","coordinates":[[[106.865881,-6.206762],[106.865464,-6.205028],[106.86369,-6.204592],[106.862331,-6.20589],[106.862747,-6.207624],[106.864522,-6.208061],[106.865881,-6.206762]]]},"properties":{"h3_index":"898c1079c93ffff","kawasan":"Manggarai","tingkat_keyakinan":"RENDAH","n_titik_misi":0,"data_source":"predicted","zona_izin_komersial":true,"indeks_churn":null,"harga_sewa_median":null,"harga_sewa_per_m2":null,"belanja_per_jam":null,"njop_m2":null,"opportunity_score":45.2,"hidden_gem_score":null,"kuadran":"PEMENANG_JELAS"}},{"type":"Feature","id":"898c1079c97ffff","geometry":{"type":"Polygon","coordinates":[[[106.862747,-6.207624],[106.862331,-6.20589],[106.860557,-6.205454],[106.859198,-6.206752],[106.859614,-6.208487],[106.861389,-6.208923],[106.862747,-6.207624]]]},"properties":{"h3_index":"898c1079c97ffff","kawasan":"Manggarai","tingkat_keyakinan":"RENDAH","n_titik_misi":0,"data_source":"predicted","zona_izin_komersial":true,"indeks_churn":null,"harga_sewa_median":null,"harga_sewa_per_m2":null,"belanja_per_jam":null,"njop_m2":null,"opportunity_score":51.3,"hidden_gem_score":null,"kuadran":"PEMENANG_JELAS"}},{"type":"Feature","id":"898c1079c9bffff","geometry":{"type":"Polygon","coordinates":[[[106.866823,-6.20373],[106.866407,-6.201995],[106.864632,-6.201559],[106.863274,-6.202857],[106.86369,-6.204592],[106.865464,-6.205028],[106.866823,-6.20373]]]},"properties":{"h3_index":"898c1079c9bffff","kawasan":"Manggarai","tingkat_keyakinan":"RENDAH","n_titik_misi":0,"data_source":"predicted","zona_izin_komersial":true,"indeks_churn":null,"harga_sewa_median":null,"harga_sewa_per_m2":null,"belanja_per_jam":null,"njop_m2":null,"opportunity_score":37.5,"hidden_gem_score":null,"kuadran":"HINDARI"}},{"type":"Feature","id":"898c1079ca3ffff","geometry":{"type":"Polygon","coordinates":[[[106.855232,-6.204146],[106.854816,-6.202411],[106.853041,-6.201975],[106.851683,-6.203273],[106.852099,-6.205008],[106.853874,-6.205444],[106.855232,-6.204146]]]},"properties":{"h3_index":"898c1079ca3ffff","kawasan":"Manggarai","tingkat_keyakinan":"RENDAH","n_titik_misi":0,"data_source":"predicted","zona_izin_komersial":null,"indeks_churn":null,"harga_sewa_median":null,"harga_sewa_per_m2":null,"belanja_per_jam":null,"njop_m2":null,"opportunity_score":43.7,"hidden_gem_score":null,"kuadran":"JEBAKAN_GENGSI"}},{"type":"Feature","id":"898c1079ca7ffff","geometry":{"type":"Polygon","coordinates":[[[106.852099,-6.205008],[106.851683,-6.203273],[106.849908,-6.202837],[106.848549,-6.204135],[106.848966,-6.20587],[106.85074,-6.206306],[106.852099,-6.205008]]]},"properties":{"h3_index":"898c1079ca7ffff","kawasan":"Manggarai","tingkat_keyakinan":"RENDAH","n_titik_misi":0,"data_source":"predicted","zona_izin_komersial":true,"indeks_churn":null,"harga_sewa_median":null,"harga_sewa_per_m2":null,"belanja_per_jam":null,"njop_m2":null,"opportunity_score":33.3,"hidden_gem_score":null,"kuadran":"JEBAKAN_GENGSI"}},{"type":"Feature","id":"898c1079cabffff","geometry":{"type":"Polygon","coordinates":[[[106.856175,-6.201113],[106.855759,-6.199378],[106.853984,-6.198942],[106.852625,-6.20024],[106.853041,-6.201975],[106.854816,-6.202411],[106.856175,-6.201113]]]},"properties":{"h3_index":"898c1079cabffff","kawasan":"Manggarai","tingkat_keyakinan":"RENDAH","n_titik_misi":0,"data_source":"predicted","zona_izin_komersial":true,"indeks_churn":null,"harga_sewa_median":null,"harga_sewa_per_m2":null,"belanja_per_jam":null,"njop_m2":null,"opportunity_score":55.3,"hidden_gem_score":null,"kuadran":"PEMENANG_JELAS"}},{"type":"Feature","id":"898c1079cafffff","geometry":{"type":"Polygon","coordinates":[[[106.853041,-6.201975],[106.852625,-6.20024],[106.85085,-6.199804],[106.849492,-6.201102],[106.849908,-6.202837],[106.851683,-6.203273],[106.853041,-6.201975]]]},"properties":{"h3_index":"898c1079cafffff","kawasan":"Manggarai","tingkat_keyakinan":"RENDAH","n_titik_misi":0,"data_source":"predicted","zona_izin_komersial":true,"indeks_churn":null,"harga_sewa_median":null,"harga_sewa_per_m2":null,"belanja_per_jam":null,"njop_m2":null,"opportunity_score":45.8,"hidden_gem_score":null,"kuadran":"HIDDEN_GEM"}},{"type":"Feature","id":"898c1079cb3ffff","geometry":{"type":"Polygon","coordinates":[[[106.857423,-6.206316],[106.857007,-6.204582],[106.855232,-6.204146],[106.853874,-6.205444],[106.85429,-6.207178],[106.856065,-6.207614],[106.857423,-6.206316]]]},"properties":{"h3_index":"898c1079cb3ffff","kawasan":"Manggarai","tingkat_keyakinan":"RENDAH","n_titik_misi":0,"data_source":"predicted","zona_izin_komersial":null,"indeks_churn":null,"harga_sewa_median":null,"harga_sewa_per_m2":null,"belanja_per_jam":null,"njop_m2":null,"opportunity_score":45.5,"hidden_gem_score":null,"kuadran":"HIDDEN_GEM"}},{"type":"Feature","id":"898c1079cb7ffff","geometry":{"type":"Polygon","coordinates":[[[106.85429,-6.207178],[106.853874,-6.205444],[106.852099,-6.205008],[106.85074,-6.206306],[106.851157,-6.20804],[106.852931,-6.208477],[106.85429,-6.207178]]]},"properties":{"h3_index":"898c1079cb7ffff","kawasan":"Manggarai","tingkat_keyakinan":"RENDAH","n_titik_misi":0,"data_source":"predicted","zona_izin_komersial":null,"indeks_churn":null,"harga_sewa_median":null,"harga_sewa_per_m2":null,"belanja_per_jam":null,"njop_m2":null,"opportunity_score":47.0,"hidden_gem_score":null,"kuadran":"HIDDEN_GEM"}},{"type":"Feature","id":"898c1079cbbffff","geometry":{"type":"Polygon","coordinates":[[[106.858366,-6.203283],[106.85795,-6.201549],[106.856175,-6.201113],[106.854816,-6.202411],[106.855232,-6.204146],[106.857007,-6.204582],[106.858366,-6.203283]]]},"properties":{"h3_index":"898c1079cbbffff","kawasan":"Manggarai","tingkat_keyakinan":"RENDAH","n_titik_misi":0,"data_source":"predicted","zona_izin_komersial":true,"indeks_churn":null,"harga_sewa_median":null,"harga_sewa_per_m2":null,"belanja_per_jam":null,"njop_m2":null,"opportunity_score":48.9,"hidden_gem_score":null,"kuadran":"PEMENANG_JELAS"}},{"type":"Feature","id":"898c1079d13ffff","geometry":{"type":"Polygon","coordinates":[[[106.840507,-6.205423],[106.840091,-6.203689],[106.838316,-6.203253],[106.836957,-6.204551],[106.837374,-6.206286],[106.839149,-6.206722],[106.840507,-6.205423]]]},"properties":{"h3_index":"898c1079d13ffff","kawasan":"Manggarai","tingkat_keyakinan":"RENDAH","n_titik_misi":0,"data_source":"predicted","zona_izin_komersial":true,"indeks_churn":null,"harga_sewa_median":null,"harga_sewa_per_m2":null,"belanja_per_jam":null,"njop_m2":null,"opportunity_score":40.4,"hidden_gem_score":null,"kuadran":"JEBAKAN_GENGSI"}},{"type":"Feature","id":"898c1079d1bffff","geometry":{"type":"Polygon","coordinates":[[[106.84145,-6.20239],[106.841033,-6.200656],[106.839259,-6.20022],[106.8379,-6.201518],[106.838316,-6.203253],[106.840091,-6.203689],[106.84145,-6.20239]]]},"properties":{"h3_index":"898c1079d1bffff","kawasan":"Manggarai","tingkat_keyakinan":"RENDAH","n_titik_misi":0,"data_source":"predicted","zona_izin_komersial":null,"indeks_churn":null,"harga_sewa_median":null,"harga_sewa_per_m2":null,"belanja_per_jam":null,"njop_m2":null,"opportunity_score":46.9,"hidden_gem_score":null,"kuadran":"PEMENANG_JELAS"}},{"type":"Feature","id":"898c1079d53ffff","geometry":{"type":"Polygon","coordinates":[[[106.845526,-6.198495],[106.84511,-6.196761],[106.843335,-6.196324],[106.841976,-6.197623],[106.842392,-6.199358],[106.844167,-6.199794],[106.845526,-6.198495]]]},"properties":{"h3_index":"898c1079d53ffff","kawasan":"Manggarai","tingkat_keyakinan":"RENDAH","n_titik_misi":0,"data_source":"predicted","zona_izin_komersial":true,"indeks_churn":null,"harga_sewa_median":null,"harga_sewa_per_m2":null,"belanja_per_jam":null,"njop_m2":null,"opportunity_score":50.8,"hidden_gem_score":null,"kuadran":"HIDDEN_GEM"}},{"type":"Feature","id":"898c1079d57ffff","geometry":{"type":"Polygon","coordinates":[[[106.842392,-6.199358],[106.841976,-6.197623],[106.840201,-6.197187],[106.838842,-6.198485],[106.839259,-6.20022],[106.841033,-6.200656],[106.842392,-6.199358]]]},"properties":{"h3_index":"898c1079d57ffff","kawasan":"Manggarai","tingkat_keyakinan":"RENDAH","n_titik_misi":0,"data_source":"predicted","zona_izin_komersial":true,"indeks_churn":null,"harga_sewa_median":null,"harga_sewa_per_m2":null,"belanja_per_jam":null,"njop_m2":null,"opportunity_score":52.4,"hidden_gem_score":null,"kuadran":"PEMENANG_JELAS"}},{"type":"Feature","id":"898c1079d83ffff","geometry":{"type":"Polygon","coordinates":[[[106.841756,-6.210627],[106.84134,-6.208892],[106.839565,-6.208456],[106.838206,-6.209755],[106.838623,-6.211489],[106.840398,-6.211925],[106.841756,-6.210627]]]},"properties":{"h3_index":"898c1079d83ffff","kawasan":"Manggarai","tingkat_keyakinan":"RENDAH","n_titik_misi":0,"data_source":"predicted","zona_izin_komersial":null,"indeks_churn":null,"harga_sewa_median":null,"harga_sewa_per_m2":null,"belanja_per_jam":null,"njop_m2":null,"opportunity_score":41.2,"hidden_gem_score":null,"kuadran":"JEBAKAN_GENGSI"}},{"type":"Feature","id":"898c1079d87ffff","geometry":{"type":"Polygon","coordinates":[[[106.838623,-6.211489],[106.838206,-6.209755],[106.836431,-6.209318],[106.835073,-6.210617],[106.835489,-6.212351],[106.837264,-6.212787],[106.838623,-6.211489]]]},"properties":{"h3_index":"898c1079d87ffff","kawasan":"Manggarai","tingkat_keyakinan":"RENDAH","n_titik_misi":0,"data_source":"predicted","zona_izin_komersial":true,"indeks_churn":null,"harga_sewa_median":null,"harga_sewa_per_m2":null,"belanja_per_jam":null,"njop_m2":null,"opportunity_score":37.3,"hidden_gem_score":null,"kuadran":"HINDARI"}},{"type":"Feature","id":"898c1079d8bffff","geometry":{"type":"Polygon","coordinates":[[[106.842699,-6.207594],[106.842282,-6.20586],[106.840507,-6.205423],[106.839149,-6.206722],[106.839565,-6.208456],[106.84134,-6.208892],[106.842699,-6.207594]]]},"properties":{"h3_index":"898c1079d8bffff","kawasan":"Manggarai","tingkat_keyakinan":"RENDAH","n_titik_misi":0,"data_source":"predicted","zona_izin_komersial":true,"indeks_churn":null,"harga_sewa_median":null,"harga_sewa_per_m2":null,"belanja_per_jam":null,"njop_m2":null,"opportunity_score":43.9,"hidden_gem_score":null,"kuadran":"HINDARI"}},{"type":"Feature","id":"898c1079d8fffff","geometry":{"type":"Polygon","coordinates":[[[106.839565,-6.208456],[106.839149,-6.206722],[106.837374,-6.206286],[106.836015,-6.207584],[106.836431,-6.209318],[106.838206,-6.209755],[106.839565,-6.208456]]]},"properties":{"h3_index":"898c1079d8fffff","kawasan":"Manggarai","tingkat_keyakinan":"RENDAH","n_titik_misi":0,"data_source":"predicted","zona_izin_komersial":true,"indeks_churn":null,"harga_sewa_median":null,"harga_sewa_per_m2":null,"belanja_per_jam":null,"njop_m2":null,"opportunity_score":51.8,"hidden_gem_score":0.517789238383944,"kuadran":"HIDDEN_GEM"}},{"type":"Feature","id":"898c1079d93ffff","geometry":{"type":"Polygon","coordinates":[[[106.843947,-6.212797],[106.843531,-6.211063],[106.841756,-6.210627],[106.840398,-6.211925],[106.840814,-6.21366],[106.842589,-6.214096],[106.843947,-6.212797]]]},"properties":{"h3_index":"898c1079d93ffff","kawasan":"Manggarai","tingkat_keyakinan":"RENDAH","n_titik_misi":0,"data_source":"predicted","zona_izin_komersial":true,"indeks_churn":null,"harga_sewa_median":null,"harga_sewa_per_m2":null,"belanja_per_jam":null,"njop_m2":null,"opportunity_score":41.4,"hidden_gem_score":null,"kuadran":"JEBAKAN_GENGSI"}},{"type":"Feature","id":"898c1079d97ffff","geometry":{"type":"Polygon","coordinates":[[[106.840814,-6.21366],[106.840398,-6.211925],[106.838623,-6.211489],[106.837264,-6.212787],[106.83768,-6.214522],[106.839455,-6.214958],[106.840814,-6.21366]]]},"properties":{"h3_index":"898c1079d97ffff","kawasan":"Manggarai","tingkat_keyakinan":"RENDAH","n_titik_misi":0,"data_source":"predicted","zona_izin_komersial":true,"indeks_churn":null,"harga_sewa_median":null,"harga_sewa_per_m2":null,"belanja_per_jam":null,"njop_m2":null,"opportunity_score":19.3,"hidden_gem_score":null,"kuadran":"JEBAKAN_GENGSI"}},{"type":"Feature","id":"898c1079d9bffff","geometry":{"type":"Polygon","coordinates":[[[106.84489,-6.209765],[106.844473,-6.20803],[106.842699,-6.207594],[106.84134,-6.208892],[106.841756,-6.210627],[106.843531,-6.211063],[106.84489,-6.209765]]]},"properties":{"h3_index":"898c1079d9bffff","kawasan":"Manggarai","tingkat_keyakinan":"RENDAH","n_titik_misi":0,"data_source":"predicted","zona_izin_komersial":true,"indeks_churn":null,"harga_sewa_median":null,"harga_sewa_per_m2":null,"belanja_per_jam":null,"njop_m2":null,"opportunity_score":49.5,"hidden_gem_score":null,"kuadran":"HIDDEN_GEM"}},{"type":"Feature","id":"898c1079dc3ffff","geometry":{"type":"Polygon","coordinates":[[[106.846775,-6.203699],[106.846358,-6.201965],[106.844583,-6.201528],[106.843225,-6.202827],[106.843641,-6.204561],[106.845416,-6.204997],[106.846775,-6.203699]]]},"properties":{"h3_index":"898c1079dc3ffff","kawasan":"Manggarai","tingkat_keyakinan":"RENDAH","n_titik_misi":0,"data_source":"predicted","zona_izin_komersial":true,"indeks_churn":null,"harga_sewa_median":null,"harga_sewa_per_m2":null,"belanja_per_jam":null,"njop_m2":null,"opportunity_score":48.9,"hidden_gem_score":0.535366137122458,"kuadran":"HIDDEN_GEM"}},{"type":"Feature","id":"898c1079dc7ffff","geometry":{"type":"Polygon","coordinates":[[[106.843641,-6.204561],[106.843225,-6.202827],[106.84145,-6.20239],[106.840091,-6.203689],[106.840507,-6.205423],[106.842282,-6.20586],[106.843641,-6.204561]]]},"properties":{"h3_index":"898c1079dc7ffff","kawasan":"Manggarai","tingkat_keyakinan":"RENDAH","n_titik_misi":0,"data_source":"predicted","zona_izin_komersial":null,"indeks_churn":null,"harga_sewa_median":null,"harga_sewa_per_m2":null,"belanja_per_jam":null,"njop_m2":null,"opportunity_score":44.6,"hidden_gem_score":null,"kuadran":"PEMENANG_JELAS"}},{"type":"Feature","id":"898c1079dcbffff","geometry":{"type":"Polygon","coordinates":[[[106.847717,-6.200666],[106.847301,-6.198932],[106.845526,-6.198495],[106.844167,-6.199794],[106.844583,-6.201528],[106.846358,-6.201965],[106.847717,-6.200666]]]},"properties":{"h3_index":"898c1079dcbffff","kawasan":"Manggarai","tingkat_keyakinan":"RENDAH","n_titik_misi":0,"data_source":"predicted","zona_izin_komersial":true,"indeks_churn":null,"harga_sewa_median":null,"harga_sewa_per_m2":null,"belanja_per_jam":null,"njop_m2":null,"opportunity_score":17.1,"hidden_gem_score":null,"kuadran":"JEBAKAN_GENGSI"}},{"type":"Feature","id":"898c1079dcfffff","geometry":{"type":"Polygon","coordinates":[[[106.844583,-6.201528],[106.844167,-6.199794],[106.842392,-6.199358],[106.841033,-6.200656],[106.84145,-6.20239],[106.843225,-6.202827],[106.844583,-6.201528]]]},"properties":{"h3_index":"898c1079dcfffff","kawasan":"Manggarai","tingkat_keyakinan":"RENDAH","n_titik_misi":0,"data_source":"predicted","zona_izin_komersial":true,"indeks_churn":null,"harga_sewa_median":null,"harga_sewa_per_m2":null,"belanja_per_jam":null,"njop_m2":null,"opportunity_score":38.1,"hidden_gem_score":null,"kuadran":"JEBAKAN_GENGSI"}},{"type":"Feature","id":"898c1079dd3ffff","geometry":{"type":"Polygon","coordinates":[[[106.848966,-6.20587],[106.848549,-6.204135],[106.846775,-6.203699],[106.845416,-6.204997],[106.845832,-6.206732],[106.847607,-6.207168],[106.848966,-6.20587]]]},"properties":{"h3_index":"898c1079dd3ffff","kawasan":"Manggarai","tingkat_keyakinan":"RENDAH","n_titik_misi":0,"data_source":"predicted","zona_izin_komersial":true,"indeks_churn":null,"harga_sewa_median":null,"harga_sewa_per_m2":null,"belanja_per_jam":null,"njop_m2":null,"opportunity_score":46.1,"hidden_gem_score":null,"kuadran":"PEMENANG_JELAS"}},{"type":"Feature","id":"898c1079dd7ffff","geometry":{"type":"Polygon","coordinates":[[[106.845832,-6.206732],[106.845416,-6.204997],[106.843641,-6.204561],[106.842282,-6.20586],[106.842699,-6.207594],[106.844473,-6.20803],[106.845832,-6.206732]]]},"properties":{"h3_index":"898c1079dd7ffff","kawasan":"Manggarai","tingkat_keyakinan":"RENDAH","n_titik_misi":0,"data_source":"predicted","zona_izin_komersial":null,"indeks_churn":null,"harga_sewa_median":null,"harga_sewa_per_m2":null,"belanja_per_jam":null,"njop_m2":null,"opportunity_score":48.1,"hidden_gem_score":null,"kuadran":"PEMENANG_JELAS"}},{"type":"Feature","id":"898c1079ddbffff","geometry":{"type":"Polygon","coordinates":[[[106.849908,-6.202837],[106.849492,-6.201102],[106.847717,-6.200666],[106.846358,-6.201965],[106.846775,-6.203699],[106.848549,-6.204135],[106.849908,-6.202837]]]},"properties":{"h3_index":"898c1079ddbffff","kawasan":"Manggarai","tingkat_keyakinan":"RENDAH","n_titik_misi":0,"data_source":"predicted","zona_izin_komersial":true,"indeks_churn":null,"harga_sewa_median":null,"harga_sewa_per_m2":null,"belanja_per_jam":null,"njop_m2":null,"opportunity_score":51.2,"hidden_gem_score":0.518130171059681,"kuadran":"HIDDEN_GEM"}},{"type":"Feature","id":"898c1078063ffff","geometry":{"type":"Polygon","coordinates":[[[106.86555,-6.226264],[106.865134,-6.22453],[106.863359,-6.224094],[106.862,-6.225393],[106.862417,-6.227127],[106.864191,-6.227562],[106.86555,-6.226264]]]},"properties":{"h3_index":"898c1078063ffff","kawasan":"Manggarai","tingkat_keyakinan":"RENDAH","n_titik_misi":0,"data_source":"predicted","zona_izin_komersial":true,"indeks_churn":null,"harga_sewa_median":null,"harga_sewa_per_m2":null,"belanja_per_jam":null,"njop_m2":null,"opportunity_score":44.4,"hidden_gem_score":null,"kuadran":"PEMENANG_JELAS"}},{"type":"Feature","id":"898c107806bffff","geometry":{"type":"Polygon","coordinates":[[[106.866492,-6.223232],[106.866076,-6.221498],[106.864301,-6.221062],[106.862943,-6.22236],[106.863359,-6.224094],[106.865134,-6.22453],[106.866492,-6.223232]]]},"properties":{"h3_index":"898c107806bffff","kawasan":"Manggarai","tingkat_keyakinan":"RENDAH","n_titik_misi":0,"data_source":"predicted","zona_izin_komersial":true,"indeks_churn":null,"harga_sewa_median":null,"harga_sewa_per_m2":null,"belanja_per_jam":null,"njop_m2":null,"opportunity_score":58.3,"hidden_gem_score":null,"kuadran":"HIDDEN_GEM"}}]}