{"type":"FeatureCollection","features":[{"type":"Feature","id":"898c1073063ffff","geometry":{"type":"Polygon","coordinates":[[[106.87856,-6.37783],[106.878144,-6.376099],[106.87637,-6.375665],[106.875013,-6.376961],[106.875428,-6.378692],[106.877202,-6.379127],[106.87856,-6.37783]]]},"properties":{"h3_index":"898c1073063ffff","kawasan":"Harjamukti","tingkat_keyakinan":"RENDAH","n_titik_misi":0,"data_source":"predicted","zona_izin_komersial":null,"indeks_churn":null,"harga_sewa_median":null,"harga_sewa_per_m2":null,"belanja_per_jam":null,"njop_m2":null,"opportunity_score":35.1,"hidden_gem_score":null,"kuadran":"HINDARI"}},{"type":"Feature","id":"898c1073693ffff","geometry":{"type":"Polygon","coordinates":[[[106.909536,-6.388671],[106.90912,-6.386941],[106.907347,-6.386507],[106.90599,-6.387803],[106.906405,-6.389534],[106.908178,-6.389968],[106.909536,-6.388671]]]},"properties":{"h3_index":"898c1073693ffff","kawasan":"Harjamukti","tingkat_keyakinan":"RENDAH","n_titik_misi":0,"data_source":"predicted","zona_izin_komersial":null,"indeks_churn":null,"harga_sewa_median":null,"harga_sewa_per_m2":null,"belanja_per_jam":null,"njop_m2":null,"opportunity_score":28.1,"hidden_gem_score":null,"kuadran":"HINDARI"}},{"type":"Feature","id":"898c1044d23ffff","geometry":{"type":"Polygon","coordinates":[[[106.902056,-6.357515],[106.901641,-6.355784],[106.899868,-6.355349],[106.89851,-6.356646],[106.898925,-6.358378],[106.900699,-6.358812],[106.902056,-6.357515]]]},"properties":{"h3_index":"898c1044d23ffff","kawasan":"Harjamukti","tingkat_keyakinan":"RENDAH","n_titik_misi":0,"data_source":"predicted","zona_izin_komersial":false,"indeks_churn":null,"harga_sewa_median":null,"harga_sewa_per_m2":null,"belanja_per_jam":null,"njop_m2":null,"opportunity_score":0.0,"hidden_gem_score":null,"kuadran":"HINDARI"}},{"type":"Feature","id":"898c1044d27ffff","geometry":{"type":"Polygon","coordinates":[[[106.898925,-6.358378],[106.89851,-6.356646],[106.896736,-6.356212],[106.895379,-6.357509],[106.895794,-6.35924],[106.897568,-6.359674],[106.898925,-6.358378]]]},"properties":{"h3_index":"898c1044d27ffff","kawasan":"Harjamukti","tingkat_keyakinan":"RENDAH","n_titik_misi":0,"data_source":"predicted","zona_izin_komersial":false,"indeks_churn":null,"harga_sewa_median":null,"harga_sewa_per_m2":null,"belanja_per_jam":null,"njop_m2":null,"opportunity_score":0.0,"hidden_gem_score":null,"kuadran":"HINDARI"}},{"type":"Feature","id":"898c1044d33ffff","geometry":{"type":"Polygon","coordinates":[[[106.904245,-6.359681],[106.90383,-6.357949],[106.902056,-6.357515],[106.900699,-6.358812],[106.901114,-6.360543],[106.902888,-6.360977],[106.904245,-6.359681]]]},"properties":{"h3_index":"898c1044d33ffff","kawasan":"Harjamukti","tingkat_keyakinan":"RENDAH","n_titik_misi":0,"data_source":"predicted","zona_izin_komersial":false,"indeks_churn":null,"harga_sewa_median":null,"harga_sewa_per_m2":null,"belanja_per_jam":null,"njop_m2":null,"opportunity_score":0.0,"hidden_gem_score":null,"kuadran":"HINDARI"}},{"type":"Feature","id":"898c1044d37ffff","geometry":{"type":"Polygon","coordinates":[[[106.901114,-6.360543],[106.900699,-6.358812],[106.898925,-6.358378],[106.897568,-6.359674],[106.897983,-6.361406],[106.899757,-6.36184],[106.901114,-6.360543]]]},"properties":{"h3_index":"898c1044d37ffff","kawasan":"Harjamukti","tingkat_keyakinan":"RENDAH","n_titik_misi":0,"data_source":"predicted","zona_izin_komersial":false,"indeks_churn":null,"harga_sewa_median":null,"harga_sewa_per_m2":null,"belanja_per_jam":null,"njop_m2":null,"opportunity_score":0.0,"hidden_gem_score":null,"kuadran":"HINDARI"}},{"type":"Feature","id":"898c1044d87ffff","geometry":{"type":"Polygon","coordinates":[[[106.910811,-6.366177],[106.910396,-6.364446],[106.908623,-6.364011],[106.907265,-6.365308],[106.90768,-6.367039],[106.909454,-6.367473],[106.910811,-6.366177]]]},"properties":{"h3_index":"898c1044d87ffff","kawasan":"Harjamukti","tingkat_keyakinan":"RENDAH","n_titik_misi":0,"data_source":"predicted","zona_izin_komersial":null,"indeks_churn":null,"harga_sewa_median":null,"harga_sewa_per_m2":null,"belanja_per_jam":null,"njop_m2":null,"opportunity_score":31.8,"hidden_gem_score":null,"kuadran":"HINDARI"}},{"type":"Feature","id":"898c1044d97ffff","geometry":{"type":"Polygon","coordinates":[[[106.913,-6.368342],[106.912584,-6.366611],[106.910811,-6.366177],[106.909454,-6.367473],[106.909869,-6.369204],[106.911642,-6.369638],[106.913,-6.368342]]]},"properties":{"h3_index":"898c1044d97ffff","kawasan":"Harjamukti","tingkat_keyakinan":"RENDAH","n_titik_misi":0,"data_source":"predicted","zona_izin_komersial":null,"indeks_churn":null,"harga_sewa_median":null,"harga_sewa_per_m2":null,"belanja_per_jam":null,"njop_m2":null,"opportunity_score":23.0,"hidden_gem_score":null,"kuadran":"HINDARI"}},{"type":"Feature","id":"898c1044da3ffff","geometry":{"type":"Polygon","coordinates":[[[106.905492,-6.364874],[106.905076,-6.363143],[106.903303,-6.362709],[106.901945,-6.364005],[106.902361,-6.365736],[106.904134,-6.366171],[106.905492,-6.364874]]]},"properties":{"h3_index":"898c1044da3ffff","kawasan":"Harjamukti","tingkat_keyakinan":"RENDAH","n_titik_misi":0,"data_source":"predicted","zona_izin_komersial":null,"indeks_churn":null,"harga_sewa_median":null,"harga_sewa_per_m2":null,"belanja_per_jam":null,"njop_m2":null,"opportunity_score":33.9,"hidden_gem_score":null,"kuadran":"HINDARI"}},{"type":"Feature","id":"898c1044da7ffff","geometry":{"type":"Polygon","coordinates":[[[106.902361,-6.365736],[106.901945,-6.364005],[106.900172,-6.363571],[106.898814,-6.364868],[106.89923,-6.366599],[106.901003,-6.367033],[106.902361,-6.365736]]]},"properties":{"h3_index":"898c1044da7ffff","kawasan":"Harjamukti","tingkat_keyakinan":"RENDAH","n_titik_misi":0,"data_source":"predicted","zona_izin_komersial":false,"indeks_churn":null,"harga_sewa_median":null,"harga_sewa_per_m2":null,"belanja_per_jam":null,"njop_m2":null,"opportunity_score":0.0,"hidden_gem_score":null,"kuadran":"HINDARI"}},{"type":"Feature","id":"898c1044dabffff","geometry":{"type":"Polygon","coordinates":[[[106.906434,-6.361846],[106.906018,-6.360115],[106.904245,-6.359681],[106.902888,-6.360977],[106.903303,-6.362709],[106.905076,-6.363143],[106.906434,-6.361846]]]},"properties":{"h3_index":"898c1044dabffff","kawasan":"Harjamukti","tingkat_keyakinan":"RENDAH","n_titik_misi":0,"data_source":"predicted","zona_izin_komersial":false,"indeks_churn":null,"harga_sewa_median":null,"harga_sewa_per_m2":null,"belanja_per_jam":null,"njop_m2":null,"opportunity_score":0.0,"hidden_gem_score":null,"kuadran":"HINDARI"}},{"type":"Feature","id":"898c1044dafffff","geometry":{"type":"Polygon","coordinates":[[[106.903303,-6.362709],[106.902888,-6.360977],[106.901114,-6.360543],[106.899757,-6.36184],[106.900172,-6.363571],[106.901945,-6.364005],[106.903303,-6.362709]]]},"properties":{"h3_index":"898c1044dafffff","kawasan":"Harjamukti","tingkat_keyakinan":"RENDAH","n_titik_misi":0,"data_source":"predicted","zona_izin_komersial":false,"indeks_churn":null,"harga_sewa_median":null,"harga_sewa_per_m2":null,"belanja_per_jam":null,"njop_m2":null,"opportunity_score":0.0,"hidden_gem_score":null,"kuadran":"HINDARI"}},{"type":"Feature","id":"898c1044db3ffff","geometry":{"type":"Polygon","coordinates":[[[106.90768,-6.367039],[106.907265,-6.365308],[106.905492,-6.364874],[106.904134,-6.366171],[106.90455,-6.367902],[106.906323,-6.368336],[106.90768,-6.367039]]]},"properties":{"h3_index":"898c1044db3ffff","kawasan":"Harjamukti","tingkat_keyakinan":"RENDAH","n_titik_misi":0,"data_source":"predicted","zona_izin_komersial":null,"indeks_churn":null,"harga_sewa_median":null,"harga_sewa_per_m2":null,"belanja_per_jam":null,"njop_m2":null,"opportunity_score":34.2,"hidden_gem_score":null,"kuadran":"HINDARI"}},{"type":"Feature","id":"898c1044db7ffff","geometry":{"type":"Polygon","coordinates":[[[106.90455,-6.367902],[106.904134,-6.366171],[106.902361,-6.365736],[106.901003,-6.367033],[106.901419,-6.368764],[106.903192,-6.369199],[106.90455,-6.367902]]]},"properties":{"h3_index":"898c1044db7ffff","kawasan":"Harjamukti","tingkat_keyakinan":"RENDAH","n_titik_misi":0,"data_source":"predicted","zona_izin_komersial":null,"indeks_churn":null,"harga_sewa_median":null,"harga_sewa_per_m2":null,"belanja_per_jam":null,"njop_m2":null,"opportunity_score":35.3,"hidden_gem_score":null,"kuadran":"HINDARI"}},{"type":"Feature","id":"898c1044dbbffff","geometry":{"type":"Polygon","coordinates":[[[106.908623,-6.364011],[106.908207,-6.36228],[106.906434,-6.361846],[106.905076,-6.363143],[106.905492,-6.364874],[106.907265,-6.365308],[106.908623,-6.364011]]]},"properties":{"h3_index":"898c1044dbbffff","kawasan":"Harjamukti","tingkat_keyakinan":"RENDAH","n_titik_misi":0,"data_source":"predicted","zona_izin_komersial":null,"indeks_churn":null,"harga_sewa_median":null,"harga_sewa_per_m2":null,"belanja_per_jam":null,"njop_m2":null,"opportunity_score":33.7,"hidden_gem_score":null,"kuadran":"HINDARI"}},{"type":"Feature","id":"898c1046b27ffff","geometry":{"type":"Polygon","coordinates":[[[106.914246,-6.373534],[106.913831,-6.371804],[106.912058,-6.371369],[106.9107,-6.372666],[106.911116,-6.374397],[106.912889,-6.374831],[106.914246,-6.373534]]]},"properties":{"h3_index":"898c1046b27ffff","kawasan":"Harjamukti","tingkat_keyakinan":"RENDAH","n_titik_misi":0,"data_source":"predicted","zona_izin_komersial":null,"indeks_churn":null,"harga_sewa_median":null,"harga_sewa_per_m2":null,"belanja_per_jam":null,"njop_m2":null,"opportunity_score":26.6,"hidden_gem_score":null,"kuadran":"JEBAKAN_GENGSI"}},{"type":"Feature","id":"898c1046b2fffff","geometry":{"type":"Polygon","coordinates":[[[106.915188,-6.370507],[106.914773,-6.368776],[106.913,-6.368342],[106.911642,-6.369638],[106.912058,-6.371369],[106.913831,-6.371804],[106.915188,-6.370507]]]},"properties":{"h3_index":"898c1046b2fffff","kawasan":"Harjamukti","tingkat_keyakinan":"RENDAH","n_titik_misi":0,"data_source":"predicted","zona_izin_komersial":null,"indeks_churn":null,"harga_sewa_median":null,"harga_sewa_per_m2":null,"belanja_per_jam":null,"njop_m2":null,"opportunity_score":25.2,"hidden_gem_score":null,"kuadran":"JEBAKAN_GENGSI"}},{"type":"Feature","id":"898c1073003ffff","geometry":{"type":"Polygon","coordinates":[[[106.881996,-6.385188],[106.88158,-6.383457],[106.879807,-6.383023],[106.878449,-6.384319],[106.878865,-6.38605],[106.880638,-6.386484],[106.881996,-6.385188]]]},"properties":{"h3_index":"898c1073003ffff","kawasan":"Harjamukti","tingkat_keyakinan":"RENDAH","n_titik_misi":0,"data_source":"predicted","zona_izin_komersial":null,"indeks_churn":null,"harga_sewa_median":null,"harga_sewa_per_m2":null,"belanja_per_jam":null,"njop_m2":null,"opportunity_score":36.5,"hidden_gem_score":null,"kuadran":"HINDARI"}},{"type":"Feature","id":"898c107300bffff","geometry":{"type":"Polygon","coordinates":[[[106.882938,-6.38216],[106.882522,-6.380429],[106.880749,-6.379995],[106.879391,-6.381292],[106.879807,-6.383023],[106.88158,-6.383457],[106.882938,-6.38216]]]},"properties":{"h3_index":"898c107300bffff","kawasan":"Harjamukti","tingkat_keyakinan":"RENDAH","n_titik_misi":0,"data_source":"predicted","zona_izin_komersial":null,"indeks_churn":null,"harga_sewa_median":null,"harga_sewa_per_m2":null,"belanja_per_jam":null,"njop_m2":null,"opportunity_score":36.2,"hidden_gem_score":null,"kuadran":"HINDARI"}},{"type":"Feature","id":"898c107300fffff","geometry":{"type":"Polygon","coordinates":[[[106.879807,-6.383023],[106.879391,-6.381292],[106.877618,-6.380858],[106.87626,-6.382154],[106.876676,-6.383885],[106.878449,-6.384319],[106.879807,-6.383023]]]},"properties":{"h3_index":"898c107300fffff","kawasan":"Harjamukti","tingkat_keyakinan":"RENDAH","n_titik_misi":0,"data_source":"predicted","zona_izin_komersial":null,"indeks_churn":null,"harga_sewa_median":null,"harga_sewa_per_m2":null,"belanja_per_jam":null,"njop_m2":null,"opportunity_score":34.9,"hidden_gem_score":null,"kuadran":"HINDARI"}},{"type":"Feature","id":"898c1073013ffff","geometry":{"type":"Polygon","coordinates":[[[106.884185,-6.387353],[106.883769,-6.385622],[106.881996,-6.385188],[106.880638,-6.386484],[106.881054,-6.388215],[106.882827,-6.388649],[106.884185,-6.387353]]]},"properties":{"h3_index":"898c1073013ffff","kawasan":"Harjamukti","tingkat_keyakinan":"RENDAH","n_titik_misi":0,"data_source":"predicted","zona_izin_komersial":null,"indeks_churn":null,"harga_sewa_median":null,"harga_sewa_per_m2":null,"belanja_per_jam":null,"njop_m2":null,"opportunity_score":47.7,"hidden_gem_score":null,"kuadran":"HIDDEN_GEM"}},{"type":"Feature","id":"898c107301bffff","geometry":{"type":"Polygon","coordinates":[[[106.885127,-6.384325],[106.884711,-6.382594],[106.882938,-6.38216],[106.88158,-6.383457],[106.881996,-6.385188],[106.883769,-6.385622],[106.885127,-6.384325]]]},"properties":{"h3_index":"898c107301bffff","kawasan":"Harjamukti","tingkat_keyakinan":"RENDAH","n_titik_misi":0,"data_source":"predicted","zona_izin_komersial":null,"indeks_churn":null,"harga_sewa_median":null,"harga_sewa_per_m2":null,"belanja_per_jam":null,"njop_m2":null,"opportunity_score":37.7,"hidden_gem_score":null,"kuadran":"HINDARI"}},{"type":"Feature","id":"898c1073043ffff","geometry":{"type":"Polygon","coordinates":[[[106.887011,-6.37827],[106.886595,-6.376539],[106.884822,-6.376105],[106.883464,-6.377402],[106.88388,-6.379133],[106.885653,-6.379567],[106.887011,-6.37827]]]},"properties":{"h3_index":"898c1073043ffff","kawasan":"Harjamukti","tingkat_keyakinan":"RENDAH","n_titik_misi":0,"data_source":"predicted","zona_izin_komersial":null,"indeks_churn":null,"harga_sewa_median":null,"harga_sewa_per_m2":null,"belanja_per_jam":null,"njop_m2":null,"opportunity_score":41.2,"hidden_gem_score":null,"kuadran":"HINDARI"}},{"type":"Feature","id":"898c1073047ffff","geometry":{"type":"Polygon","coordinates":[[[106.88388,-6.379133],[106.883464,-6.377402],[106.881691,-6.376967],[106.880333,-6.378264],[106.880749,-6.379995],[106.882522,-6.380429],[106.88388,-6.379133]]]},"properties":{"h3_index":"898c1073047ffff","kawasan":"Harjamukti","tingkat_keyakinan":"RENDAH","n_titik_misi":0,"data_source":"predicted","zona_izin_komersial":null,"indeks_churn":null,"harga_sewa_median":null,"harga_sewa_per_m2":null,"belanja_per_jam":null,"njop_m2":null,"opportunity_score":39.5,"hidden_gem_score":null,"kuadran":"HINDARI"}},{"type":"Feature","id":"898c107304bffff","geometry":{"type":"Polygon","coordinates":[[[106.887953,-6.375242],[106.887537,-6.373511],[106.885764,-6.373077],[106.884406,-6.374374],[106.884822,-6.376105],[106.886595,-6.376539],[106.887953,-6.375242]]]},"properties":{"h3_index":"898c107304bffff","kawasan":"Harjamukti","tingkat_keyakinan":"RENDAH","n_titik_misi":0,"data_source":"predicted","zona_izin_komersial":null,"indeks_churn":null,"harga_sewa_median":null,"harga_sewa_per_m2":null,"belanja_per_jam":null,"njop_m2":null,"opportunity_score":41.7,"hidden_gem_score":null,"kuadran":"JEBAKAN_GENGSI"}},{"type":"Feature","id":"898c107304fffff","geometry":{"type":"Polygon","coordinates":[[[106.884822,-6.376105],[106.884406,-6.374374],[106.882633,-6.37394],[106.881275,-6.375236],[106.881691,-6.376967],[106.883464,-6.377402],[106.884822,-6.376105]]]},"properties":{"h3_index":"898c107304fffff","kawasan":"Harjamukti","tingkat_keyakinan":"RENDAH","n_titik_misi":0,"data_source":"predicted","zona_izin_komersial":null,"indeks_churn":null,"harga_sewa_median":null,"harga_sewa_per_m2":null,"belanja_per_jam":null,"njop_m2":null,"opportunity_score":34.8,"hidden_gem_score":null,"kuadran":"HINDARI"}},{"type":"Feature","id":"898c1073053ffff","geometry":{"type":"Polygon","coordinates":[[[106.8892,-6.380435],[106.888784,-6.378704],[106.887011,-6.37827],[106.885653,-6.379567],[106.886069,-6.381298],[106.887842,-6.381732],[106.8892,-6.380435]]]},"properties":{"h3_index":"898c1073053ffff","kawasan":"Harjamukti","tingkat_keyakinan":"RENDAH","n_titik_misi":0,"data_source":"predicted","zona_izin_komersial":null,"indeks_churn":null,"harga_sewa_median":null,"harga_sewa_per_m2":null,"belanja_per_jam":null,"njop_m2":null,"opportunity_score":42.1,"hidden_gem_score":null,"kuadran":"HINDARI"}},{"type":"Feature","id":"898c1073057ffff","geometry":{"type":"Polygon","coordinates":[[[106.886069,-6.381298],[106.885653,-6.379567],[106.88388,-6.379133],[106.882522,-6.380429],[106.882938,-6.38216],[106.884711,-6.382594],[106.886069,-6.381298]]]},"properties":{"h3_index":"898c1073057ffff","kawasan":"Harjamukti","tingkat_keyakinan":"RENDAH","n_titik_misi":0,"data_source":"predicted","zona_izin_komersial":null,"indeks_churn":null,"harga_sewa_median":null,"harga_sewa_per_m2":null,"belanja_per_jam":null,"njop_m2":null,"opportunity_score":39.9,"hidden_gem_score":null,"kuadran":"HINDARI"}},{"type":"Feature","id":"898c107305bffff","geometry":{"type":"Polygon","coordinates":[[[106.890142,-6.377407],[106.889726,-6.375677],[106.887953,-6.375242],[106.886595,-6.376539],[106.887011,-6.37827],[106.888784,-6.378704],[106.890142,-6.377407]]]},"properties":{"h3_index":"898c107305bffff","kawasan":"Harjamukti","tingkat_keyakinan":"RENDAH","n_titik_misi":0,"data_source":"predicted","zona_izin_komersial":null,"indeks_churn":null,"harga_sewa_median":null,"harga_sewa_per_m2":null,"belanja_per_jam":null,"njop_m2":null,"opportunity_score":42.6,"hidden_gem_score":null,"kuadran":"HINDARI"}},{"type":"Feature","id":"898c107306bffff","geometry":{"type":"Polygon","coordinates":[[[106.879502,-6.374802],[106.879086,-6.373071],[106.877312,-6.372637],[106.875955,-6.373934],[106.87637,-6.375665],[106.878144,-6.376099],[106.879502,-6.374802]]]},"properties":{"h3_index":"898c107306bffff","kawasan":"Harjamukti","tingkat_keyakinan":"RENDAH","n_titik_misi":0,"data_source":"predicted","zona_izin_komersial":null,"indeks_churn":null,"harga_sewa_median":null,"harga_sewa_per_m2":null,"belanja_per_jam":null,"njop_m2":null,"opportunity_score":34.2,"hidden_gem_score":null,"kuadran":"JEBAKAN_GENGSI"}},{"type":"Feature","id":"898c1073073ffff","geometry":{"type":"Polygon","coordinates":[[[106.880749,-6.379995],[106.880333,-6.378264],[106.87856,-6.37783],[106.877202,-6.379127],[106.877618,-6.380858],[106.879391,-6.381292],[106.880749,-6.379995]]]},"properties":{"h3_index":"898c1073073ffff","kawasan":"Harjamukti","tingkat_keyakinan":"RENDAH","n_titik_misi":0,"data_source":"predicted","zona_izin_komersial":null,"indeks_churn":null,"harga_sewa_median":null,"harga_sewa_per_m2":null,"belanja_per_jam":null,"njop_m2":null,"opportunity_score":36.5,"hidden_gem_score":null,"kuadran":"HINDARI"}},{"type":"Feature","id":"898c1073077ffff","geometry":{"type":"Polygon","coordinates":[[[106.877618,-6.380858],[106.877202,-6.379127],[106.875428,-6.378692],[106.874071,-6.379989],[106.874486,-6.38172],[106.87626,-6.382154],[106.877618,-6.380858]]]},"properties":{"h3_index":"898c1073077ffff","kawasan":"Harjamukti","tingkat_keyakinan":"RENDAH","n_titik_misi":0,"data_source":"predicted","zona_izin_komersial":null,"indeks_churn":null,"harga_sewa_median":null,"harga_sewa_per_m2":null,"belanja_per_jam":null,"njop_m2":null,"opportunity_score":33.8,"hidden_gem_score":null,"kuadran":"HINDARI"}},{"type":"Feature","id":"898c107307bffff","geometry":{"type":"Polygon","coordinates":[[[106.881691,-6.376967],[106.881275,-6.375236],[106.879502,-6.374802],[106.878144,-6.376099],[106.87856,-6.37783],[106.880333,-6.378264],[106.881691,-6.376967]]]},"properties":{"h3_index":"898c107307bffff","kawasan":"Harjamukti","tingkat_keyakinan":"RENDAH","n_titik_misi":0,"data_source":"predicted","zona_izin_komersial":null,"indeks_churn":null,"harga_sewa_median":null,"harga_sewa_per_m2":null,"belanja_per_jam":null,"njop_m2":null,"opportunity_score":34.7,"hidden_gem_score":null,"kuadran":"HINDARI"}},{"type":"Feature","id":"898c107308bffff","geometry":{"type":"Polygon","coordinates":[[[106.886374,-6.389518],[106.885958,-6.387787],[106.884185,-6.387353],[106.882827,-6.388649],[106.883243,-6.39038],[106.885016,-6.390814],[106.886374,-6.389518]]]},"properties":{"h3_index":"898c107308bffff","kawasan":"Harjamukti","tingkat_keyakinan":"RENDAH","n_titik_misi":0,"data_source":"predicted","zona_izin_komersial":null,"indeks_churn":null,"harga_sewa_median":null,"harga_sewa_per_m2":null,"belanja_per_jam":null,"njop_m2":null,"opportunity_score":35.4,"hidden_gem_score":null,"kuadran":"JEBAKAN_GENGSI"}},{"type":"Feature","id":"898c107309bffff","geometry":{"type":"Polygon","coordinates":[[[106.888563,-6.391682],[106.888147,-6.389952],[106.886374,-6.389518],[106.885016,-6.390814],[106.885432,-6.392545],[106.887205,-6.392979],[106.888563,-6.391682]]]},"properties":{"h3_index":"898c107309bffff","kawasan":"Harjamukti","tingkat_keyakinan":"RENDAH","n_titik_misi":0,"data_source":"predicted","zona_izin_komersial":null,"indeks_churn":null,"harga_sewa_median":null,"harga_sewa_per_m2":null,"belanja_per_jam":null,"njop_m2":null,"opportunity_score":36.9,"hidden_gem_score":null,"kuadran":"JEBAKAN_GENGSI"}},{"type":"Feature","id":"898c10730c3ffff","geometry":{"type":"Polygon","coordinates":[[[106.890447,-6.385628],[106.890031,-6.383897],[106.888258,-6.383463],[106.8869,-6.384759],[106.887316,-6.38649],[106.889089,-6.386924],[106.890447,-6.385628]]]},"properties":{"h3_index":"898c10730c3ffff","kawasan":"Harjamukti","tingkat_keyakinan":"RENDAH","n_titik_misi":0,"data_source":"predicted","zona_izin_komersial":null,"indeks_churn":null,"harga_sewa_median":null,"harga_sewa_per_m2":null,"belanja_per_jam":null,"njop_m2":null,"opportunity_score":41.8,"hidden_gem_score":null,"kuadran":"HINDARI"}},{"type":"Feature","id":"898c10730c7ffff","geometry":{"type":"Polygon","coordinates":[[[106.887316,-6.38649],[106.8869,-6.384759],[106.885127,-6.384325],[106.883769,-6.385622],[106.884185,-6.387353],[106.885958,-6.387787],[106.887316,-6.38649]]]},"properties":{"h3_index":"898c10730c7ffff","kawasan":"Harjamukti","tingkat_keyakinan":"RENDAH","n_titik_misi":0,"data_source":"predicted","zona_izin_komersial":null,"indeks_churn":null,"harga_sewa_median":null,"harga_sewa_per_m2":null,"belanja_per_jam":null,"njop_m2":null,"opportunity_score":37.7,"hidden_gem_score":null,"kuadran":"HINDARI"}},{"type":"Feature","id":"898c10730cbffff","geometry":{"type":"Polygon","coordinates":[[[106.891389,-6.3826],[106.890973,-6.380869],[106.8892,-6.380435],[106.887842,-6.381732],[106.888258,-6.383463],[106.890031,-6.383897],[106.891389,-6.3826]]]},"properties":{"h3_index":"898c10730cbffff","kawasan":"Harjamukti","tingkat_keyakinan":"RENDAH","n_titik_misi":0,"data_source":"predicted","zona_izin_komersial":null,"indeks_churn":null,"harga_sewa_median":null,"harga_sewa_per_m2":null,"belanja_per_jam":null,"njop_m2":null,"opportunity_score":41.7,"hidden_gem_score":null,"kuadran":"HINDARI"}},{"type":"Feature","id":"898c10730cfffff","geometry":{"type":"Polygon","coordinates":[[[106.888258,-6.383463],[106.887842,-6.381732],[106.886069,-6.381298],[106.884711,-6.382594],[106.885127,-6.384325],[106.8869,-6.384759],[106.888258,-6.383463]]]},"properties":{"h3_index":"898c10730cfffff","kawasan":"Harjamukti","tingkat_keyakinan":"RENDAH","n_titik_misi":0,"data_source":"predicted","zona_izin_komersial":null,"indeks_churn":null,"harga_sewa_median":null,"harga_sewa_per_m2":null,"belanja_per_jam":null,"njop_m2":null,"opportunity_score":41.5,"hidden_gem_score":null,"kuadran":"HINDARI"}},{"type":"Feature","id":"898c10730d3ffff","geometry":{"type":"Polygon","coordinates":[[[106.892636,-6.387792],[106.89222,-6.386062],[106.890447,-6.385628],[106.889089,-6.386924],[106.889505,-6.388655],[106.891278,-6.389089],[106.892636,-6.387792]]]},"properties":{"h3_index":"898c10730d3ffff","kawasan":"Harjamukti","tingkat_keyakinan":"RENDAH","n_titik_misi":0,"data_source":"predicted","zona_izin_komersial":null,"indeks_churn":null,"harga_sewa_median":null,"harga_sewa_per_m2":null,"belanja_per_jam":null,"njop_m2":null,"opportunity_score":39.5,"hidden_gem_score":null,"kuadran":"HINDARI"}},{"type":"Feature","id":"898c10730d7ffff","geometry":{"type":"Polygon","coordinates":[[[106.889505,-6.388655],[106.889089,-6.386924],[106.887316,-6.38649],[106.885958,-6.387787],[106.886374,-6.389518],[106.888147,-6.389952],[106.889505,-6.388655]]]},"properties":{"h3_index":"898c10730d7ffff","kawasan":"Harjamukti","tingkat_keyakinan":"RENDAH","n_titik_misi":0,"data_source":"predicted","zona_izin_komersial":null,"indeks_churn":null,"harga_sewa_median":null,"harga_sewa_per_m2":null,"belanja_per_jam":null,"njop_m2":null,"opportunity_score":39.2,"hidden_gem_score":null,"kuadran":"HINDARI"}},{"type":"Feature","id":"898c10730dbffff","geometry":{"type":"Polygon","coordinates":[[[106.893578,-6.384765],[106.893162,-6.383034],[106.891389,-6.3826],[106.890031,-6.383897],[106.890447,-6.385628],[106.89222,-6.386062],[106.893578,-6.384765]]]},"properties":{"h3_index":"898c10730dbffff","kawasan":"Harjamukti","tingkat_keyakinan":"RENDAH","n_titik_misi":0,"data_source":"predicted","zona_izin_komersial":null,"indeks_churn":null,"harga_sewa_median":null,"harga_sewa_per_m2":null,"belanja_per_jam":null,"njop_m2":null,"opportunity_score":42.0,"hidden_gem_score":null,"kuadran":"HINDARI"}},{"type":"Feature","id":"898c1073203ffff","geometry":{"type":"Polygon","coordinates":[[[106.88859,-6.363993],[106.888174,-6.362262],[106.886401,-6.361828],[106.885043,-6.363125],[106.885459,-6.364856],[106.887232,-6.36529],[106.88859,-6.363993]]]},"properties":{"h3_index":"898c1073203ffff","kawasan":"Harjamukti","tingkat_keyakinan":"RENDAH","n_titik_misi":0,"data_source":"predicted","zona_izin_komersial":true,"indeks_churn":null,"harga_sewa_median":null,"harga_sewa_per_m2":null,"belanja_per_jam":null,"njop_m2":null,"opportunity_score":43.2,"hidden_gem_score":null,"kuadran":"JEBAKAN_GENGSI"}},{"type":"Feature","id":"898c1073207ffff","geometry":{"type":"Polygon","coordinates":[[[106.885459,-6.364856],[106.885043,-6.363125],[106.88327,-6.36269],[106.881912,-6.363987],[106.882328,-6.365718],[106.884101,-6.366153],[106.885459,-6.364856]]]},"properties":{"h3_index":"898c1073207ffff","kawasan":"Harjamukti","tingkat_keyakinan":"RENDAH","n_titik_misi":0,"data_source":"predicted","zona_izin_komersial":true,"indeks_churn":null,"harga_sewa_median":null,"harga_sewa_per_m2":null,"belanja_per_jam":null,"njop_m2":null,"opportunity_score":43.6,"hidden_gem_score":null,"kuadran":"HINDARI"}},{"type":"Feature","id":"898c107320bffff","geometry":{"type":"Polygon","coordinates":[[[106.889532,-6.360965],[106.889116,-6.359234],[106.887343,-6.3588],[106.885985,-6.360096],[106.886401,-6.361828],[106.888174,-6.362262],[106.889532,-6.360965]]]},"properties":{"h3_index":"898c107320bffff","kawasan":"Harjamukti","tingkat_keyakinan":"RENDAH","n_titik_misi":0,"data_source":"predicted","zona_izin_komersial":true,"indeks_churn":null,"harga_sewa_median":null,"harga_sewa_per_m2":null,"belanja_per_jam":null,"njop_m2":null,"opportunity_score":42.0,"hidden_gem_score":null,"kuadran":"JEBAKAN_GENGSI"}},{"type":"Feature","id":"898c107320fffff","geometry":{"type":"Polygon","coordinates":[[[106.886401,-6.361828],[106.885985,-6.360096],[106.884212,-6.359662],[106.882854,-6.360959],[106.88327,-6.36269],[106.885043,-6.363125],[106.886401,-6.361828]]]},"properties":{"h3_index":"898c107320fffff","kawasan":"Harjamukti","tingkat_keyakinan":"RENDAH","n_titik_misi":0,"data_source":"predicted","zona_izin_komersial":true,"indeks_churn":null,"harga_sewa_median":null,"harga_sewa_per_m2":null,"belanja_per_jam":null,"njop_m2":null,"opportunity_score":20.8,"hidden_gem_score":null,"kuadran":"JEBAKAN_GENGSI"}},{"type":"Feature","id":"898c1073213ffff","geometry":{"type":"Polygon","coordinates":[[[106.890779,-6.366159],[106.890363,-6.364428],[106.88859,-6.363993],[106.887232,-6.36529],[106.887648,-6.367021],[106.889421,-6.367456],[106.890779,-6.366159]]]},"properties":{"h3_index":"898c1073213ffff","kawasan":"Harjamukti","tingkat_keyakinan":"RENDAH","n_titik_misi":0,"data_source":"predicted","zona_izin_komersial":true,"indeks_churn":null,"harga_sewa_median":null,"harga_sewa_per_m2":null,"belanja_per_jam":null,"njop_m2":null,"opportunity_score":53.1,"hidden_gem_score":0.544212682443278,"kuadran":"HIDDEN_GEM"}},{"type":"Feature","id":"898c1073217ffff","geometry":{"type":"Polygon","coordinates":[[[106.887648,-6.367021],[106.887232,-6.36529],[106.885459,-6.364856],[106.884101,-6.366153],[106.884517,-6.367884],[106.88629,-6.368318],[106.887648,-6.367021]]]},"properties":{"h3_index":"898c1073217ffff","kawasan":"Harjamukti","tingkat_keyakinan":"RENDAH","n_titik_misi":0,"data_source":"predicted","zona_izin_komersial":true,"indeks_churn":null,"harga_sewa_median":null,"harga_sewa_per_m2":null,"belanja_per_jam":null,"njop_m2":null,"opportunity_score":42.1,"hidden_gem_score":null,"kuadran":"JEBAKAN_GENGSI"}},{"type":"Feature","id":"898c107321bffff","geometry":{"type":"Polygon","coordinates":[[[106.891721,-6.363131],[106.891306,-6.3614],[106.889532,-6.360965],[106.888174,-6.362262],[106.88859,-6.363993],[106.890363,-6.364428],[106.891721,-6.363131]]]},"properties":{"h3_index":"898c107321bffff","kawasan":"Harjamukti","tingkat_keyakinan":"RENDAH","n_titik_misi":0,"data_source":"predicted","zona_izin_komersial":null,"indeks_churn":null,"harga_sewa_median":null,"harga_sewa_per_m2":null,"belanja_per_jam":null,"njop_m2":null,"opportunity_score":44.3,"hidden_gem_score":null,"kuadran":"PEMENANG_JELAS"}},{"type":"Feature","id":"898c1073233ffff","geometry":{"type":"Polygon","coordinates":[[[106.882328,-6.365718],[106.881912,-6.363987],[106.880138,-6.363553],[106.878781,-6.36485],[106.879196,-6.366581],[106.88097,-6.367015],[106.882328,-6.365718]]]},"properties":{"h3_index":"898c1073233ffff","kawasan":"Harjamukti","tingkat_keyakinan":"RENDAH","n_titik_misi":0,"data_source":"predicted","zona_izin_komersial":null,"indeks_churn":null,"harga_sewa_median":null,"harga_sewa_per_m2":null,"belanja_per_jam":null,"njop_m2":null,"opportunity_score":36.2,"hidden_gem_score":null,"kuadran":"HINDARI"}},{"type":"Feature","id":"898c107323bffff","geometry":{"type":"Polygon","coordinates":[[[106.88327,-6.36269],[106.882854,-6.360959],[106.88108,-6.360525],[106.879723,-6.361821],[106.880138,-6.363553],[106.881912,-6.363987],[106.88327,-6.36269]]]},"properties":{"h3_index":"898c107323bffff","kawasan":"Harjamukti","tingkat_keyakinan":"RENDAH","n_titik_misi":0,"data_source":"predicted","zona_izin_komersial":null,"indeks_churn":null,"harga_sewa_median":null,"harga_sewa_per_m2":null,"belanja_per_jam":null,"njop_m2":null,"opportunity_score":41.5,"hidden_gem_score":null,"kuadran":"HINDARI"}},{"type":"Feature","id":"898c1073253ffff","geometry":{"type":"Polygon","coordinates":[[[106.895794,-6.35924],[106.895379,-6.357509],[106.893605,-6.357075],[106.892248,-6.358371],[106.892663,-6.360103],[106.894437,-6.360537],[106.895794,-6.35924]]]},"properties":{"h3_index":"898c1073253ffff","kawasan":"Harjamukti","tingkat_keyakinan":"RENDAH","n_titik_misi":0,"data_source":"predicted","zona_izin_komersial":null,"indeks_churn":null,"harga_sewa_median":null,"harga_sewa_per_m2":null,"belanja_per_jam":null,"njop_m2":null,"opportunity_score":28.7,"hidden_gem_score":null,"kuadran":"HINDARI"}},{"type":"Feature","id":"898c1073257ffff","geometry":{"type":"Polygon","coordinates":[[[106.892663,-6.360103],[106.892248,-6.358371],[106.890474,-6.357937],[106.889116,-6.359234],[106.889532,-6.360965],[106.891306,-6.3614],[106.892663,-6.360103]]]},"properties":{"h3_index":"898c1073257ffff","kawasan":"Harjamukti","tingkat_keyakinan":"RENDAH","n_titik_misi":0,"data_source":"predicted","zona_izin_komersial":null,"indeks_churn":null,"harga_sewa_median":null,"harga_sewa_per_m2":null,"belanja_per_jam":null,"njop_m2":null,"opportunity_score":40.9,"hidden_gem_score":null,"kuadran":"JEBAKAN_GENGSI"}},{"type":"Feature","id":"898c1073283ffff","geometry":{"type":"Polygon","coordinates":[[[106.892026,-6.371352],[106.89161,-6.369621],[106.889837,-6.369187],[106.888479,-6.370484],[106.888895,-6.372215],[106.890668,-6.372649],[106.892026,-6.371352]]]},"properties":{"h3_index":"898c1073283ffff","kawasan":"Harjamukti","tingkat_keyakinan":"RENDAH","n_titik_misi":0,"data_source":"predicted","zona_izin_komersial":null,"indeks_churn":null,"harga_sewa_median":null,"harga_sewa_per_m2":null,"belanja_per_jam":null,"njop_m2":null,"opportunity_score":61.1,"hidden_gem_score":null,"kuadran":"HIDDEN_GEM"}},{"type":"Feature","id":"898c1073287ffff","geometry":{"type":"Polygon","coordinates":[[[106.888895,-6.372215],[106.888479,-6.370484],[106.886706,-6.370049],[106.885348,-6.371346],[106.885764,-6.373077],[106.887537,-6.373511],[106.888895,-6.372215]]]},"properties":{"h3_index":"898c1073287ffff","kawasan":"Harjamukti","tingkat_keyakinan":"RENDAH","n_titik_misi":0,"data_source":"predicted","zona_izin_komersial":null,"indeks_churn":null,"harga_sewa_median":null,"harga_sewa_per_m2":null,"belanja_per_jam":null,"njop_m2":null,"opportunity_score":46.4,"hidden_gem_score":null,"kuadran":"PEMENANG_JELAS"}},{"type":"Feature","id":"898c107328bffff","geometry":{"type":"Polygon","coordinates":[[[106.892968,-6.368324],[106.892552,-6.366593],[106.890779,-6.366159],[106.889421,-6.367456],[106.889837,-6.369187],[106.89161,-6.369621],[106.892968,-6.368324]]]},"properties":{"h3_index":"898c107328bffff","kawasan":"Harjamukti","tingkat_keyakinan":"RENDAH","n_titik_misi":0,"data_source":"predicted","zona_izin_komersial":null,"indeks_churn":null,"harga_sewa_median":null,"harga_sewa_per_m2":null,"belanja_per_jam":null,"njop_m2":null,"opportunity_score":62.4,"hidden_gem_score":null,"kuadran":"PEMENANG_JELAS"}},{"type":"Feature","id":"898c107328fffff","geometry":{"type":"Polygon","coordinates":[[[106.889837,-6.369187],[106.889421,-6.367456],[106.887648,-6.367021],[106.88629,-6.368318],[106.886706,-6.370049],[106.888479,-6.370484],[106.889837,-6.369187]]]},"properties":{"h3_index":"898c107328fffff","kawasan":"Harjamukti","tingkat_keyakinan":"RENDAH","n_titik_misi":1,"data_source":"observed","zona_izin_komersial":null,"indeks_churn":null,"harga_sewa_median":null,"harga_sewa_per_m2":null,"belanja_per_jam":null,"njop_m2":null,"opportunity_score":31.3,"hidden_gem_score":null,"kuadran":"JEBAKAN_GENGSI"}},{"type":"Feature","id":"898c1073293ffff","geometry":{"type":"Polygon","coordinates":[[[106.894215,-6.373517],[106.893799,-6.371786],[106.892026,-6.371352],[106.890668,-6.372649],[106.891084,-6.37438],[106.892857,-6.374814],[106.894215,-6.373517]]]},"properties":{"h3_index":"898c1073293ffff","kawasan":"Harjamukti","tingkat_keyakinan":"RENDAH","n_titik_misi":0,"data_source":"predicted","zona_izin_komersial":null,"indeks_churn":null,"harga_sewa_median":null,"harga_sewa_per_m2":null,"belanja_per_jam":null,"njop_m2":null,"opportunity_score":66.4,"hidden_gem_score":null,"kuadran":"HIDDEN_GEM"}},{"type":"Feature","id":"898c1073297ffff","geometry":{"type":"Polygon","coordinates":[[[106.891084,-6.37438],[106.890668,-6.372649],[106.888895,-6.372215],[106.887537,-6.373511],[106.887953,-6.375242],[106.889726,-6.375677],[106.891084,-6.37438]]]},"properties":{"h3_index":"898c1073297ffff","kawasan":"Harjamukti","tingkat_keyakinan":"RENDAH","n_titik_misi":0,"data_source":"predicted","zona_izin_komersial":null,"indeks_churn":null,"harga_sewa_median":null,"harga_sewa_per_m2":null,"belanja_per_jam":null,"njop_m2":null,"opportunity_score":44.5,"hidden_gem_score":null,"kuadran":"HIDDEN_GEM"}},{"type":"Feature","id":"898c107329bffff","geometry":{"type":"Polygon","coordinates":[[[106.895157,-6.370489],[106.894741,-6.368758],[106.892968,-6.368324],[106.89161,-6.369621],[106.892026,-6.371352],[106.893799,-6.371786],[106.895157,-6.370489]]]},"properties":{"h3_index":"898c107329bffff","kawasan":"Harjamukti","tingkat_keyakinan":"RENDAH","n_titik_misi":0,"data_source":"predicted","zona_izin_komersial":true,"indeks_churn":null,"harga_sewa_median":null,"harga_sewa_per_m2":null,"belanja_per_jam":null,"njop_m2":null,"opportunity_score":67.3,"hidden_gem_score":0.573085882592827,"kuadran":"HIDDEN_GEM"}},{"type":"Feature","id":"898c10732a3ffff","geometry":{"type":"Polygon","coordinates":[[[106.883575,-6.370912],[106.883159,-6.369181],[106.881386,-6.368746],[106.880028,-6.370043],[106.880444,-6.371774],[106.882217,-6.372209],[106.883575,-6.370912]]]},"properties":{"h3_index":"898c10732a3ffff","kawasan":"Harjamukti","tingkat_keyakinan":"RENDAH","n_titik_misi":0,"data_source":"predicted","zona_izin_komersial":null,"indeks_churn":null,"harga_sewa_median":null,"harga_sewa_per_m2":null,"belanja_per_jam":null,"njop_m2":null,"opportunity_score":43.6,"hidden_gem_score":null,"kuadran":"JEBAKAN_GENGSI"}},{"type":"Feature","id":"898c10732a7ffff","geometry":{"type":"Polygon","coordinates":[[[106.880444,-6.371774],[106.880028,-6.370043],[106.878254,-6.369609],[106.876897,-6.370906],[106.877312,-6.372637],[106.879086,-6.373071],[106.880444,-6.371774]]]},"properties":{"h3_index":"898c10732a7ffff","kawasan":"Harjamukti","tingkat_keyakinan":"RENDAH","n_titik_misi":0,"data_source":"predicted","zona_izin_komersial":null,"indeks_churn":null,"harga_sewa_median":null,"harga_sewa_per_m2":null,"belanja_per_jam":null,"njop_m2":null,"opportunity_score":15.8,"hidden_gem_score":null,"kuadran":"JEBAKAN_GENGSI"}},{"type":"Feature","id":"898c10732abffff","geometry":{"type":"Polygon","coordinates":[[[106.884517,-6.367884],[106.884101,-6.366153],[106.882328,-6.365718],[106.88097,-6.367015],[106.881386,-6.368746],[106.883159,-6.369181],[106.884517,-6.367884]]]},"properties":{"h3_index":"898c10732abffff","kawasan":"Harjamukti","tingkat_keyakinan":"RENDAH","n_titik_misi":0,"data_source":"predicted","zona_izin_komersial":null,"indeks_churn":null,"harga_sewa_median":null,"harga_sewa_per_m2":null,"belanja_per_jam":null,"njop_m2":null,"opportunity_score":39.1,"hidden_gem_score":null,"kuadran":"HINDARI"}},{"type":"Feature","id":"898c10732afffff","geometry":{"type":"Polygon","coordinates":[[[106.881386,-6.368746],[106.88097,-6.367015],[106.879196,-6.366581],[106.877839,-6.367878],[106.878254,-6.369609],[106.880028,-6.370043],[106.881386,-6.368746]]]},"properties":{"h3_index":"898c10732afffff","kawasan":"Harjamukti","tingkat_keyakinan":"RENDAH","n_titik_misi":0,"data_source":"predicted","zona_izin_komersial":null,"indeks_churn":null,"harga_sewa_median":null,"harga_sewa_per_m2":null,"belanja_per_jam":null,"njop_m2":null,"opportunity_score":37.5,"hidden_gem_score":null,"kuadran":"HINDARI"}},{"type":"Feature","id":"898c10732b3ffff","geometry":{"type":"Polygon","coordinates":[[[106.885764,-6.373077],[106.885348,-6.371346],[106.883575,-6.370912],[106.882217,-6.372209],[106.882633,-6.37394],[106.884406,-6.374374],[106.885764,-6.373077]]]},"properties":{"h3_index":"898c10732b3ffff","kawasan":"Harjamukti","tingkat_keyakinan":"RENDAH","n_titik_misi":0,"data_source":"predicted","zona_izin_komersial":null,"indeks_churn":null,"harga_sewa_median":null,"harga_sewa_per_m2":null,"belanja_per_jam":null,"njop_m2":null,"opportunity_score":42.8,"hidden_gem_score":null,"kuadran":"HINDARI"}},{"type":"Feature","id":"898c10732b7ffff","geometry":{"type":"Polygon","coordinates":[[[106.882633,-6.37394],[106.882217,-6.372209],[106.880444,-6.371774],[106.879086,-6.373071],[106.879502,-6.374802],[106.881275,-6.375236],[106.882633,-6.37394]]]},"properties":{"h3_index":"898c10732b7ffff","kawasan":"Harjamukti","tingkat_keyakinan":"RENDAH","n_titik_misi":0,"data_source":"predicted","zona_izin_komersial":null,"indeks_churn":null,"harga_sewa_median":null,"harga_sewa_per_m2":null,"belanja_per_jam":null,"njop_m2":null,"opportunity_score":34.0,"hidden_gem_score":null,"kuadran":"JEBAKAN_GENGSI"}},{"type":"Feature","id":"898c10732bbffff","geometry":{"type":"Polygon","coordinates":[[[106.886706,-6.370049],[106.88629,-6.368318],[106.884517,-6.367884],[106.883159,-6.369181],[106.883575,-6.370912],[106.885348,-6.371346],[106.886706,-6.370049]]]},"properties":{"h3_index":"898c10732bbffff","kawasan":"Harjamukti","tingkat_keyakinan":"RENDAH","n_titik_misi":0,"data_source":"predicted","zona_izin_komersial":null,"indeks_churn":null,"harga_sewa_median":null,"harga_sewa_per_m2":null,"belanja_per_jam":null,"njop_m2":null,"opportunity_score":48.0,"hidden_gem_score":null,"kuadran":"PEMENANG_JELAS"}},{"type":"Feature","id":"898c10732c3ffff","geometry":{"type":"Polygon","coordinates":[[[106.897041,-6.364434],[106.896626,-6.362703],[106.894852,-6.362268],[106.893495,-6.363565],[106.89391,-6.365296],[106.895683,-6.365731],[106.897041,-6.364434]]]},"properties":{"h3_index":"898c10732c3ffff","kawasan":"Harjamukti","tingkat_keyakinan":"RENDAH","n_titik_misi":0,"data_source":"predicted","zona_izin_komersial":false,"indeks_churn":null,"harga_sewa_median":null,"harga_sewa_per_m2":null,"belanja_per_jam":null,"njop_m2":null,"opportunity_score":0.0,"hidden_gem_score":null,"kuadran":"HINDARI"}},{"type":"Feature","id":"898c10732c7ffff","geometry":{"type":"Polygon","coordinates":[[[106.89391,-6.365296],[106.893495,-6.363565],[106.891721,-6.363131],[106.890363,-6.364428],[106.890779,-6.366159],[106.892552,-6.366593],[106.89391,-6.365296]]]},"properties":{"h3_index":"898c10732c7ffff","kawasan":"Harjamukti","tingkat_keyakinan":"RENDAH","n_titik_misi":0,"data_source":"predicted","zona_izin_komersial":null,"indeks_churn":null,"harga_sewa_median":null,"harga_sewa_per_m2":null,"belanja_per_jam":null,"njop_m2":null,"opportunity_score":41.7,"hidden_gem_score":null,"kuadran":"HINDARI"}},{"type":"Feature","id":"898c10732cbffff","geometry":{"type":"Polygon","coordinates":[[[106.897983,-6.361406],[106.897568,-6.359674],[106.895794,-6.35924],[106.894437,-6.360537],[106.894852,-6.362268],[106.896626,-6.362703],[106.897983,-6.361406]]]},"properties":{"h3_index":"898c10732cbffff","kawasan":"Harjamukti","tingkat_keyakinan":"RENDAH","n_titik_misi":0,"data_source":"predicted","zona_izin_komersial":false,"indeks_churn":null,"harga_sewa_median":null,"harga_sewa_per_m2":null,"belanja_per_jam":null,"njop_m2":null,"opportunity_score":0.0,"hidden_gem_score":null,"kuadran":"HINDARI"}},{"type":"Feature","id":"898c10732cfffff","geometry":{"type":"Polygon","coordinates":[[[106.894852,-6.362268],[106.894437,-6.360537],[106.892663,-6.360103],[106.891306,-6.3614],[106.891721,-6.363131],[106.893495,-6.363565],[106.894852,-6.362268]]]},"properties":{"h3_index":"898c10732cfffff","kawasan":"Harjamukti","tingkat_keyakinan":"RENDAH","n_titik_misi":0,"data_source":"predicted","zona_izin_komersial":null,"indeks_churn":null,"harga_sewa_median":null,"harga_sewa_per_m2":null,"belanja_per_jam":null,"njop_m2":null,"opportunity_score":39.5,"hidden_gem_score":null,"kuadran":"HINDARI"}},{"type":"Feature","id":"898c10732d3ffff","geometry":{"type":"Polygon","coordinates":[[[106.89923,-6.366599],[106.898814,-6.364868],[106.897041,-6.364434],[106.895683,-6.365731],[106.896099,-6.367462],[106.897872,-6.367896],[106.89923,-6.366599]]]},"properties":{"h3_index":"898c10732d3ffff","kawasan":"Harjamukti","tingkat_keyakinan":"RENDAH","n_titik_misi":0,"data_source":"predicted","zona_izin_komersial":false,"indeks_churn":null,"harga_sewa_median":null,"harga_sewa_per_m2":null,"belanja_per_jam":null,"njop_m2":null,"opportunity_score":0.0,"hidden_gem_score":null,"kuadran":"HINDARI"}},{"type":"Feature","id":"898c10732d7ffff","geometry":{"type":"Polygon","coordinates":[[[106.896099,-6.367462],[106.895683,-6.365731],[106.89391,-6.365296],[106.892552,-6.366593],[106.892968,-6.368324],[106.894741,-6.368758],[106.896099,-6.367462]]]},"properties":{"h3_index":"898c10732d7ffff","kawasan":"Harjamukti","tingkat_keyakinan":"RENDAH","n_titik_misi":0,"data_source":"predicted","zona_izin_komersial":true,"indeks_churn":null,"harga_sewa_median":null,"harga_sewa_per_m2":null,"belanja_per_jam":null,"njop_m2":null,"opportunity_score":64.5,"hidden_gem_score":null,"kuadran":"HIDDEN_GEM"}},{"type":"Feature","id":"898c10732dbffff","geometry":{"type":"Polygon","coordinates":[[[106.900172,-6.363571],[106.899757,-6.36184],[106.897983,-6.361406],[106.896626,-6.362703],[106.897041,-6.364434],[106.898814,-6.364868],[106.900172,-6.363571]]]},"properties":{"h3_index":"898c10732dbffff","kawasan":"Harjamukti","tingkat_keyakinan":"RENDAH","n_titik_misi":0,"data_source":"predicted","zona_izin_komersial":false,"indeks_churn":null,"harga_sewa_median":null,"harga_sewa_per_m2":null,"belanja_per_jam":null,"njop_m2":null,"opportunity_score":0.0,"hidden_gem_score":null,"kuadran":"HINDARI"}},{"type":"Feature","id":"898c107344bffff","geometry":{"type":"Polygon","coordinates":[[[106.903274,-6.390397],[106.902859,-6.388666],[106.901086,-6.388232],[106.899728,-6.389529],[106.900144,-6.391259],[106.901917,-6.391693],[106.903274,-6.390397]]]},"properties":{"h3_index":"898c107344bffff","kawasan":"Harjamukti","tingkat_keyakinan":"RENDAH","n_titik_misi":0,"data_source":"predicted","zona_izin_komersial":null,"indeks_churn":null,"harga_sewa_median":null,"harga_sewa_per_m2":null,"belanja_per_jam":null,"njop_m2":null,"opportunity_score":34.4,"hidden_gem_score":null,"kuadran":"HINDARI"}},{"type":"Feature","id":"898c107344fffff","geometry":{"type":"Polygon","coordinates":[[[106.900144,-6.391259],[106.899728,-6.389529],[106.897955,-6.389095],[106.896598,-6.390391],[106.897013,-6.392122],[106.898786,-6.392556],[106.900144,-6.391259]]]},"properties":{"h3_index":"898c107344fffff","kawasan":"Harjamukti","tingkat_keyakinan":"RENDAH","n_titik_misi":0,"data_source":"predicted","zona_izin_komersial":null,"indeks_churn":null,"harga_sewa_median":null,"harga_sewa_per_m2":null,"belanja_per_jam":null,"njop_m2":null,"opportunity_score":31.2,"hidden_gem_score":null,"kuadran":"JEBAKAN_GENGSI"}},{"type":"Feature","id":"898c1073463ffff","geometry":{"type":"Polygon","coordinates":[[[106.893882,-6.392984],[106.893467,-6.391254],[106.891694,-6.39082],[106.890336,-6.392116],[106.890752,-6.393847],[106.892525,-6.394281],[106.893882,-6.392984]]]},"properties":{"h3_index":"898c1073463ffff","kawasan":"Harjamukti","tingkat_keyakinan":"RENDAH","n_titik_misi":0,"data_source":"predicted","zona_izin_komersial":null,"indeks_churn":null,"harga_sewa_median":null,"harga_sewa_per_m2":null,"belanja_per_jam":null,"njop_m2":null,"opportunity_score":37.3,"hidden_gem_score":null,"kuadran":"HINDARI"}},{"type":"Feature","id":"898c1073467ffff","geometry":{"type":"Polygon","coordinates":[[[106.890752,-6.393847],[106.890336,-6.392116],[106.888563,-6.391682],[106.887205,-6.392979],[106.887621,-6.39471],[106.889394,-6.395144],[106.890752,-6.393847]]]},"properties":{"h3_index":"898c1073467ffff","kawasan":"Harjamukti","tingkat_keyakinan":"RENDAH","n_titik_misi":0,"data_source":"predicted","zona_izin_komersial":null,"indeks_churn":null,"harga_sewa_median":null,"harga_sewa_per_m2":null,"belanja_per_jam":null,"njop_m2":null,"opportunity_score":35.2,"hidden_gem_score":null,"kuadran":"JEBAKAN_GENGSI"}},{"type":"Feature","id":"898c107346bffff","geometry":{"type":"Polygon","coordinates":[[[106.894824,-6.389957],[106.894409,-6.388226],[106.892636,-6.387792],[106.891278,-6.389089],[106.891694,-6.39082],[106.893467,-6.391254],[106.894824,-6.389957]]]},"properties":{"h3_index":"898c107346bffff","kawasan":"Harjamukti","tingkat_keyakinan":"RENDAH","n_titik_misi":0,"data_source":"predicted","zona_izin_komersial":null,"indeks_churn":null,"harga_sewa_median":null,"harga_sewa_per_m2":null,"belanja_per_jam":null,"njop_m2":null,"opportunity_score":37.5,"hidden_gem_score":null,"kuadran":"JEBAKAN_GENGSI"}},{"type":"Feature","id":"898c107346fffff","geometry":{"type":"Polygon","coordinates":[[[106.891694,-6.39082],[106.891278,-6.389089],[106.889505,-6.388655],[106.888147,-6.389952],[106.888563,-6.391682],[106.890336,-6.392116],[106.891694,-6.39082]]]},"properties":{"h3_index":"898c107346fffff","kawasan":"Harjamukti","tingkat_keyakinan":"RENDAH","n_titik_misi":0,"data_source":"predicted","zona_izin_komersial":null,"indeks_churn":null,"harga_sewa_median":null,"harga_sewa_per_m2":null,"belanja_per_jam":null,"njop_m2":null,"opportunity_score":37.1,"hidden_gem_score":null,"kuadran":"HINDARI"}},{"type":"Feature","id":"898c107347bffff","geometry":{"type":"Polygon","coordinates":[[[106.897013,-6.392122],[106.896598,-6.390391],[106.894824,-6.389957],[106.893467,-6.391254],[106.893882,-6.392984],[106.895656,-6.393418],[106.897013,-6.392122]]]},"properties":{"h3_index":"898c107347bffff","kawasan":"Harjamukti","tingkat_keyakinan":"RENDAH","n_titik_misi":0,"data_source":"predicted","zona_izin_komersial":null,"indeks_churn":null,"harga_sewa_median":null,"harga_sewa_per_m2":null,"belanja_per_jam":null,"njop_m2":null,"opportunity_score":36.0,"hidden_gem_score":null,"kuadran":"HINDARI"}},{"type":"Feature","id":"898c1073603ffff","geometry":{"type":"Polygon","coordinates":[[[106.903912,-6.37915],[106.903497,-6.377419],[106.901723,-6.376985],[106.900366,-6.378282],[106.900781,-6.380012],[106.902554,-6.380446],[106.903912,-6.37915]]]},"properties":{"h3_index":"898c1073603ffff","kawasan":"Harjamukti","tingkat_keyakinan":"RENDAH","n_titik_misi":0,"data_source":"predicted","zona_izin_komersial":null,"indeks_churn":null,"harga_sewa_median":null,"harga_sewa_per_m2":null,"belanja_per_jam":null,"njop_m2":null,"opportunity_score":35.9,"hidden_gem_score":null,"kuadran":"HINDARI"}},{"type":"Feature","id":"898c1073607ffff","geometry":{"type":"Polygon","coordinates":[[[106.900781,-6.380012],[106.900366,-6.378282],[106.898593,-6.377847],[106.897235,-6.379144],[106.897651,-6.380875],[106.899424,-6.381309],[106.900781,-6.380012]]]},"properties":{"h3_index":"898c1073607ffff","kawasan":"Harjamukti","tingkat_keyakinan":"RENDAH","n_titik_misi":0,"data_source":"predicted","zona_izin_komersial":null,"indeks_churn":null,"harga_sewa_median":null,"harga_sewa_per_m2":null,"belanja_per_jam":null,"njop_m2":null,"opportunity_score":38.9,"hidden_gem_score":null,"kuadran":"JEBAKAN_GENGSI"}},{"type":"Feature","id":"898c107360bffff","geometry":{"type":"Polygon","coordinates":[[[106.904854,-6.376122],[106.904439,-6.374391],[106.902665,-6.373957],[106.901308,-6.375254],[106.901723,-6.376985],[106.903497,-6.377419],[106.904854,-6.376122]]]},"properties":{"h3_index":"898c107360bffff","kawasan":"Harjamukti","tingkat_keyakinan":"RENDAH","n_titik_misi":0,"data_source":"predicted","zona_izin_komersial":null,"indeks_churn":null,"harga_sewa_median":null,"harga_sewa_per_m2":null,"belanja_per_jam":null,"njop_m2":null,"opportunity_score":57.3,"hidden_gem_score":null,"kuadran":"HIDDEN_GEM"}},{"type":"Feature","id":"898c107360fffff","geometry":{"type":"Polygon","coordinates":[[[106.901723,-6.376985],[106.901308,-6.375254],[106.899535,-6.37482],[106.898177,-6.376117],[106.898593,-6.377847],[106.900366,-6.378282],[106.901723,-6.376985]]]},"properties":{"h3_index":"898c107360fffff","kawasan":"Harjamukti","tingkat_keyakinan":"RENDAH","n_titik_misi":1,"data_source":"observed","zona_izin_komersial":null,"indeks_churn":null,"harga_sewa_median":null,"harga_sewa_per_m2":null,"belanja_per_jam":null,"njop_m2":null,"opportunity_score":42.6,"hidden_gem_score":null,"kuadran":"HINDARI"}},{"type":"Feature","id":"898c1073613ffff","geometry":{"type":"Polygon","coordinates":[[[106.906101,-6.381315],[106.905685,-6.379584],[106.903912,-6.37915],[106.902554,-6.380446],[106.90297,-6.382177],[106.904743,-6.382611],[106.906101,-6.381315]]]},"properties":{"h3_index":"898c1073613ffff","kawasan":"Harjamukti","tingkat_keyakinan":"RENDAH","n_titik_misi":0,"data_source":"predicted","zona_izin_komersial":null,"indeks_churn":null,"harga_sewa_median":null,"harga_sewa_per_m2":null,"belanja_per_jam":null,"njop_m2":null,"opportunity_score":35.1,"hidden_gem_score":null,"kuadran":"HINDARI"}},{"type":"Feature","id":"898c1073617ffff","geometry":{"type":"Polygon","coordinates":[[[106.90297,-6.382177],[106.902554,-6.380446],[106.900781,-6.380012],[106.899424,-6.381309],[106.899839,-6.38304],[106.901612,-6.383474],[106.90297,-6.382177]]]},"properties":{"h3_index":"898c1073617ffff","kawasan":"Harjamukti","tingkat_keyakinan":"RENDAH","n_titik_misi":0,"data_source":"predicted","zona_izin_komersial":null,"indeks_churn":null,"harga_sewa_median":null,"harga_sewa_per_m2":null,"belanja_per_jam":null,"njop_m2":null,"opportunity_score":35.8,"hidden_gem_score":null,"kuadran":"JEBAKAN_GENGSI"}},{"type":"Feature","id":"898c107361bffff","geometry":{"type":"Polygon","coordinates":[[[106.907043,-6.378287],[106.906627,-6.376556],[106.904854,-6.376122],[106.903497,-6.377419],[106.903912,-6.37915],[106.905685,-6.379584],[106.907043,-6.378287]]]},"properties":{"h3_index":"898c107361bffff","kawasan":"Harjamukti","tingkat_keyakinan":"RENDAH","n_titik_misi":0,"data_source":"predicted","zona_izin_komersial":null,"indeks_churn":null,"harga_sewa_median":null,"harga_sewa_per_m2":null,"belanja_per_jam":null,"njop_m2":null,"opportunity_score":36.3,"hidden_gem_score":null,"kuadran":"HINDARI"}},{"type":"Feature","id":"898c1073623ffff","geometry":{"type":"Polygon","coordinates":[[[106.895462,-6.37871],[106.895046,-6.376979],[106.893273,-6.376545],[106.891915,-6.377842],[106.892331,-6.379573],[106.894104,-6.380007],[106.895462,-6.37871]]]},"properties":{"h3_index":"898c1073623ffff","kawasan":"Harjamukti","tingkat_keyakinan":"RENDAH","n_titik_misi":0,"data_source":"predicted","zona_izin_komersial":null,"indeks_churn":null,"harga_sewa_median":null,"harga_sewa_per_m2":null,"belanja_per_jam":null,"njop_m2":null,"opportunity_score":50.7,"hidden_gem_score":null,"kuadran":"HIDDEN_GEM"}},{"type":"Feature","id":"898c1073627ffff","geometry":{"type":"Polygon","coordinates":[[[106.892331,-6.379573],[106.891915,-6.377842],[106.890142,-6.377407],[106.888784,-6.378704],[106.8892,-6.380435],[106.890973,-6.380869],[106.892331,-6.379573]]]},"properties":{"h3_index":"898c1073627ffff","kawasan":"Harjamukti","tingkat_keyakinan":"RENDAH","n_titik_misi":0,"data_source":"predicted","zona_izin_komersial":null,"indeks_churn":null,"harga_sewa_median":null,"harga_sewa_per_m2":null,"belanja_per_jam":null,"njop_m2":null,"opportunity_score":43.6,"hidden_gem_score":null,"kuadran":"HINDARI"}},{"type":"Feature","id":"898c107362bffff","geometry":{"type":"Polygon","coordinates":[[[106.896404,-6.375682],[106.895988,-6.373951],[106.894215,-6.373517],[106.892857,-6.374814],[106.893273,-6.376545],[106.895046,-6.376979],[106.896404,-6.375682]]]},"properties":{"h3_index":"898c107362bffff","kawasan":"Harjamukti","tingkat_keyakinan":"RENDAH","n_titik_misi":1,"data_source":"observed","zona_izin_komersial":null,"indeks_churn":null,"harga_sewa_median":null,"harga_sewa_per_m2":null,"belanja_per_jam":null,"njop_m2":null,"opportunity_score":49.6,"hidden_gem_score":0.490354598622548,"kuadran":"HIDDEN_GEM"}},{"type":"Feature","id":"898c107362fffff","geometry":{"type":"Polygon","coordinates":[[[106.893273,-6.376545],[106.892857,-6.374814],[106.891084,-6.37438],[106.889726,-6.375677],[106.890142,-6.377407],[106.891915,-6.377842],[106.893273,-6.376545]]]},"properties":{"h3_index":"898c107362fffff","kawasan":"Harjamukti","tingkat_keyakinan":"RENDAH","n_titik_misi":0,"data_source":"predicted","zona_izin_komersial":null,"indeks_churn":null,"harga_sewa_median":null,"harga_sewa_per_m2":null,"belanja_per_jam":null,"njop_m2":null,"opportunity_score":47.4,"hidden_gem_score":null,"kuadran":"HIDDEN_GEM"}},{"type":"Feature","id":"898c1073633ffff","geometry":{"type":"Polygon","coordinates":[[[106.897651,-6.380875],[106.897235,-6.379144],[106.895462,-6.37871],[106.894104,-6.380007],[106.89452,-6.381738],[106.896293,-6.382172],[106.897651,-6.380875]]]},"properties":{"h3_index":"898c1073633ffff","kawasan":"Harjamukti","tingkat_keyakinan":"RENDAH","n_titik_misi":0,"data_source":"predicted","zona_izin_komersial":null,"indeks_churn":null,"harga_sewa_median":null,"harga_sewa_per_m2":null,"belanja_per_jam":null,"njop_m2":null,"opportunity_score":40.9,"hidden_gem_score":null,"kuadran":"HINDARI"}},{"type":"Feature","id":"898c1073637ffff","geometry":{"type":"Polygon","coordinates":[[[106.89452,-6.381738],[106.894104,-6.380007],[106.892331,-6.379573],[106.890973,-6.380869],[106.891389,-6.3826],[106.893162,-6.383034],[106.89452,-6.381738]]]},"properties":{"h3_index":"898c1073637ffff","kawasan":"Harjamukti","tingkat_keyakinan":"RENDAH","n_titik_misi":0,"data_source":"predicted","zona_izin_komersial":null,"indeks_churn":null,"harga_sewa_median":null,"harga_sewa_per_m2":null,"belanja_per_jam":null,"njop_m2":null,"opportunity_score":43.5,"hidden_gem_score":null,"kuadran":"HINDARI"}},{"type":"Feature","id":"898c107363bffff","geometry":{"type":"Polygon","coordinates":[[[106.898593,-6.377847],[106.898177,-6.376117],[106.896404,-6.375682],[106.895046,-6.376979],[106.895462,-6.37871],[106.897235,-6.379144],[106.898593,-6.377847]]]},"properties":{"h3_index":"898c107363bffff","kawasan":"Harjamukti","tingkat_keyakinan":"RENDAH","n_titik_misi":0,"data_source":"predicted","zona_izin_komersial":null,"indeks_churn":null,"harga_sewa_median":null,"harga_sewa_per_m2":null,"belanja_per_jam":null,"njop_m2":null,"opportunity_score":45.4,"hidden_gem_score":null,"kuadran":"HIDDEN_GEM"}},{"type":"Feature","id":"898c1073643ffff","geometry":{"type":"Polygon","coordinates":[[[106.908927,-6.372232],[106.908511,-6.370501],[106.906738,-6.370067],[106.905381,-6.371364],[106.905796,-6.373095],[106.907569,-6.373529],[106.908927,-6.372232]]]},"properties":{"h3_index":"898c1073643ffff","kawasan":"Harjamukti","tingkat_keyakinan":"RENDAH","n_titik_misi":0,"data_source":"predicted","zona_izin_komersial":null,"indeks_churn":null,"harga_sewa_median":null,"harga_sewa_per_m2":null,"belanja_per_jam":null,"njop_m2":null,"opportunity_score":36.4,"hidden_gem_score":null,"kuadran":"HINDARI"}},{"type":"Feature","id":"898c1073647ffff","geometry":{"type":"Polygon","coordinates":[[[106.905796,-6.373095],[106.905381,-6.371364],[106.903608,-6.37093],[106.90225,-6.372226],[106.902665,-6.373957],[106.904439,-6.374391],[106.905796,-6.373095]]]},"properties":{"h3_index":"898c1073647ffff","kawasan":"Harjamukti","tingkat_keyakinan":"RENDAH","n_titik_misi":0,"data_source":"predicted","zona_izin_komersial":null,"indeks_churn":null,"harga_sewa_median":null,"harga_sewa_per_m2":null,"belanja_per_jam":null,"njop_m2":null,"opportunity_score":38.1,"hidden_gem_score":null,"kuadran":"HINDARI"}},{"type":"Feature","id":"898c107364bffff","geometry":{"type":"Polygon","coordinates":[[[106.909869,-6.369204],[106.909454,-6.367473],[106.90768,-6.367039],[106.906323,-6.368336],[106.906738,-6.370067],[106.908511,-6.370501],[106.909869,-6.369204]]]},"properties":{"h3_index":"898c107364bffff","kawasan":"Harjamukti","tingkat_keyakinan":"RENDAH","n_titik_misi":0,"data_source":"predicted","zona_izin_komersial":null,"indeks_churn":null,"harga_sewa_median":null,"harga_sewa_per_m2":null,"belanja_per_jam":null,"njop_m2":null,"opportunity_score":17.9,"hidden_gem_score":null,"kuadran":"HINDARI"}},{"type":"Feature","id":"898c107364fffff","geometry":{"type":"Polygon","coordinates":[[[106.906738,-6.370067],[106.906323,-6.368336],[106.90455,-6.367902],[106.903192,-6.369199],[106.903608,-6.37093],[106.905381,-6.371364],[106.906738,-6.370067]]]},"properties":{"h3_index":"898c107364fffff","kawasan":"Harjamukti","tingkat_keyakinan":"RENDAH","n_titik_misi":0,"data_source":"predicted","zona_izin_komersial":null,"indeks_churn":null,"harga_sewa_median":null,"harga_sewa_per_m2":null,"belanja_per_jam":null,"njop_m2":null,"opportunity_score":35.9,"hidden_gem_score":null,"kuadran":"HINDARI"}},{"type":"Feature","id":"898c1073653ffff","geometry":{"type":"Polygon","coordinates":[[[106.911116,-6.374397],[106.9107,-6.372666],[106.908927,-6.372232],[106.907569,-6.373529],[106.907985,-6.37526],[106.909758,-6.375694],[106.911116,-6.374397]]]},"properties":{"h3_index":"898c1073653ffff","kawasan":"Harjamukti","tingkat_keyakinan":"RENDAH","n_titik_misi":0,"data_source":"predicted","zona_izin_komersial":null,"indeks_churn":null,"harga_sewa_median":null,"harga_sewa_per_m2":null,"belanja_per_jam":null,"njop_m2":null,"opportunity_score":34.4,"hidden_gem_score":null,"kuadran":"HINDARI"}},{"type":"Feature","id":"898c1073657ffff","geometry":{"type":"Polygon","coordinates":[[[106.907985,-6.37526],[106.907569,-6.373529],[106.905796,-6.373095],[106.904439,-6.374391],[106.904854,-6.376122],[106.906627,-6.376556],[106.907985,-6.37526]]]},"properties":{"h3_index":"898c1073657ffff","kawasan":"Harjamukti","tingkat_keyakinan":"RENDAH","n_titik_misi":0,"data_source":"predicted","zona_izin_komersial":null,"indeks_churn":null,"harga_sewa_median":null,"harga_sewa_per_m2":null,"belanja_per_jam":null,"njop_m2":null,"opportunity_score":37.4,"hidden_gem_score":null,"kuadran":"HINDARI"}},{"type":"Feature","id":"898c107365bffff","geometry":{"type":"Polygon","coordinates":[[[106.912058,-6.371369],[106.911642,-6.369638],[106.909869,-6.369204],[106.908511,-6.370501],[106.908927,-6.372232],[106.9107,-6.372666],[106.912058,-6.371369]]]},"properties":{"h3_index":"898c107365bffff","kawasan":"Harjamukti","tingkat_keyakinan":"RENDAH","n_titik_misi":0,"data_source":"predicted","zona_izin_komersial":null,"indeks_churn":null,"harga_sewa_median":null,"harga_sewa_per_m2":null,"belanja_per_jam":null,"njop_m2":null,"opportunity_score":19.9,"hidden_gem_score":null,"kuadran":"HINDARI"}},{"type":"Feature","id":"898c1073663ffff","geometry":{"type":"Polygon","coordinates":[[[106.900477,-6.371792],[106.900061,-6.370061],[106.898288,-6.369627],[106.89693,-6.370924],[106.897346,-6.372655],[106.899119,-6.373089],[106.900477,-6.371792]]]},"properties":{"h3_index":"898c1073663ffff","kawasan":"Harjamukti","tingkat_keyakinan":"RENDAH","n_titik_misi":0,"data_source":"predicted","zona_izin_komersial":null,"indeks_churn":null,"harga_sewa_median":null,"harga_sewa_per_m2":null,"belanja_per_jam":null,"njop_m2":null,"opportunity_score":56.0,"hidden_gem_score":null,"kuadran":"PEMENANG_JELAS"}},{"type":"Feature","id":"898c1073667ffff","geometry":{"type":"Polygon","coordinates":[[[106.897346,-6.372655],[106.89693,-6.370924],[106.895157,-6.370489],[106.893799,-6.371786],[106.894215,-6.373517],[106.895988,-6.373951],[106.897346,-6.372655]]]},"properties":{"h3_index":"898c1073667ffff","kawasan":"Harjamukti","tingkat_keyakinan":"RENDAH","n_titik_misi":0,"data_source":"predicted","zona_izin_komersial":true,"indeks_churn":null,"harga_sewa_median":null,"harga_sewa_per_m2":null,"belanja_per_jam":null,"njop_m2":null,"opportunity_score":75.9,"hidden_gem_score":null,"kuadran":"HIDDEN_GEM"}},{"type":"Feature","id":"898c107366bffff","geometry":{"type":"Polygon","coordinates":[[[106.901419,-6.368764],[106.901003,-6.367033],[106.89923,-6.366599],[106.897872,-6.367896],[106.898288,-6.369627],[106.900061,-6.370061],[106.901419,-6.368764]]]},"properties":{"h3_index":"898c107366bffff","kawasan":"Harjamukti","tingkat_keyakinan":"RENDAH","n_titik_misi":0,"data_source":"predicted","zona_izin_komersial":null,"indeks_churn":null,"harga_sewa_median":null,"harga_sewa_per_m2":null,"belanja_per_jam":null,"njop_m2":null,"opportunity_score":45.9,"hidden_gem_score":null,"kuadran":"HIDDEN_GEM"}},{"type":"Feature","id":"898c107366fffff","geometry":{"type":"Polygon","coordinates":[[[106.898288,-6.369627],[106.897872,-6.367896],[106.896099,-6.367462],[106.894741,-6.368758],[106.895157,-6.370489],[106.89693,-6.370924],[106.898288,-6.369627]]]},"properties":{"h3_index":"898c107366fffff","kawasan":"Harjamukti","tingkat_keyakinan":"RENDAH","n_titik_misi":0,"data_source":"predicted","zona_izin_komersial":true,"indeks_churn":null,"harga_sewa_median":null,"harga_sewa_per_m2":null,"belanja_per_jam":null,"njop_m2":null,"opportunity_score":42.1,"hidden_gem_score":null,"kuadran":"JEBAKAN_GENGSI"}},{"type":"Feature","id":"898c1073673ffff","geometry":{"type":"Polygon","coordinates":[[[106.902665,-6.373957],[106.90225,-6.372226],[106.900477,-6.371792],[106.899119,-6.373089],[106.899535,-6.37482],[106.901308,-6.375254],[106.902665,-6.373957]]]},"properties":{"h3_index":"898c1073673ffff","kawasan":"Harjamukti","tingkat_keyakinan":"RENDAH","n_titik_misi":0,"data_source":"predicted","zona_izin_komersial":null,"indeks_churn":null,"harga_sewa_median":null,"harga_sewa_per_m2":null,"belanja_per_jam":null,"njop_m2":null,"opportunity_score":38.1,"hidden_gem_score":null,"kuadran":"HINDARI"}},{"type":"Feature","id":"898c1073677ffff","geometry":{"type":"Polygon","coordinates":[[[106.899535,-6.37482],[106.899119,-6.373089],[106.897346,-6.372655],[106.895988,-6.373951],[106.896404,-6.375682],[106.898177,-6.376117],[106.899535,-6.37482]]]},"properties":{"h3_index":"898c1073677ffff","kawasan":"Harjamukti","tingkat_keyakinan":"RENDAH","n_titik_misi":0,"data_source":"predicted","zona_izin_komersial":null,"indeks_churn":null,"harga_sewa_median":null,"harga_sewa_per_m2":null,"belanja_per_jam":null,"njop_m2":null,"opportunity_score":53.1,"hidden_gem_score":null,"kuadran":"HIDDEN_GEM"}},{"type":"Feature","id":"898c107367bffff","geometry":{"type":"Polygon","coordinates":[[[106.903608,-6.37093],[106.903192,-6.369199],[106.901419,-6.368764],[106.900061,-6.370061],[106.900477,-6.371792],[106.90225,-6.372226],[106.903608,-6.37093]]]},"properties":{"h3_index":"898c107367bffff","kawasan":"Harjamukti","tingkat_keyakinan":"RENDAH","n_titik_misi":0,"data_source":"predicted","zona_izin_komersial":null,"indeks_churn":null,"harga_sewa_median":null,"harga_sewa_per_m2":null,"belanja_per_jam":null,"njop_m2":null,"opportunity_score":37.1,"hidden_gem_score":null,"kuadran":"HINDARI"}},{"type":"Feature","id":"898c1073683ffff","geometry":{"type":"Polygon","coordinates":[[[106.907347,-6.386507],[106.906932,-6.384776],[106.905159,-6.384342],[106.903801,-6.385639],[106.904217,-6.387369],[106.90599,-6.387803],[106.907347,-6.386507]]]},"properties":{"h3_index":"898c1073683ffff","kawasan":"Harjamukti","tingkat_keyakinan":"RENDAH","n_titik_misi":0,"data_source":"predicted","zona_izin_komersial":null,"indeks_churn":null,"harga_sewa_median":null,"harga_sewa_per_m2":null,"belanja_per_jam":null,"njop_m2":null,"opportunity_score":26.3,"hidden_gem_score":null,"kuadran":"HINDARI"}},{"type":"Feature","id":"898c1073687ffff","geometry":{"type":"Polygon","coordinates":[[[106.904217,-6.387369],[106.903801,-6.385639],[106.902028,-6.385205],[106.90067,-6.386501],[106.901086,-6.388232],[106.902859,-6.388666],[106.904217,-6.387369]]]},"properties":{"h3_index":"898c1073687ffff","kawasan":"Harjamukti","tingkat_keyakinan":"RENDAH","n_titik_misi":0,"data_source":"predicted","zona_izin_komersial":null,"indeks_churn":null,"harga_sewa_median":null,"harga_sewa_per_m2":null,"belanja_per_jam":null,"njop_m2":null,"opportunity_score":34.2,"hidden_gem_score":null,"kuadran":"HINDARI"}},{"type":"Feature","id":"898c107368bffff","geometry":{"type":"Polygon","coordinates":[[[106.908289,-6.383479],[106.907874,-6.381749],[106.906101,-6.381315],[106.904743,-6.382611],[106.905159,-6.384342],[106.906932,-6.384776],[106.908289,-6.383479]]]},"properties":{"h3_index":"898c107368bffff","kawasan":"Harjamukti","tingkat_keyakinan":"RENDAH","n_titik_misi":0,"data_source":"predicted","zona_izin_komersial":null,"indeks_churn":null,"harga_sewa_median":null,"harga_sewa_per_m2":null,"belanja_per_jam":null,"njop_m2":null,"opportunity_score":23.9,"hidden_gem_score":null,"kuadran":"HINDARI"}},{"type":"Feature","id":"898c107368fffff","geometry":{"type":"Polygon","coordinates":[[[106.905159,-6.384342],[106.904743,-6.382611],[106.90297,-6.382177],[106.901612,-6.383474],[106.902028,-6.385205],[106.903801,-6.385639],[106.905159,-6.384342]]]},"properties":{"h3_index":"898c107368fffff","kawasan":"Harjamukti","tingkat_keyakinan":"RENDAH","n_titik_misi":0,"data_source":"predicted","zona_izin_komersial":null,"indeks_churn":null,"harga_sewa_median":null,"harga_sewa_per_m2":null,"belanja_per_jam":null,"njop_m2":null,"opportunity_score":35.5,"hidden_gem_score":null,"kuadran":"HINDARI"}},{"type":"Feature","id":"898c1073697ffff","geometry":{"type":"Polygon","coordinates":[[[106.906405,-6.389534],[106.90599,-6.387803],[106.904217,-6.387369],[106.902859,-6.388666],[106.903274,-6.390397],[106.905048,-6.39083],[106.906405,-6.389534]]]},"properties":{"h3_index":"898c1073697ffff","kawasan":"Harjamukti","tingkat_keyakinan":"RENDAH","n_titik_misi":0,"data_source":"predicted","zona_izin_komersial":null,"indeks_churn":null,"harga_sewa_median":null,"harga_sewa_per_m2":null,"belanja_per_jam":null,"njop_m2":null,"opportunity_score":33.3,"hidden_gem_score":null,"kuadran":"HINDARI"}},{"type":"Feature","id":"898c107369bffff","geometry":{"type":"Polygon","coordinates":[[[106.910478,-6.385644],[106.910062,-6.383913],[106.908289,-6.383479],[106.906932,-6.384776],[106.907347,-6.386507],[106.90912,-6.386941],[106.910478,-6.385644]]]},"properties":{"h3_index":"898c107369bffff","kawasan":"Harjamukti","tingkat_keyakinan":"RENDAH","n_titik_misi":0,"data_source":"predicted","zona_izin_komersial":null,"indeks_churn":null,"harga_sewa_median":null,"harga_sewa_per_m2":null,"belanja_per_jam":null,"njop_m2":null,"opportunity_score":26.9,"hidden_gem_score":null,"kuadran":"HINDARI"}},{"type":"Feature","id":"898c10736a3ffff","geometry":{"type":"Polygon","coordinates":[[[106.898897,-6.386067],[106.898482,-6.384336],[106.896708,-6.383902],[106.895351,-6.385199],[106.895766,-6.38693],[106.89754,-6.387364],[106.898897,-6.386067]]]},"properties":{"h3_index":"898c10736a3ffff","kawasan":"Harjamukti","tingkat_keyakinan":"RENDAH","n_titik_misi":0,"data_source":"predicted","zona_izin_komersial":null,"indeks_churn":null,"harga_sewa_median":null,"harga_sewa_per_m2":null,"belanja_per_jam":null,"njop_m2":null,"opportunity_score":39.3,"hidden_gem_score":null,"kuadran":"HINDARI"}},{"type":"Feature","id":"898c10736a7ffff","geometry":{"type":"Polygon","coordinates":[[[106.895766,-6.38693],[106.895351,-6.385199],[106.893578,-6.384765],[106.89222,-6.386062],[106.892636,-6.387792],[106.894409,-6.388226],[106.895766,-6.38693]]]},"properties":{"h3_index":"898c10736a7ffff","kawasan":"Harjamukti","tingkat_keyakinan":"RENDAH","n_titik_misi":0,"data_source":"predicted","zona_izin_komersial":null,"indeks_churn":null,"harga_sewa_median":null,"harga_sewa_per_m2":null,"belanja_per_jam":null,"njop_m2":null,"opportunity_score":38.5,"hidden_gem_score":null,"kuadran":"HINDARI"}},{"type":"Feature","id":"898c10736abffff","geometry":{"type":"Polygon","coordinates":[[[106.899839,-6.38304],[106.899424,-6.381309],[106.897651,-6.380875],[106.896293,-6.382172],[106.896708,-6.383902],[106.898482,-6.384336],[106.899839,-6.38304]]]},"properties":{"h3_index":"898c10736abffff","kawasan":"Harjamukti","tingkat_keyakinan":"RENDAH","n_titik_misi":0,"data_source":"predicted","zona_izin_komersial":null,"indeks_churn":null,"harga_sewa_median":null,"harga_sewa_per_m2":null,"belanja_per_jam":null,"njop_m2":null,"opportunity_score":40.8,"hidden_gem_score":null,"kuadran":"HINDARI"}},{"type":"Feature","id":"898c10736afffff","geometry":{"type":"Polygon","coordinates":[[[106.896708,-6.383902],[106.896293,-6.382172],[106.89452,-6.381738],[106.893162,-6.383034],[106.893578,-6.384765],[106.895351,-6.385199],[106.896708,-6.383902]]]},"properties":{"h3_index":"898c10736afffff","kawasan":"Harjamukti","tingkat_keyakinan":"RENDAH","n_titik_misi":0,"data_source":"predicted","zona_izin_komersial":null,"indeks_churn":null,"harga_sewa_median":null,"harga_sewa_per_m2":null,"belanja_per_jam":null,"njop_m2":null,"opportunity_score":42.4,"hidden_gem_score":null,"kuadran":"HINDARI"}},{"type":"Feature","id":"898c10736b3ffff","geometry":{"type":"Polygon","coordinates":[[[106.901086,-6.388232],[106.90067,-6.386501],[106.898897,-6.386067],[106.89754,-6.387364],[106.897955,-6.389095],[106.899728,-6.389529],[106.901086,-6.388232]]]},"properties":{"h3_index":"898c10736b3ffff","kawasan":"Harjamukti","tingkat_keyakinan":"RENDAH","n_titik_misi":0,"data_source":"predicted","zona_izin_komersial":null,"indeks_churn":null,"harga_sewa_median":null,"harga_sewa_per_m2":null,"belanja_per_jam":null,"njop_m2":null,"opportunity_score":37.0,"hidden_gem_score":null,"kuadran":"HINDARI"}},{"type":"Feature","id":"898c10736b7ffff","geometry":{"type":"Polygon","coordinates":[[[106.897955,-6.389095],[106.89754,-6.387364],[106.895766,-6.38693],[106.894409,-6.388226],[106.894824,-6.389957],[106.896598,-6.390391],[106.897955,-6.389095]]]},"properties":{"h3_index":"898c10736b7ffff","kawasan":"Harjamukti","tingkat_keyakinan":"RENDAH","n_titik_misi":0,"data_source":"predicted","zona_izin_komersial":null,"indeks_churn":null,"harga_sewa_median":null,"harga_sewa_per_m2":null,"belanja_per_jam":null,"njop_m2":null,"opportunity_score":36.7,"hidden_gem_score":null,"kuadran":"HINDARI"}},{"type":"Feature","id":"898c10736bbffff","geometry":{"type":"Polygon","coordinates":[[[106.902028,-6.385205],[106.901612,-6.383474],[106.899839,-6.38304],[106.898482,-6.384336],[106.898897,-6.386067],[106.90067,-6.386501],[106.902028,-6.385205]]]},"properties":{"h3_index":"898c10736bbffff","kawasan":"Harjamukti","tingkat_keyakinan":"RENDAH","n_titik_misi":0,"data_source":"predicted","zona_izin_komersial":null,"indeks_churn":null,"harga_sewa_median":null,"harga_sewa_per_m2":null,"belanja_per_jam":null,"njop_m2":null,"opportunity_score":38.2,"hidden_gem_score":null,"kuadran":"HINDARI"}},{"type":"Feature","id":"898c10736c3ffff","geometry":{"type":"Polygon","coordinates":[[[106.912362,-6.379589],[106.911946,-6.377859],[106.910173,-6.377425],[106.908816,-6.378721],[106.909231,-6.380452],[106.911004,-6.380886],[106.912362,-6.379589]]]},"properties":{"h3_index":"898c10736c3ffff","kawasan":"Harjamukti","tingkat_keyakinan":"RENDAH","n_titik_misi":0,"data_source":"predicted","zona_izin_komersial":null,"indeks_churn":null,"harga_sewa_median":null,"harga_sewa_per_m2":null,"belanja_per_jam":null,"njop_m2":null,"opportunity_score":32.1,"hidden_gem_score":null,"kuadran":"JEBAKAN_GENGSI"}},{"type":"Feature","id":"898c10736c7ffff","geometry":{"type":"Polygon","coordinates":[[[106.909231,-6.380452],[106.908816,-6.378721],[106.907043,-6.378287],[106.905685,-6.379584],[106.906101,-6.381315],[106.907874,-6.381749],[106.909231,-6.380452]]]},"properties":{"h3_index":"898c10736c7ffff","kawasan":"Harjamukti","tingkat_keyakinan":"RENDAH","n_titik_misi":0,"data_source":"predicted","zona_izin_komersial":null,"indeks_churn":null,"harga_sewa_median":null,"harga_sewa_per_m2":null,"belanja_per_jam":null,"njop_m2":null,"opportunity_score":23.3,"hidden_gem_score":null,"kuadran":"HINDARI"}},{"type":"Feature","id":"898c10736cbffff","geometry":{"type":"Polygon","coordinates":[[[106.913304,-6.376562],[106.912889,-6.374831],[106.911116,-6.374397],[106.909758,-6.375694],[106.910173,-6.377425],[106.911946,-6.377859],[106.913304,-6.376562]]]},"properties":{"h3_index":"898c10736cbffff","kawasan":"Harjamukti","tingkat_keyakinan":"RENDAH","n_titik_misi":0,"data_source":"predicted","zona_izin_komersial":null,"indeks_churn":null,"harga_sewa_median":null,"harga_sewa_per_m2":null,"belanja_per_jam":null,"njop_m2":null,"opportunity_score":41.1,"hidden_gem_score":null,"kuadran":"HINDARI"}},{"type":"Feature","id":"898c10736cfffff","geometry":{"type":"Polygon","coordinates":[[[106.910173,-6.377425],[106.909758,-6.375694],[106.907985,-6.37526],[106.906627,-6.376556],[106.907043,-6.378287],[106.908816,-6.378721],[106.910173,-6.377425]]]},"properties":{"h3_index":"898c10736cfffff","kawasan":"Harjamukti","tingkat_keyakinan":"RENDAH","n_titik_misi":0,"data_source":"predicted","zona_izin_komersial":null,"indeks_churn":null,"harga_sewa_median":null,"harga_sewa_per_m2":null,"belanja_per_jam":null,"njop_m2":null,"opportunity_score":34.0,"hidden_gem_score":null,"kuadran":"JEBAKAN_GENGSI"}},{"type":"Feature","id":"898c10736d7ffff","geometry":{"type":"Polygon","coordinates":[[[106.91142,-6.382617],[106.911004,-6.380886],[106.909231,-6.380452],[106.907874,-6.381749],[106.908289,-6.383479],[106.910062,-6.383913],[106.91142,-6.382617]]]},"properties":{"h3_index":"898c10736d7ffff","kawasan":"Harjamukti","tingkat_keyakinan":"RENDAH","n_titik_misi":0,"data_source":"predicted","zona_izin_komersial":null,"indeks_churn":null,"harga_sewa_median":null,"harga_sewa_per_m2":null,"belanja_per_jam":null,"njop_m2":null,"opportunity_score":25.1,"hidden_gem_score":null,"kuadran":"HINDARI"}}]}